{"type":"FeatureCollection","features":[{"type":"Feature","properties":{"mun_code":"01014","mun_name":"Berantevilla","mun_name_local":null,"prov_code":"01","prov_name":"Araba","acom_code":"16","acom_name":"País Vasco","geo_point_2d":{"lon":-2.8332586060361282,"lat":42.6869780359885}},"geometry":{"type":"MultiPolygon","coordinates":[[[[-2.86925,42.64367],[-2.86854,42.6427],[-2.86679,42.64463],[-2.85056,42.6515],[-2.84698,42.65824],[-2.84734,42.66427],[-2.85739,42.66479],[-2.86469,42.66198],[-2.87012,42.65429],[-2.86801,42.64984],[-2.87072,42.64641],[-2.86987,42.64465],[-2.86925,42.64367]]],[[[-2.89505,42.67931],[-2.89662,42.6768],[-2.89326,42.67481],[-2.87417,42.6721],[-2.87065,42.67032],[-2.86057,42.67028],[-2.85257,42.67368],[-2.85203,42.67839],[-2.84657,42.67984],[-2.83964,42.6857],[-2.83742,42.68585],[-2.82805,42.6798],[-2.81861,42.67906],[-2.81479,42.67569],[-2.80744,42.67609],[-2.80589,42.67159],[-2.79679,42.66837],[-2.79029,42.66297],[-2.78138,42.66574],[-2.7679,42.66601],[-2.77133,42.66911],[-2.77574,42.67025],[-2.77079,42.6727],[-2.77051,42.67663],[-2.77836,42.68573],[-2.7845,42.69894],[-2.79549,42.69795],[-2.80673,42.70233],[-2.81101,42.70674],[-2.8253,42.70894],[-2.82899,42.71901],[-2.83838,42.72149],[-2.84087,42.71924],[-2.855,42.71494],[-2.86353,42.70165],[-2.87016,42.69915],[-2.87272,42.70008],[-2.87444,42.6974],[-2.88103,42.69808],[-2.88529,42.68382],[-2.8874,42.68183],[-2.89361,42.68048],[-2.89505,42.67931]]]]}},{"type":"Feature","properties":{"mun_code":"01004","mun_name":"Artziniega","mun_name_local":null,"prov_code":"01","prov_name":"Araba","acom_code":"16","acom_name":"País Vasco","geo_point_2d":{"lon":-3.1414675192809614,"lat":43.129708580107426}},"geometry":{"type":"Polygon","coordinates":[[[-3.14189,43.16115],[-3.14926,43.16092],[-3.16185,43.15426],[-3.16677,43.14694],[-3.16148,43.14319],[-3.18171,43.12031],[-3.18043,43.11632],[-3.16966,43.10959],[-3.1625,43.10892],[-3.15206,43.10412],[-3.14798,43.10826],[-3.14149,43.11064],[-3.13551,43.09901],[-3.13197,43.0967],[-3.11572,43.10701],[-3.11593,43.11418],[-3.11246,43.11603],[-3.10804,43.12528],[-3.10952,43.13629],[-3.10562,43.14158],[-3.11708,43.14619],[-3.12396,43.15445],[-3.13352,43.15625],[-3.1378,43.16272],[-3.14159,43.16111],[-3.14189,43.16115]]]}},{"type":"Feature","properties":{"mun_code":"01011","mun_name":"Baños de Ebro","mun_name_local":"Mañueta","prov_code":"01","prov_name":"Araba","acom_code":"16","acom_name":"País Vasco","geo_point_2d":{"lon":-2.6749313804743093,"lat":42.522752105654}},"geometry":{"type":"Polygon","coordinates":[[[-2.70572,42.51666],[-2.6861,42.5201],[-2.67954,42.52599],[-2.67685,42.52626],[-2.67784,42.50957],[-2.66618,42.50982],[-2.66336,42.50696],[-2.65601,42.50345],[-2.65382,42.49581],[-2.65171,42.50151],[-2.65206,42.50694],[-2.6467,42.51255],[-2.65013,42.51797],[-2.65704,42.52097],[-2.66181,42.52945],[-2.66665,42.53422],[-2.66848,42.53369],[-2.68059,42.53711],[-2.68611,42.545],[-2.69143,42.54276],[-2.6959,42.53254],[-2.70581,42.51703],[-2.70572,42.51666]]]}},{"type":"Feature","properties":{"mun_code":"01902","mun_name":"Lantarón","mun_name_local":null,"prov_code":"01","prov_name":"Araba","acom_code":"16","acom_name":"País Vasco","geo_point_2d":{"lon":-3.013976923350789,"lat":42.75540650957039}},"geometry":{"type":"MultiPolygon","coordinates":[[[[-3.02071,42.78972],[-3.02365,42.78887],[-3.02851,42.79135],[-3.04046,42.78856],[-3.04312,42.78974],[-3.05928,42.78281],[-3.05857,42.78094],[-3.05998,42.77987],[-3.06403,42.78127],[-3.06455,42.77903],[-3.05913,42.77039],[-3.06121,42.76812],[-3.05812,42.76675],[-3.05771,42.76289],[-3.04971,42.76551],[-3.04762,42.76504],[-3.04669,42.76031],[-3.04992,42.7559],[-3.04871,42.74907],[-3.04279,42.74335],[-3.04209,42.73958],[-3.03356,42.73683],[-3.01666,42.74101],[-3.01611,42.73356],[-3.01327,42.73255],[-3.00538,42.7328],[-3.00678,42.72963],[-3.01101,42.72797],[-3.0095,42.72498],[-3.00651,42.72269],[-2.99536,42.72171],[-2.98875,42.71895],[-2.987,42.70903],[-2.9806,42.70348],[-2.97447,42.70838],[-2.96341,42.70815],[-2.95635,42.7104],[-2.94701,42.70965],[-2.94846,42.72041],[-2.95347,42.72932],[-2.95163,42.73342],[-2.95169,42.74065],[-2.94857,42.74476],[-2.9382,42.74822],[-2.92611,42.74665],[-2.93798,42.75606],[-2.94219,42.76634],[-2.93955,42.76673],[-2.93668,42.76947],[-2.94555,42.76971],[-2.94486,42.77275],[-2.94145,42.77626],[-2.94353,42.78322],[-2.95104,42.78203],[-2.95234,42.78413],[-2.95691,42.77879],[-2.96262,42.77545],[-2.96113,42.77223],[-2.97425,42.77189],[-2.97813,42.7732],[-2.98544,42.78528],[-2.98843,42.78212],[-2.99576,42.78046],[-2.99763,42.77802],[-2.99616,42.77377],[-3.00414,42.77145],[-3.01117,42.76424],[-3.01797,42.77011],[-3.01608,42.77254],[-3.01975,42.78732],[-3.02071,42.78972]]],[[[-3.12325,42.78933],[-3.12823,42.7843],[-3.13664,42.76548],[-3.14204,42.7629],[-3.14791,42.7567],[-3.13505,42.75854],[-3.13084,42.75764],[-3.12757,42.7592],[-3.11571,42.75935],[-3.11036,42.76333],[-3.1004,42.76735],[-3.09107,42.76482],[-3.08772,42.75901],[-3.08413,42.75734],[-3.08098,42.7618],[-3.08049,42.76811],[-3.09386,42.7786],[-3.0945,42.78485],[-3.10894,42.79081],[-3.12306,42.78981],[-3.12325,42.78933]]]]}},{"type":"Feature","properties":{"mun_code":"01001","mun_name":"Alegría-Dulantzi","mun_name_local":null,"prov_code":"01","prov_name":"Araba","acom_code":"16","acom_name":"País Vasco","geo_point_2d":{"lon":-2.511082454723801,"lat":42.82913303771472}},"geometry":{"type":"MultiPolygon","coordinates":[[[[-2.53488,42.82253],[-2.53897,42.82189],[-2.53999,42.81548],[-2.5442,42.81195],[-2.54356,42.80559],[-2.54755,42.80364],[-2.5493,42.80036],[-2.5483,42.79072],[-2.54582,42.78555],[-2.54045,42.78564],[-2.53352,42.78834],[-2.53191,42.80171],[-2.53335,42.80582],[-2.52838,42.81358],[-2.53084,42.81944],[-2.5344,42.82217],[-2.53488,42.82253]]],[[[-2.5186,42.86083],[-2.52163,42.8581],[-2.5223,42.85201],[-2.52758,42.85205],[-2.52633,42.83147],[-2.52148,42.83247],[-2.517,42.83042],[-2.51221,42.82334],[-2.51291,42.81298],[-2.50978,42.8036],[-2.51085,42.79718],[-2.5077,42.79132],[-2.50244,42.79016],[-2.49715,42.79321],[-2.49606,42.79534],[-2.49918,42.80783],[-2.50125,42.80548],[-2.50786,42.81032],[-2.50459,42.81551],[-2.50714,42.82107],[-2.503,42.82317],[-2.50372,42.82701],[-2.50229,42.83015],[-2.49361,42.83041],[-2.48427,42.82668],[-2.4807,42.83091],[-2.48402,42.83473],[-2.48209,42.83601],[-2.48437,42.83753],[-2.47664,42.84022],[-2.47117,42.84781],[-2.47888,42.85061],[-2.48869,42.85715],[-2.50001,42.85797],[-2.50474,42.86083],[-2.51704,42.8612],[-2.5186,42.86083]]]]}},{"type":"Feature","properties":{"mun_code":"01059","mun_name":"Vitoria-Gasteiz","mun_name_local":null,"prov_code":"01","prov_name":"Araba","acom_code":"16","acom_name":"País Vasco","geo_point_2d":{"lon":-2.6878723220156284,"lat":42.85031373544058}},"geometry":{"type":"Polygon","coordinates":[[[-2.84755,42.86294],[-2.84319,42.86263],[-2.8356,42.86523],[-2.81412,42.85687],[-2.79428,42.85824],[-2.76695,42.84959],[-2.76825,42.84914],[-2.76655,42.84644],[-2.76473,42.84704],[-2.76433,42.84123],[-2.76697,42.82989],[-2.76201,42.81846],[-2.77104,42.81767],[-2.78203,42.82],[-2.78762,42.81893],[-2.79083,42.80866],[-2.7793,42.79974],[-2.77927,42.79293],[-2.7731,42.79415],[-2.76728,42.79234],[-2.7583,42.79399],[-2.74387,42.7923],[-2.7317,42.79449],[-2.72832,42.79096],[-2.71876,42.78868],[-2.71125,42.78375],[-2.70305,42.78457],[-2.69511,42.78199],[-2.69338,42.77849],[-2.67871,42.77928],[-2.67603,42.77819],[-2.67575,42.77598],[-2.66861,42.77193],[-2.66752,42.77418],[-2.65376,42.77187],[-2.6521,42.76686],[-2.64612,42.76676],[-2.64401,42.76468],[-2.64025,42.76605],[-2.63563,42.76458],[-2.63291,42.76506],[-2.62744,42.7694],[-2.62431,42.77022],[-2.62029,42.76902],[-2.61798,42.77072],[-2.61463,42.76824],[-2.60953,42.77069],[-2.60334,42.77013],[-2.5951,42.77919],[-2.58857,42.77989],[-2.58436,42.78426],[-2.58066,42.78492],[-2.57349,42.78255],[-2.5696,42.78425],[-2.56782,42.78274],[-2.56401,42.78385],[-2.56674,42.78824],[-2.56574,42.78953],[-2.57412,42.80334],[-2.56928,42.81331],[-2.57166,42.81572],[-2.57102,42.81862],[-2.56604,42.81643],[-2.5644,42.81898],[-2.56566,42.82164],[-2.5643,42.82608],[-2.55875,42.83388],[-2.56108,42.83974],[-2.55941,42.8458],[-2.55208,42.85172],[-2.54583,42.85213],[-2.54388,42.85687],[-2.55826,42.86848],[-2.56595,42.86448],[-2.57675,42.86907],[-2.58131,42.86672],[-2.58305,42.86829],[-2.58403,42.87448],[-2.57441,42.87444],[-2.57187,42.87939],[-2.56124,42.88822],[-2.56074,42.89431],[-2.57981,42.90117],[-2.57894,42.90527],[-2.58034,42.90864],[-2.5941,42.91307],[-2.598,42.90937],[-2.60118,42.90945],[-2.60381,42.90137],[-2.6107,42.89722],[-2.60767,42.88959],[-2.60917,42.88695],[-2.60217,42.88069],[-2.60575,42.87223],[-2.60949,42.86894],[-2.60495,42.86789],[-2.61049,42.86257],[-2.61964,42.86016],[-2.63224,42.86212],[-2.63907,42.86104],[-2.63731,42.86683],[-2.64414,42.87764],[-2.64236,42.89034],[-2.64601,42.89307],[-2.64021,42.89703],[-2.63766,42.89628],[-2.63666,42.89853],[-2.63822,42.90174],[-2.63583,42.90629],[-2.63229,42.90964],[-2.62531,42.91076],[-2.61833,42.92053],[-2.61798,42.92181],[-2.62355,42.92487],[-2.62489,42.93671],[-2.62852,42.93505],[-2.63054,42.93199],[-2.63031,42.92832],[-2.63283,42.92629],[-2.6336,42.92321],[-2.64059,42.922],[-2.64138,42.9232],[-2.64864,42.92395],[-2.64992,42.92592],[-2.65613,42.92767],[-2.65628,42.93229],[-2.66293,42.9297],[-2.66285,42.92784],[-2.66751,42.93049],[-2.66896,42.9277],[-2.67819,42.92013],[-2.67739,42.91701],[-2.68556,42.91018],[-2.69969,42.90965],[-2.70434,42.90462],[-2.70694,42.90496],[-2.70576,42.9033],[-2.70689,42.9025],[-2.70694,42.90431],[-2.71586,42.90697],[-2.72367,42.90616],[-2.73584,42.90784],[-2.73806,42.90988],[-2.74228,42.91045],[-2.74729,42.91503],[-2.75975,42.91665],[-2.76358,42.9189],[-2.76492,42.9169],[-2.76387,42.91562],[-2.76555,42.91524],[-2.78235,42.9222],[-2.786,42.92571],[-2.7962,42.91571],[-2.80777,42.91479],[-2.80828,42.91184],[-2.82937,42.91272],[-2.83462,42.90745],[-2.83364,42.90517],[-2.83801,42.8995],[-2.84972,42.8921],[-2.85339,42.88472],[-2.854,42.87794],[-2.85155,42.87389],[-2.85483,42.87134],[-2.84769,42.86633],[-2.84755,42.86294]]]}},{"type":"Feature","properties":{"mun_code":"01020","mun_name":"Kuartango","mun_name_local":null,"prov_code":"01","prov_name":"Araba","acom_code":"16","acom_name":"País Vasco","geo_point_2d":{"lon":-2.9356090116307594,"lat":42.89579055980904}},"geometry":{"type":"Polygon","coordinates":[[[-3.01614,42.91056],[-3.01285,42.9083],[-3.01471,42.90232],[-3.01367,42.90027],[-3.0061,42.89474],[-3.00574,42.8913],[-2.99995,42.88299],[-2.99224,42.87878],[-2.99025,42.87622],[-2.97821,42.8725],[-2.96922,42.87238],[-2.95397,42.8694],[-2.94182,42.8658],[-2.93727,42.86369],[-2.93779,42.86274],[-2.91868,42.85842],[-2.91527,42.85354],[-2.90647,42.8482],[-2.89467,42.83367],[-2.89061,42.83392],[-2.88117,42.84863],[-2.87755,42.85068],[-2.87923,42.85164],[-2.87772,42.85408],[-2.8734,42.85616],[-2.87172,42.86342],[-2.87111,42.87114],[-2.87648,42.87932],[-2.87691,42.88556],[-2.88132,42.88922],[-2.88288,42.89369],[-2.88052,42.89766],[-2.88234,42.90174],[-2.87274,42.90985],[-2.86827,42.91159],[-2.85627,42.91282],[-2.86064,42.91805],[-2.86819,42.92209],[-2.87295,42.92195],[-2.87562,42.92359],[-2.88065,42.92152],[-2.88681,42.9248],[-2.89002,42.92497],[-2.89171,42.92327],[-2.9007,42.9262],[-2.90213,42.92962],[-2.90567,42.93206],[-2.92762,42.93771],[-2.92944,42.93148],[-2.93605,42.92827],[-2.94501,42.92796],[-2.95829,42.93052],[-2.97517,42.93825],[-2.97735,42.9366],[-2.98003,42.93735],[-2.98142,42.93988],[-2.98515,42.93628],[-2.99209,42.93518],[-2.99821,42.92677],[-3.00329,42.9283],[-3.00587,42.92711],[-3.01472,42.91909],[-3.01637,42.91291],[-3.01614,42.91056]]]}},{"type":"Feature","properties":{"mun_code":"01054","mun_name":"Urkabustaiz","mun_name_local":null,"prov_code":"01","prov_name":"Araba","acom_code":"16","acom_name":"País Vasco","geo_point_2d":{"lon":-2.920897948099819,"lat":42.966249975614794}},"geometry":{"type":"Polygon","coordinates":[[[-2.97517,42.93825],[-2.95829,42.93052],[-2.94501,42.92796],[-2.93605,42.92827],[-2.92944,42.93148],[-2.92762,42.93771],[-2.90567,42.93206],[-2.90213,42.92962],[-2.9007,42.9262],[-2.89171,42.92327],[-2.88971,42.92507],[-2.88065,42.92152],[-2.87685,42.92369],[-2.87295,42.92195],[-2.8681,42.9219],[-2.87055,42.92604],[-2.87185,42.93602],[-2.87909,42.9416],[-2.87653,42.94472],[-2.87768,42.95263],[-2.87478,42.96745],[-2.87687,42.97046],[-2.88483,42.97561],[-2.88434,42.98212],[-2.88171,42.98523],[-2.88385,42.99005],[-2.88743,42.9956],[-2.90233,43.00647],[-2.90354,43.01309],[-2.90647,43.01407],[-2.91351,43.02094],[-2.91669,43.01638],[-2.92349,43.01568],[-2.92769,43.01687],[-2.93307,43.01469],[-2.94136,43.00863],[-2.94174,43.00474],[-2.95558,42.9989],[-2.95823,42.99441],[-2.95494,42.99322],[-2.95484,42.9851],[-2.95885,42.98183],[-2.95856,42.97915],[-2.9614,42.97463],[-2.95946,42.97084],[-2.96151,42.96805],[-2.96926,42.96807],[-2.96951,42.9596],[-2.97294,42.95013],[-2.97115,42.94726],[-2.9739,42.93879],[-2.97517,42.93825]]]}},{"type":"Feature","properties":{"mun_code":"01052","mun_name":"Samaniego","mun_name_local":null,"prov_code":"01","prov_name":"Araba","acom_code":"16","acom_name":"País Vasco","geo_point_2d":{"lon":-2.6735291722275947,"lat":42.57058974501291}},"geometry":{"type":"Polygon","coordinates":[[[-2.69143,42.54276],[-2.67982,42.54856],[-2.67787,42.5512],[-2.66895,42.55426],[-2.66559,42.5576],[-2.66292,42.55714],[-2.65661,42.56022],[-2.65289,42.55829],[-2.65095,42.55868],[-2.65544,42.56111],[-2.65685,42.56595],[-2.65721,42.57224],[-2.65494,42.58056],[-2.65839,42.58641],[-2.66876,42.58544],[-2.6673,42.59236],[-2.67794,42.59522],[-2.68177,42.59539],[-2.68058,42.59421],[-2.6851,42.5862],[-2.68733,42.55955],[-2.69089,42.54652],[-2.69143,42.54276]]]}},{"type":"Feature","properties":{"mun_code":"01018","mun_name":"Zigoitia","mun_name_local":null,"prov_code":"01","prov_name":"Araba","acom_code":"16","acom_name":"País Vasco","geo_point_2d":{"lon":-2.7307027691046186,"lat":42.968681829496816}},"geometry":{"type":"Polygon","coordinates":[[[-2.786,42.92571],[-2.78235,42.9222],[-2.76555,42.91524],[-2.76387,42.91562],[-2.76492,42.9169],[-2.76358,42.9189],[-2.75975,42.91665],[-2.74729,42.91503],[-2.74228,42.91045],[-2.73806,42.90988],[-2.73584,42.90784],[-2.72367,42.90616],[-2.71586,42.90697],[-2.70694,42.90431],[-2.7072,42.90246],[-2.70576,42.9033],[-2.70694,42.90496],[-2.70434,42.90462],[-2.69969,42.90965],[-2.68556,42.91018],[-2.67798,42.91697],[-2.68096,42.92252],[-2.68546,42.92577],[-2.68507,42.92949],[-2.68828,42.93017],[-2.68919,42.93533],[-2.68485,42.94061],[-2.69313,42.94321],[-2.69117,42.9471],[-2.68768,42.94874],[-2.68768,42.95322],[-2.68187,42.95418],[-2.68143,42.96177],[-2.67816,42.96724],[-2.68349,42.97046],[-2.68641,42.97674],[-2.68287,42.97762],[-2.68329,42.97967],[-2.6798,42.98125],[-2.67954,42.98962],[-2.67636,42.99405],[-2.67736,43.00246],[-2.6858,43.01211],[-2.68487,43.01794],[-2.68721,43.02348],[-2.69248,43.02199],[-2.70192,43.02826],[-2.70371,43.03112],[-2.70663,43.02989],[-2.71496,43.03071],[-2.72702,43.02433],[-2.73006,43.02406],[-2.73359,43.02533],[-2.73541,43.02938],[-2.7405,43.03419],[-2.74602,43.03324],[-2.74984,43.02698],[-2.7593,43.02837],[-2.76932,43.02683],[-2.7738,43.02896],[-2.77405,43.02318],[-2.77708,43.01961],[-2.77669,42.99845],[-2.7807,42.98192],[-2.77715,42.97007],[-2.77148,42.96071],[-2.77635,42.95534],[-2.78017,42.95493],[-2.78441,42.95248],[-2.78836,42.94765],[-2.78723,42.94464],[-2.78881,42.93899],[-2.78639,42.93299],[-2.7834,42.93051],[-2.78569,42.92658],[-2.786,42.92571]]]}},{"type":"Feature","properties":{"mun_code":"01006","mun_name":"Armiñón","mun_name_local":null,"prov_code":"01","prov_name":"Araba","acom_code":"16","acom_name":"País Vasco","geo_point_2d":{"lon":-2.8733877540800994,"lat":42.714114205924666}},"geometry":{"type":"MultiPolygon","coordinates":[[[[-2.88342,42.69286],[-2.8928,42.69593],[-2.90448,42.6973],[-2.90542,42.69399],[-2.9025,42.6936],[-2.90378,42.68643],[-2.9014,42.68258],[-2.89804,42.68231],[-2.89505,42.67931],[-2.88676,42.68222],[-2.88477,42.68472],[-2.88399,42.69131],[-2.88342,42.69286]]],[[[-2.86886,42.74014],[-2.87406,42.73634],[-2.87447,42.7278],[-2.88483,42.72836],[-2.88915,42.73086],[-2.88719,42.72611],[-2.89284,42.72341],[-2.89113,42.71652],[-2.89183,42.70922],[-2.87443,42.70791],[-2.87488,42.70302],[-2.87737,42.70263],[-2.88103,42.69808],[-2.87444,42.6974],[-2.87272,42.70008],[-2.87016,42.69915],[-2.86353,42.70165],[-2.855,42.71494],[-2.84087,42.71924],[-2.83838,42.72149],[-2.84424,42.7245],[-2.8516,42.7251],[-2.85522,42.72876],[-2.84674,42.73076],[-2.85421,42.7364],[-2.85695,42.73758],[-2.86493,42.73714],[-2.86886,42.74014]]]]}},{"type":"Feature","properties":{"mun_code":"01032","mun_name":"Lanciego","mun_name_local":"Lantziego","prov_code":"01","prov_name":"Araba","acom_code":"16","acom_name":"País Vasco","geo_point_2d":{"lon":-2.4999266925231773,"lat":42.54411891220899}},"geometry":{"type":"Polygon","coordinates":[[[-2.52305,42.57043],[-2.52652,42.56785],[-2.52634,42.55986],[-2.51839,42.55066],[-2.51753,42.54238],[-2.51961,42.53525],[-2.51877,42.52897],[-2.51668,42.52605],[-2.5196,42.52097],[-2.51949,42.51683],[-2.51732,42.51644],[-2.51641,42.51825],[-2.50916,42.51972],[-2.50262,42.50886],[-2.4949,42.50229],[-2.48699,42.50195],[-2.48226,42.4998],[-2.47575,42.50077],[-2.47471,42.50132],[-2.47993,42.50736],[-2.47991,42.51146],[-2.48358,42.51851],[-2.48382,42.52363],[-2.48017,42.52786],[-2.48564,42.54899],[-2.48115,42.56091],[-2.48349,42.5665],[-2.48345,42.57249],[-2.48868,42.57513],[-2.49063,42.58536],[-2.49927,42.59036],[-2.50539,42.58224],[-2.50782,42.57215],[-2.52086,42.57058],[-2.52305,42.57043]]]}},{"type":"Feature","properties":{"mun_code":"01041","mun_name":"Navaridas","mun_name_local":null,"prov_code":"01","prov_name":"Araba","acom_code":"16","acom_name":"País Vasco","geo_point_2d":{"lon":-2.6314285963551036,"lat":42.53970887060598}},"geometry":{"type":"Polygon","coordinates":[[[-2.64653,42.55108],[-2.64509,42.54493],[-2.64975,42.54278],[-2.65132,42.5339],[-2.64814,42.5282],[-2.64066,42.5207],[-2.63682,42.52339],[-2.61358,42.53244],[-2.61337,42.54096],[-2.61076,42.54737],[-2.61666,42.55441],[-2.63076,42.55539],[-2.64574,42.55147],[-2.64653,42.55108]]]}},{"type":"Feature","properties":{"mun_code":"01016","mun_name":"Bernedo","mun_name_local":null,"prov_code":"01","prov_name":"Araba","acom_code":"16","acom_name":"País Vasco","geo_point_2d":{"lon":-2.5236560281097584,"lat":42.69399637083239}},"geometry":{"type":"Polygon","coordinates":[[[-2.60225,42.77071],[-2.60269,42.76623],[-2.59155,42.75815],[-2.59172,42.75166],[-2.59026,42.75052],[-2.57502,42.75472],[-2.56701,42.75904],[-2.56482,42.76294],[-2.5583,42.76273],[-2.55787,42.7603],[-2.55898,42.75322],[-2.56417,42.74704],[-2.56257,42.74128],[-2.56463,42.7369],[-2.56701,42.73734],[-2.57028,42.73255],[-2.57263,42.72517],[-2.58998,42.71076],[-2.5924,42.71063],[-2.60031,42.71527],[-2.60306,42.70868],[-2.6081,42.70714],[-2.60898,42.69586],[-2.60426,42.69524],[-2.59414,42.69004],[-2.57812,42.67399],[-2.57947,42.66893],[-2.57777,42.66821],[-2.57325,42.66807],[-2.56765,42.67049],[-2.54838,42.6688],[-2.5394,42.68658],[-2.53549,42.68752],[-2.52202,42.68403],[-2.52322,42.66496],[-2.51766,42.65517],[-2.5174,42.64633],[-2.52478,42.64468],[-2.54005,42.63755],[-2.55147,42.63394],[-2.54961,42.62971],[-2.55376,42.62753],[-2.55301,42.60829],[-2.54455,42.61169],[-2.5147,42.61727],[-2.50008,42.61648],[-2.48307,42.61216],[-2.47106,42.62726],[-2.46452,42.62732],[-2.45924,42.63394],[-2.45459,42.63486],[-2.455,42.63959],[-2.45008,42.64725],[-2.42999,42.65425],[-2.42961,42.65831],[-2.4173,42.66135],[-2.41825,42.6635],[-2.42613,42.66682],[-2.42194,42.66847],[-2.42633,42.67264],[-2.42728,42.67821],[-2.43335,42.68072],[-2.43644,42.67963],[-2.43804,42.67525],[-2.44057,42.67491],[-2.44158,42.67734],[-2.44426,42.6786],[-2.45631,42.67843],[-2.46173,42.68362],[-2.46011,42.68868],[-2.46213,42.69213],[-2.4694,42.69471],[-2.47303,42.69355],[-2.47616,42.69596],[-2.49935,42.70127],[-2.5087,42.71003],[-2.50223,42.71403],[-2.50311,42.71724],[-2.51063,42.72544],[-2.51647,42.72591],[-2.51436,42.72186],[-2.51808,42.72336],[-2.51742,42.72641],[-2.52151,42.72577],[-2.51714,42.72883],[-2.51844,42.73109],[-2.51749,42.73446],[-2.52427,42.74251],[-2.5213,42.74154],[-2.52501,42.74564],[-2.52739,42.75467],[-2.52244,42.75496],[-2.50893,42.76445],[-2.51023,42.76908],[-2.5155,42.77412],[-2.51644,42.77752],[-2.52244,42.77892],[-2.52658,42.78165],[-2.52707,42.78814],[-2.53352,42.78834],[-2.54204,42.7853],[-2.55082,42.7845],[-2.55426,42.78545],[-2.56658,42.78281],[-2.5696,42.78425],[-2.57429,42.78261],[-2.58132,42.7849],[-2.58436,42.78426],[-2.58857,42.77989],[-2.5951,42.77919],[-2.59868,42.77402],[-2.60145,42.77321],[-2.60225,42.77071]]]}},{"type":"Feature","properties":{"mun_code":"01053","mun_name":"San Millán","mun_name_local":"Donemiliaga","prov_code":"01","prov_name":"Araba","acom_code":"16","acom_name":"País Vasco","geo_point_2d":{"lon":-2.3928890502892037,"lat":42.878962155513136}},"geometry":{"type":"MultiPolygon","coordinates":[[[[-2.40523,42.89408],[-2.401,42.88361],[-2.40482,42.88512],[-2.40648,42.88305],[-2.4113,42.88251],[-2.41281,42.88445],[-2.42089,42.88627],[-2.41755,42.87196],[-2.41891,42.86709],[-2.41448,42.86716],[-2.40959,42.86248],[-2.4035,42.86508],[-2.3968,42.87105],[-2.39536,42.87928],[-2.39244,42.8801],[-2.38817,42.87854],[-2.3811,42.86966],[-2.36434,42.86671],[-2.36583,42.86541],[-2.36405,42.86219],[-2.35694,42.85553],[-2.36566,42.85746],[-2.36953,42.85441],[-2.36726,42.85184],[-2.36676,42.84708],[-2.37139,42.84713],[-2.37163,42.84215],[-2.36816,42.83786],[-2.36063,42.83276],[-2.33067,42.81737],[-2.32691,42.82141],[-2.32616,42.82459],[-2.32182,42.82799],[-2.31043,42.82896],[-2.29844,42.83447],[-2.29985,42.83806],[-2.30652,42.84252],[-2.30894,42.84641],[-2.30397,42.84702],[-2.29738,42.85079],[-2.29983,42.86088],[-2.30419,42.86887],[-2.3163,42.87324],[-2.32002,42.87148],[-2.32431,42.86628],[-2.33322,42.87126],[-2.33827,42.87124],[-2.34104,42.8728],[-2.34432,42.87115],[-2.34816,42.87416],[-2.35533,42.8746],[-2.35619,42.87236],[-2.35862,42.87268],[-2.35794,42.87555],[-2.35938,42.8769],[-2.36234,42.87677],[-2.3585,42.87852],[-2.3697,42.88354],[-2.35742,42.89351],[-2.35131,42.90659],[-2.35125,42.91592],[-2.34947,42.92101],[-2.3396,42.9313],[-2.33912,42.93639],[-2.34127,42.93763],[-2.3509,42.94261],[-2.36325,42.92592],[-2.36766,42.91177],[-2.37652,42.89274],[-2.37611,42.88992],[-2.38163,42.89067],[-2.38688,42.88964],[-2.39093,42.89157],[-2.40258,42.89353],[-2.40523,42.89408]]],[[[-2.38481,42.95105],[-2.38981,42.95265],[-2.39423,42.95213],[-2.39992,42.95657],[-2.4099,42.9595],[-2.41515,42.9588],[-2.42248,42.95559],[-2.43722,42.95869],[-2.44488,42.95811],[-2.44411,42.95608],[-2.44747,42.94944],[-2.44802,42.94394],[-2.45264,42.93774],[-2.4509,42.91214],[-2.45609,42.90367],[-2.44783,42.90377],[-2.43533,42.90672],[-2.4336,42.90189],[-2.43039,42.89971],[-2.43028,42.89616],[-2.42496,42.8946],[-2.42359,42.8929],[-2.41839,42.89452],[-2.4096,42.89178],[-2.41111,42.894],[-2.40611,42.89483],[-2.39929,42.90028],[-2.40472,42.91333],[-2.40469,42.92158],[-2.40187,42.929],[-2.39176,42.94399],[-2.38589,42.94969],[-2.38481,42.95105]]],[[[-2.48471,42.82648],[-2.48242,42.81981],[-2.48429,42.8121],[-2.48262,42.8086],[-2.48447,42.80601],[-2.48422,42.79818],[-2.48835,42.79469],[-2.49021,42.79508],[-2.49156,42.7929],[-2.48315,42.7869],[-2.47675,42.78562],[-2.47676,42.79739],[-2.47277,42.8044],[-2.47303,42.80719],[-2.46929,42.80761],[-2.47397,42.81595],[-2.46892,42.81932],[-2.46518,42.8174],[-2.46117,42.80728],[-2.46259,42.80259],[-2.46433,42.80231],[-2.46482,42.79392],[-2.46751,42.79033],[-2.46627,42.78891],[-2.45733,42.78798],[-2.44882,42.79161],[-2.4445,42.79434],[-2.4442,42.79819],[-2.44841,42.80334],[-2.4504,42.82206],[-2.44773,42.82594],[-2.44627,42.82532],[-2.44193,42.8333],[-2.44449,42.83529],[-2.45851,42.8396],[-2.46713,42.84646],[-2.47117,42.84781],[-2.47664,42.84022],[-2.47195,42.83839],[-2.47022,42.83526],[-2.46549,42.83219],[-2.47097,42.83004],[-2.47024,42.8277],[-2.47375,42.82737],[-2.48163,42.82962],[-2.48427,42.82668],[-2.48471,42.82648]]]]}},{"type":"Feature","properties":{"mun_code":"01062","mun_name":"Zambrana","mun_name_local":null,"prov_code":"01","prov_name":"Araba","acom_code":"16","acom_name":"País Vasco","geo_point_2d":{"lon":-2.822156590569784,"lat":42.6572947841953}},"geometry":{"type":"Polygon","coordinates":[[[-2.89662,42.6768],[-2.89955,42.67254],[-2.89657,42.66896],[-2.90017,42.6673],[-2.89651,42.65419],[-2.89115,42.6514],[-2.88927,42.64876],[-2.87479,42.64305],[-2.87102,42.63918],[-2.85901,42.63867],[-2.8542,42.64033],[-2.84589,42.64022],[-2.82569,42.64497],[-2.8157,42.63958],[-2.80628,42.64026],[-2.80346,42.63894],[-2.80497,42.63277],[-2.80397,42.63126],[-2.79517,42.63234],[-2.79135,42.63716],[-2.78471,42.63686],[-2.78166,42.63943],[-2.76132,42.64039],[-2.75888,42.63826],[-2.75605,42.64707],[-2.75913,42.64837],[-2.75908,42.6499],[-2.75231,42.65021],[-2.7524,42.65233],[-2.74959,42.65498],[-2.74671,42.65578],[-2.73769,42.66312],[-2.74891,42.66594],[-2.77462,42.66654],[-2.78541,42.66505],[-2.78665,42.66347],[-2.79029,42.66297],[-2.79679,42.66837],[-2.80589,42.67159],[-2.80744,42.67609],[-2.81479,42.67569],[-2.81861,42.67906],[-2.82805,42.6798],[-2.83742,42.68585],[-2.83964,42.6857],[-2.84657,42.67984],[-2.85203,42.67839],[-2.85257,42.67368],[-2.85901,42.67053],[-2.87065,42.67032],[-2.87417,42.6721],[-2.89326,42.67481],[-2.89662,42.6768]],[[-2.86925,42.64367],[-2.87072,42.64641],[-2.86801,42.64984],[-2.87012,42.65429],[-2.86469,42.66198],[-2.85739,42.66479],[-2.84734,42.66427],[-2.84698,42.65824],[-2.85056,42.6515],[-2.86679,42.64463],[-2.86854,42.6427],[-2.86925,42.64367]]]}},{"type":"Feature","properties":{"mun_code":"01008","mun_name":"Arratzua-Ubarrundia","mun_name_local":null,"prov_code":"01","prov_name":"Araba","acom_code":"16","acom_name":"País Vasco","geo_point_2d":{"lon":-2.6143292395550555,"lat":42.92426323668048}},"geometry":{"type":"MultiPolygon","coordinates":[[[[-2.57675,42.86907],[-2.57505,42.87075],[-2.5758,42.87261],[-2.58403,42.87448],[-2.58352,42.86895],[-2.58131,42.86672],[-2.57921,42.86771],[-2.57675,42.86907]]],[[[-2.5968,42.97598],[-2.60261,42.97236],[-2.6024,42.96573],[-2.60562,42.96434],[-2.60762,42.96081],[-2.60846,42.95412],[-2.6123,42.95418],[-2.61925,42.95747],[-2.62548,42.95548],[-2.6276,42.95345],[-2.63007,42.95843],[-2.63272,42.94836],[-2.63476,42.94608],[-2.61967,42.94596],[-2.62252,42.94102],[-2.6352,42.94049],[-2.63842,42.94119],[-2.63713,42.94261],[-2.63962,42.94365],[-2.64472,42.93714],[-2.6532,42.93508],[-2.6564,42.94128],[-2.66164,42.94687],[-2.66278,42.95074],[-2.67035,42.95009],[-2.67322,42.95705],[-2.68144,42.96142],[-2.68187,42.95418],[-2.68768,42.95322],[-2.68768,42.94874],[-2.69117,42.9471],[-2.69313,42.94321],[-2.68485,42.94061],[-2.68919,42.93533],[-2.68828,42.93017],[-2.68507,42.92949],[-2.68546,42.92577],[-2.68096,42.92252],[-2.67798,42.91697],[-2.67819,42.92013],[-2.66896,42.9277],[-2.66751,42.93049],[-2.66285,42.92784],[-2.66293,42.9297],[-2.65679,42.93235],[-2.65613,42.92767],[-2.64992,42.92592],[-2.64864,42.92395],[-2.64138,42.9232],[-2.64059,42.922],[-2.6336,42.92321],[-2.63283,42.92629],[-2.63031,42.92832],[-2.63054,42.93199],[-2.62852,42.93505],[-2.62489,42.93671],[-2.62355,42.92487],[-2.61798,42.92181],[-2.61833,42.92053],[-2.62531,42.91076],[-2.63229,42.90964],[-2.63583,42.90629],[-2.63822,42.90174],[-2.63666,42.89853],[-2.63766,42.89628],[-2.64021,42.89703],[-2.64601,42.89307],[-2.64236,42.89034],[-2.64414,42.87764],[-2.63731,42.86683],[-2.63907,42.86104],[-2.63224,42.86212],[-2.61964,42.86016],[-2.61049,42.86257],[-2.60495,42.86789],[-2.60949,42.86894],[-2.60575,42.87223],[-2.60217,42.88069],[-2.60917,42.88695],[-2.60767,42.88959],[-2.6107,42.89722],[-2.60381,42.90137],[-2.60118,42.90945],[-2.598,42.90937],[-2.5941,42.91307],[-2.58013,42.90795],[-2.57852,42.90962],[-2.57325,42.90733],[-2.57005,42.91572],[-2.56176,42.91795],[-2.56121,42.9483],[-2.55116,42.95862],[-2.56198,42.9614],[-2.57159,42.96112],[-2.57362,42.96358],[-2.58102,42.96426],[-2.58809,42.97237],[-2.59336,42.97278],[-2.596,42.97495],[-2.5968,42.97598]]]]}},{"type":"Feature","properties":{"mun_code":"01003","mun_name":"Aramaio","mun_name_local":null,"prov_code":"01","prov_name":"Araba","acom_code":"16","acom_name":"País Vasco","geo_point_2d":{"lon":-2.5936345537132706,"lat":43.045986140062226}},"geometry":{"type":"Polygon","coordinates":[[[-2.66113,43.06576],[-2.65711,43.0645],[-2.65268,43.05973],[-2.64819,43.05805],[-2.63738,43.0463],[-2.6337,43.04482],[-2.63387,43.03363],[-2.63059,43.02871],[-2.63362,43.01991],[-2.62775,43.01173],[-2.63547,42.99563],[-2.62299,42.99492],[-2.60419,42.98576],[-2.60268,42.98223],[-2.59852,42.98566],[-2.59277,42.9876],[-2.59866,42.99417],[-2.60094,43.00137],[-2.59653,43.00925],[-2.59043,43.00745],[-2.58457,43.00882],[-2.58112,43.00823],[-2.56342,43.01866],[-2.55515,43.02102],[-2.54958,43.01979],[-2.54082,43.02493],[-2.54096,43.0328],[-2.53609,43.03612],[-2.53023,43.04484],[-2.52485,43.04533],[-2.53068,43.05497],[-2.54084,43.06319],[-2.54221,43.07051],[-2.54812,43.07508],[-2.54639,43.07655],[-2.54099,43.07669],[-2.54726,43.08468],[-2.54507,43.08704],[-2.54639,43.08801],[-2.55883,43.08491],[-2.58256,43.08325],[-2.58598,43.08137],[-2.59256,43.08123],[-2.60608,43.08311],[-2.61139,43.08568],[-2.62595,43.08536],[-2.63269,43.08701],[-2.66124,43.07391],[-2.66081,43.06595],[-2.66113,43.06576]]]}},{"type":"Feature","properties":{"mun_code":"01031","mun_name":"Laguardia","mun_name_local":null,"prov_code":"01","prov_name":"Araba","acom_code":"16","acom_name":"País Vasco","geo_point_2d":{"lon":-2.5737700409281636,"lat":42.548615199649625}},"geometry":{"type":"MultiPolygon","coordinates":[[[[-2.49935,42.61156],[-2.50008,42.61648],[-2.5033,42.61682],[-2.50492,42.61274],[-2.50248,42.61229],[-2.49935,42.61156]]],[[[-2.48226,42.4998],[-2.48699,42.50195],[-2.4949,42.50229],[-2.50262,42.50886],[-2.50457,42.51341],[-2.51038,42.50396],[-2.51702,42.50055],[-2.51896,42.49559],[-2.51717,42.49174],[-2.51463,42.49023],[-2.47743,42.48664],[-2.48357,42.49303],[-2.48409,42.49448],[-2.48154,42.49678],[-2.48226,42.4998]]],[[[-2.55301,42.60829],[-2.55875,42.60559],[-2.58155,42.5996],[-2.59736,42.59942],[-2.61515,42.60379],[-2.62587,42.60487],[-2.63121,42.60384],[-2.64409,42.59669],[-2.65913,42.59304],[-2.6673,42.59236],[-2.66876,42.58544],[-2.65839,42.58641],[-2.65494,42.58056],[-2.65721,42.57224],[-2.65544,42.56111],[-2.65298,42.57291],[-2.6468,42.57942],[-2.65154,42.5864],[-2.65061,42.59413],[-2.63881,42.59611],[-2.62388,42.57395],[-2.61898,42.57394],[-2.61615,42.57237],[-2.61684,42.56717],[-2.62077,42.56276],[-2.61524,42.55148],[-2.61076,42.54737],[-2.61337,42.54096],[-2.6132,42.53357],[-2.61602,42.5307],[-2.61417,42.52707],[-2.60474,42.5239],[-2.59625,42.51494],[-2.59558,42.50226],[-2.59029,42.49605],[-2.59379,42.48715],[-2.59791,42.48343],[-2.60091,42.48456],[-2.6023,42.48138],[-2.6008,42.47594],[-2.59491,42.47245],[-2.58657,42.47462],[-2.59317,42.48069],[-2.58727,42.49344],[-2.5879,42.49769],[-2.5813,42.50443],[-2.57451,42.50754],[-2.5575,42.50337],[-2.54979,42.49472],[-2.54967,42.4911],[-2.54456,42.48884],[-2.54917,42.48541],[-2.5488,42.48391],[-2.53232,42.48324],[-2.52913,42.48476],[-2.53718,42.48904],[-2.5375,42.49509],[-2.52022,42.50706],[-2.51474,42.51491],[-2.5138,42.51802],[-2.51641,42.51825],[-2.51732,42.51644],[-2.51949,42.51683],[-2.51876,42.51984],[-2.52125,42.52174],[-2.52225,42.52513],[-2.53704,42.53497],[-2.53736,42.53776],[-2.54226,42.53842],[-2.5492,42.54302],[-2.5518,42.54791],[-2.55107,42.55056],[-2.55757,42.56393],[-2.56104,42.56673],[-2.56233,42.57081],[-2.5668,42.57246],[-2.56481,42.57739],[-2.57074,42.5848],[-2.56894,42.58794],[-2.55469,42.59046],[-2.54679,42.58839],[-2.54124,42.58962],[-2.53256,42.58847],[-2.53168,42.60896],[-2.5244,42.61545],[-2.54817,42.61027],[-2.55301,42.60829]]]]}},{"type":"Feature","properties":{"mun_code":"01028","mun_name":"Labastida","mun_name_local":"Bastida","prov_code":"01","prov_name":"Araba","acom_code":"16","acom_name":"País Vasco","geo_point_2d":{"lon":-2.8086478766070924,"lat":42.605498265255456}},"geometry":{"type":"Polygon","coordinates":[[[-2.85901,42.63867],[-2.85393,42.63705],[-2.84292,42.62972],[-2.84285,42.62355],[-2.84814,42.61714],[-2.84216,42.61146],[-2.8418,42.6086],[-2.83435,42.60918],[-2.8199,42.6145],[-2.81877,42.61272],[-2.82364,42.60146],[-2.81786,42.59887],[-2.81983,42.59145],[-2.82566,42.58707],[-2.83876,42.58298],[-2.84079,42.58103],[-2.83738,42.57002],[-2.82822,42.56414],[-2.8252,42.5549],[-2.82209,42.55431],[-2.81701,42.55771],[-2.8177,42.56389],[-2.8148,42.5693],[-2.80544,42.56712],[-2.80366,42.5645],[-2.80039,42.56633],[-2.79931,42.573],[-2.7897,42.57831],[-2.7808,42.57963],[-2.77768,42.58225],[-2.77826,42.58679],[-2.77305,42.59219],[-2.77137,42.59634],[-2.77426,42.60479],[-2.7736,42.60703],[-2.76755,42.61489],[-2.76588,42.62016],[-2.77549,42.62535],[-2.7786,42.62938],[-2.78987,42.63471],[-2.79517,42.63234],[-2.80397,42.63126],[-2.80497,42.63277],[-2.80346,42.63894],[-2.80628,42.64026],[-2.8157,42.63958],[-2.82569,42.64497],[-2.83751,42.64151],[-2.85829,42.63931],[-2.85901,42.63867]]]}},{"type":"Feature","properties":{"mun_code":"01013","mun_name":"Barrundia","mun_name_local":null,"prov_code":"01","prov_name":"Araba","acom_code":"16","acom_name":"País Vasco","geo_point_2d":{"lon":-2.492898102804041,"lat":42.911723738116756}},"geometry":{"type":"Polygon","coordinates":[[[-2.56522,42.88585],[-2.5593,42.88356],[-2.56109,42.88191],[-2.55289,42.87799],[-2.54137,42.87536],[-2.53129,42.87486],[-2.53022,42.8791],[-2.51324,42.88124],[-2.51116,42.87254],[-2.51427,42.8641],[-2.5186,42.86083],[-2.50474,42.86083],[-2.50001,42.85797],[-2.49371,42.85713],[-2.47822,42.87017],[-2.46868,42.86564],[-2.44739,42.86112],[-2.44035,42.8609],[-2.42773,42.85725],[-2.42778,42.86429],[-2.41891,42.86709],[-2.41751,42.87123],[-2.42359,42.8929],[-2.42496,42.8946],[-2.43028,42.89616],[-2.43039,42.89971],[-2.4336,42.90189],[-2.43533,42.90672],[-2.44783,42.90377],[-2.45609,42.90367],[-2.4509,42.91214],[-2.45264,42.93774],[-2.44802,42.94394],[-2.44747,42.94944],[-2.44411,42.95608],[-2.44488,42.95811],[-2.45094,42.95645],[-2.4541,42.95686],[-2.45766,42.95904],[-2.4612,42.95938],[-2.465,42.96229],[-2.47777,42.96594],[-2.48727,42.96469],[-2.5012,42.95948],[-2.5353,42.97345],[-2.53595,42.97039],[-2.54084,42.96511],[-2.53852,42.95724],[-2.54009,42.95363],[-2.5425,42.95016],[-2.54532,42.95046],[-2.54817,42.95313],[-2.5521,42.9478],[-2.5555,42.93366],[-2.55323,42.93362],[-2.55285,42.93114],[-2.55716,42.92919],[-2.55263,42.92563],[-2.54849,42.92658],[-2.54997,42.9234],[-2.5553,42.92336],[-2.5494,42.92124],[-2.555,42.9153],[-2.55527,42.91175],[-2.55167,42.90979],[-2.54895,42.91194],[-2.53217,42.89964],[-2.53375,42.89427],[-2.53631,42.89413],[-2.53733,42.89543],[-2.54461,42.89485],[-2.56098,42.89842],[-2.56124,42.88822],[-2.56456,42.88626],[-2.56522,42.88585]]]}},{"type":"Feature","properties":{"mun_code":"01047","mun_name":"Erriberabeitia","mun_name_local":null,"prov_code":"01","prov_name":"Araba","acom_code":"16","acom_name":"País Vasco","geo_point_2d":{"lon":-2.9027603239172124,"lat":42.72449094414457}},"geometry":{"type":"Polygon","coordinates":[[[-2.94846,42.72041],[-2.94701,42.70965],[-2.93021,42.70803],[-2.92803,42.70476],[-2.93032,42.69967],[-2.92166,42.70119],[-2.9185,42.69792],[-2.90739,42.69565],[-2.90691,42.69419],[-2.90542,42.69399],[-2.90448,42.6973],[-2.8928,42.69593],[-2.88342,42.69286],[-2.87852,42.70149],[-2.87488,42.70302],[-2.87443,42.70791],[-2.89183,42.70922],[-2.89113,42.71652],[-2.89284,42.72341],[-2.88719,42.72611],[-2.88915,42.73086],[-2.88483,42.72836],[-2.87447,42.7278],[-2.87406,42.73634],[-2.862,42.74585],[-2.86241,42.74703],[-2.86687,42.74928],[-2.87339,42.75546],[-2.87482,42.75556],[-2.87456,42.75379],[-2.87996,42.75201],[-2.88765,42.75484],[-2.89662,42.75264],[-2.90013,42.75705],[-2.9097,42.75515],[-2.90685,42.74811],[-2.91201,42.74421],[-2.91831,42.74395],[-2.92013,42.74094],[-2.91868,42.73998],[-2.92596,42.73672],[-2.9268,42.73027],[-2.92552,42.72558],[-2.93093,42.71911],[-2.9407,42.71892],[-2.9409,42.71732],[-2.94369,42.71754],[-2.94846,42.72041]]]}},{"type":"Feature","properties":{"mun_code":"01027","mun_name":"Iruraiz-Gauna","mun_name_local":null,"prov_code":"01","prov_name":"Araba","acom_code":"16","acom_name":"País Vasco","geo_point_2d":{"lon":-2.4761857351411303,"lat":42.82272101418756}},"geometry":{"type":"MultiPolygon","coordinates":[[[[-2.55875,42.83388],[-2.5643,42.82608],[-2.56566,42.82164],[-2.5644,42.81898],[-2.56604,42.81643],[-2.57102,42.81862],[-2.57166,42.81572],[-2.56928,42.81331],[-2.57412,42.80334],[-2.56574,42.78953],[-2.56674,42.78824],[-2.56401,42.78385],[-2.55914,42.78475],[-2.55946,42.7981],[-2.56259,42.79893],[-2.55983,42.80551],[-2.56121,42.8078],[-2.55545,42.81251],[-2.55447,42.8218],[-2.55015,42.82284],[-2.55199,42.82897],[-2.55805,42.8334],[-2.55875,42.83388]]],[[[-2.46627,42.78891],[-2.46751,42.79033],[-2.46482,42.79392],[-2.46433,42.80231],[-2.46259,42.80259],[-2.46117,42.80728],[-2.46518,42.8174],[-2.46892,42.81932],[-2.47397,42.81595],[-2.46929,42.80761],[-2.47303,42.80719],[-2.47277,42.8044],[-2.47676,42.79739],[-2.47675,42.78562],[-2.4695,42.78726],[-2.46821,42.78882],[-2.46627,42.78891]]],[[[-2.52633,42.83147],[-2.52557,42.82876],[-2.53488,42.82253],[-2.53084,42.81944],[-2.52838,42.81358],[-2.53335,42.80582],[-2.53191,42.80171],[-2.5329,42.79102],[-2.53425,42.79014],[-2.53352,42.78834],[-2.52306,42.78767],[-2.51633,42.78956],[-2.51001,42.78937],[-2.5077,42.79132],[-2.51103,42.79826],[-2.50978,42.8036],[-2.51291,42.81298],[-2.51221,42.82334],[-2.517,42.83042],[-2.52148,42.83247],[-2.52475,42.83175],[-2.52633,42.83147]]],[[[-2.48471,42.82648],[-2.49361,42.83041],[-2.50229,42.83015],[-2.50372,42.82701],[-2.503,42.82317],[-2.50714,42.82107],[-2.50459,42.81551],[-2.50786,42.81032],[-2.50125,42.80548],[-2.49918,42.80783],[-2.49615,42.79816],[-2.49715,42.79321],[-2.49254,42.79229],[-2.49021,42.79508],[-2.48835,42.79469],[-2.48422,42.79818],[-2.48447,42.80601],[-2.48262,42.8086],[-2.48429,42.8121],[-2.48242,42.81981],[-2.48475,42.8245],[-2.4835,42.82538],[-2.48471,42.82648]]],[[[-2.42773,42.85725],[-2.44035,42.8609],[-2.44739,42.86112],[-2.46868,42.86564],[-2.47822,42.87017],[-2.49371,42.85713],[-2.48784,42.8568],[-2.47888,42.85061],[-2.46713,42.84646],[-2.45851,42.8396],[-2.44449,42.83529],[-2.44193,42.8333],[-2.44627,42.82532],[-2.44773,42.82594],[-2.4504,42.82206],[-2.45031,42.81703],[-2.44841,42.80334],[-2.4442,42.79819],[-2.4445,42.79434],[-2.43813,42.79223],[-2.42529,42.79911],[-2.42469,42.80413],[-2.41321,42.80482],[-2.40905,42.80641],[-2.41029,42.8189],[-2.40665,42.82819],[-2.41839,42.8273],[-2.41558,42.8306],[-2.42194,42.83778],[-2.42354,42.84209],[-2.42182,42.84756],[-2.42686,42.85045],[-2.42499,42.85302],[-2.42761,42.85675],[-2.42773,42.85725]]],[[[-2.47664,42.84022],[-2.48437,42.83753],[-2.48209,42.83601],[-2.48402,42.83473],[-2.4807,42.83091],[-2.48163,42.82962],[-2.47375,42.82737],[-2.47024,42.8277],[-2.47097,42.83004],[-2.46549,42.83219],[-2.47022,42.83526],[-2.47195,42.83839],[-2.47511,42.8396],[-2.47664,42.84022]]]]}},{"type":"Feature","properties":{"mun_code":"01901","mun_name":"Iruña Oka","mun_name_local":"Iruña de Oca","prov_code":"01","prov_name":"Araba","acom_code":"16","acom_name":"País Vasco","geo_point_2d":{"lon":-2.819431923498244,"lat":42.82651967419624}},"geometry":{"type":"Polygon","coordinates":[[[-2.86797,42.84364],[-2.87656,42.82625],[-2.87754,42.82037],[-2.87407,42.81057],[-2.87829,42.80826],[-2.86815,42.80698],[-2.85023,42.8024],[-2.83547,42.79627],[-2.82875,42.79006],[-2.82681,42.78445],[-2.81788,42.78999],[-2.81035,42.79153],[-2.79377,42.79317],[-2.77927,42.79293],[-2.7793,42.79974],[-2.79083,42.80866],[-2.78762,42.81893],[-2.78203,42.82],[-2.77104,42.81767],[-2.76201,42.81846],[-2.76697,42.82989],[-2.76433,42.84123],[-2.76473,42.84704],[-2.76655,42.84644],[-2.76825,42.84914],[-2.76695,42.84959],[-2.79428,42.85824],[-2.81412,42.85687],[-2.8356,42.86523],[-2.84319,42.86263],[-2.84755,42.86294],[-2.84959,42.86074],[-2.84655,42.85631],[-2.83609,42.85142],[-2.83943,42.84825],[-2.85066,42.84638],[-2.85423,42.84435],[-2.86335,42.84346],[-2.86797,42.84364]]]}},{"type":"Feature","properties":{"mun_code":"53002","mun_name":"Parzoneria de Entzia","mun_name_local":null,"prov_code":"01","prov_name":"Araba","acom_code":"16","acom_name":"País Vasco","geo_point_2d":{"lon":-2.304560979668184,"lat":42.809882037769256}},"geometry":{"type":"Polygon","coordinates":[[[-2.3693,42.80437],[-2.36502,42.7876],[-2.36733,42.783],[-2.37191,42.77982],[-2.35702,42.76497],[-2.345,42.76684],[-2.34121,42.7698],[-2.33534,42.76993],[-2.3259,42.77916],[-2.31358,42.77606],[-2.30532,42.77575],[-2.30755,42.78295],[-2.31525,42.78933],[-2.3197,42.79584],[-2.3128,42.79644],[-2.3089,42.79477],[-2.30779,42.79718],[-2.29183,42.79054],[-2.28561,42.7852],[-2.28024,42.78564],[-2.27912,42.78801],[-2.2687,42.79472],[-2.27041,42.80892],[-2.26769,42.81341],[-2.25295,42.82068],[-2.23581,42.83449],[-2.23269,42.84382],[-2.23594,42.85097],[-2.25776,42.84702],[-2.26513,42.84442],[-2.26853,42.84118],[-2.28107,42.84735],[-2.29313,42.84954],[-2.30039,42.84914],[-2.30397,42.84702],[-2.30894,42.84641],[-2.30652,42.84252],[-2.29947,42.83755],[-2.29844,42.83447],[-2.29968,42.83348],[-2.31369,42.82807],[-2.32182,42.82799],[-2.32616,42.82459],[-2.33153,42.81474],[-2.34473,42.80958],[-2.3463,42.80729],[-2.35403,42.80469],[-2.3679,42.8045],[-2.3693,42.80437]]]}},{"type":"Feature","properties":{"mun_code":"01036","mun_name":"Laudio","mun_name_local":"Llodio","prov_code":"01","prov_name":"Araba","acom_code":"16","acom_name":"País Vasco","geo_point_2d":{"lon":-2.9777016044817546,"lat":43.138434702636786}},"geometry":{"type":"Polygon","coordinates":[[[-3.0238,43.13382],[-3.02379,43.13126],[-3.01883,43.12766],[-3.01877,43.12175],[-3.0154,43.11798],[-3.01201,43.1191],[-3.00903,43.11535],[-2.99281,43.10796],[-2.98988,43.10415],[-2.97512,43.09904],[-2.97129,43.09988],[-2.96414,43.10455],[-2.95756,43.11502],[-2.9558,43.11471],[-2.94827,43.1245],[-2.94245,43.12884],[-2.94129,43.1322],[-2.93553,43.13602],[-2.93934,43.13971],[-2.93736,43.14251],[-2.93858,43.1454],[-2.94118,43.14663],[-2.94977,43.15711],[-2.95392,43.15945],[-2.94632,43.17043],[-2.95365,43.17195],[-2.96075,43.17542],[-2.96862,43.18186],[-2.97014,43.18495],[-2.97395,43.1862],[-2.978,43.18375],[-2.97311,43.17791],[-2.99123,43.16415],[-3.00013,43.15248],[-3.00397,43.15147],[-3.02278,43.13626],[-3.0238,43.13382]]]}},{"type":"Feature","properties":{"mun_code":"01030","mun_name":"Lagrán","mun_name_local":null,"prov_code":"01","prov_name":"Araba","acom_code":"16","acom_name":"País Vasco","geo_point_2d":{"lon":-2.6083833650740877,"lat":42.62123809909599}},"geometry":{"type":"Polygon","coordinates":[[[-2.68177,42.59539],[-2.6673,42.59236],[-2.65913,42.59304],[-2.64147,42.59762],[-2.63121,42.60384],[-2.62587,42.60487],[-2.61515,42.60379],[-2.59736,42.59942],[-2.58155,42.5996],[-2.55875,42.60559],[-2.55301,42.60829],[-2.55376,42.62753],[-2.54961,42.62971],[-2.55147,42.63394],[-2.53825,42.63871],[-2.54917,42.63757],[-2.55159,42.64074],[-2.5479,42.64547],[-2.55194,42.64926],[-2.55686,42.6496],[-2.56076,42.64824],[-2.56021,42.64726],[-2.56492,42.64455],[-2.58485,42.65156],[-2.59988,42.6507],[-2.60118,42.64783],[-2.60394,42.64959],[-2.61334,42.6468],[-2.62062,42.64824],[-2.62814,42.63179],[-2.65134,42.63156],[-2.66386,42.62364],[-2.66618,42.61732],[-2.67097,42.61551],[-2.67605,42.60673],[-2.67931,42.60565],[-2.68323,42.60192],[-2.68438,42.59875],[-2.68249,42.59642],[-2.68177,42.59539]]]}},{"type":"Feature","properties":{"mun_code":"01002","mun_name":"Amurrio","mun_name_local":null,"prov_code":"01","prov_name":"Araba","acom_code":"16","acom_name":"País Vasco","geo_point_2d":{"lon":-2.9718927911008195,"lat":43.02565593907329}},"geometry":{"type":"MultiPolygon","coordinates":[[[[-2.95823,42.99441],[-2.97362,42.98909],[-2.98425,42.98821],[-3.00108,42.9895],[-3.00347,42.98732],[-3.00433,42.98256],[-3.00909,42.98165],[-3.03226,42.98333],[-3.03753,42.98244],[-3.03954,42.97692],[-3.04511,42.97281],[-3.04151,42.969],[-3.03793,42.96881],[-3.03411,42.96586],[-3.02905,42.96496],[-3.0264,42.96219],[-3.0206,42.96066],[-3.02018,42.95798],[-3.022,42.9573],[-3.0192,42.95403],[-3.00829,42.95202],[-3.00106,42.95353],[-2.99476,42.95214],[-2.99093,42.94713],[-2.98303,42.94222],[-2.98354,42.94067],[-2.98003,42.93735],[-2.97735,42.9366],[-2.97217,42.94188],[-2.97317,42.94378],[-2.97115,42.94726],[-2.97294,42.95013],[-2.96951,42.9596],[-2.96926,42.96807],[-2.96151,42.96805],[-2.95946,42.97084],[-2.9614,42.97463],[-2.95856,42.97915],[-2.95866,42.9822],[-2.95484,42.9851],[-2.95494,42.99322],[-2.95823,42.99441]]],[[[-2.97269,43.09506],[-2.97756,43.09446],[-2.98967,43.08986],[-2.99994,43.08217],[-3.00185,43.08482],[-3.00305,43.0837],[-3.0006,43.06833],[-3.01303,43.06098],[-3.01831,43.05311],[-3.01619,43.04591],[-3.01275,43.04128],[-3.01619,43.04059],[-3.0208,43.03212],[-3.03259,43.02309],[-3.03272,43.0202],[-3.029,43.01854],[-3.0181,43.01774],[-3.00787,43.01329],[-2.99733,43.01398],[-2.98579,43.01163],[-2.98422,43.00792],[-2.99164,43.00056],[-2.98571,42.99217],[-2.97095,42.99678],[-2.96666,42.99942],[-2.96628,43.00122],[-2.95558,42.9989],[-2.94729,43.00199],[-2.94174,43.00474],[-2.94136,43.00863],[-2.92918,43.01637],[-2.91669,43.01638],[-2.91365,43.02815],[-2.91393,43.03146],[-2.91647,43.03202],[-2.91159,43.03386],[-2.90333,43.03378],[-2.89721,43.03591],[-2.88605,43.04551],[-2.89408,43.04653],[-2.90531,43.05453],[-2.9172,43.05888],[-2.92197,43.06511],[-2.9269,43.06736],[-2.92992,43.07216],[-2.93853,43.07627],[-2.94096,43.0793],[-2.94839,43.08272],[-2.95811,43.09018],[-2.96687,43.09462],[-2.97169,43.09516],[-2.97269,43.09506]]]]}},{"type":"Feature","properties":{"mun_code":"01057","mun_name":"Villabuena de Álava","mun_name_local":"Eskuernaga","prov_code":"01","prov_name":"Araba","acom_code":"16","acom_name":"País Vasco","geo_point_2d":{"lon":-2.6614270326843696,"lat":42.541320717107126}},"geometry":{"type":"Polygon","coordinates":[[[-2.68611,42.545],[-2.68059,42.53711],[-2.66848,42.53369],[-2.66665,42.53422],[-2.65549,42.51958],[-2.65013,42.51797],[-2.64641,42.52027],[-2.64066,42.5207],[-2.64814,42.5282],[-2.65132,42.5339],[-2.64975,42.54278],[-2.64509,42.54493],[-2.64653,42.55108],[-2.65095,42.55868],[-2.65289,42.55829],[-2.65661,42.56022],[-2.66292,42.55714],[-2.66559,42.5576],[-2.66895,42.55426],[-2.67787,42.5512],[-2.67982,42.54856],[-2.68617,42.54627],[-2.68611,42.545]]]}},{"type":"Feature","properties":{"mun_code":"01022","mun_name":"Elciego","mun_name_local":null,"prov_code":"01","prov_name":"Araba","acom_code":"16","acom_name":"País Vasco","geo_point_2d":{"lon":-2.6248706249298706,"lat":42.507301022286505}},"geometry":{"type":"Polygon","coordinates":[[[-2.65382,42.49581],[-2.65114,42.49227],[-2.64906,42.48482],[-2.64619,42.48302],[-2.63942,42.48459],[-2.63195,42.48941],[-2.62901,42.49574],[-2.61003,42.49601],[-2.60565,42.50348],[-2.59225,42.49193],[-2.59353,42.48964],[-2.59825,42.48837],[-2.60091,42.48456],[-2.59791,42.48343],[-2.59379,42.48715],[-2.59008,42.49427],[-2.59182,42.49908],[-2.59558,42.50226],[-2.59625,42.51494],[-2.60474,42.5239],[-2.61417,42.52707],[-2.61602,42.5307],[-2.63038,42.52615],[-2.64066,42.5207],[-2.64641,42.52027],[-2.65013,42.51797],[-2.6467,42.51255],[-2.65206,42.50694],[-2.6531,42.49733],[-2.65382,42.49581]]]}},{"type":"Feature","properties":{"mun_code":"01021","mun_name":"Elburgo","mun_name_local":"Burgelu","prov_code":"01","prov_name":"Araba","acom_code":"16","acom_name":"País Vasco","geo_point_2d":{"lon":-2.5472020450629382,"lat":42.865048961959175}},"geometry":{"type":"MultiPolygon","coordinates":[[[[-2.56522,42.88585],[-2.57187,42.87939],[-2.57441,42.87444],[-2.57804,42.87376],[-2.57523,42.87148],[-2.57675,42.86907],[-2.56595,42.86448],[-2.55826,42.86848],[-2.54388,42.85687],[-2.54583,42.85213],[-2.55208,42.85172],[-2.55941,42.8458],[-2.56119,42.84255],[-2.55875,42.83388],[-2.55199,42.82897],[-2.55015,42.82284],[-2.55447,42.8218],[-2.55545,42.81251],[-2.56121,42.8078],[-2.55983,42.80551],[-2.56258,42.80011],[-2.56259,42.79893],[-2.55962,42.79861],[-2.55939,42.78439],[-2.55705,42.78413],[-2.55426,42.78545],[-2.55082,42.7845],[-2.54582,42.78555],[-2.5483,42.79072],[-2.5493,42.80036],[-2.54755,42.80364],[-2.54356,42.80559],[-2.5442,42.81195],[-2.53999,42.81548],[-2.53897,42.82189],[-2.53488,42.82253],[-2.52543,42.829],[-2.52758,42.85205],[-2.5223,42.85201],[-2.52163,42.8581],[-2.51427,42.8641],[-2.51116,42.87254],[-2.51324,42.88124],[-2.53022,42.8791],[-2.53129,42.87486],[-2.54137,42.87536],[-2.55289,42.87799],[-2.56109,42.88191],[-2.5593,42.88356],[-2.56328,42.88477],[-2.56522,42.88585]]],[[[-2.55116,42.95862],[-2.56121,42.9483],[-2.56176,42.91795],[-2.57005,42.91572],[-2.57325,42.90733],[-2.57956,42.90949],[-2.57981,42.90117],[-2.56179,42.89537],[-2.56098,42.89842],[-2.54461,42.89485],[-2.53733,42.89543],[-2.53501,42.89375],[-2.53217,42.89964],[-2.54895,42.91194],[-2.55232,42.90982],[-2.55573,42.91295],[-2.55141,42.92048],[-2.5494,42.92124],[-2.5553,42.92336],[-2.54997,42.9234],[-2.54849,42.92658],[-2.55263,42.92563],[-2.55716,42.92919],[-2.55285,42.93114],[-2.55323,42.93362],[-2.5555,42.93366],[-2.55494,42.94047],[-2.54817,42.95313],[-2.55083,42.95793],[-2.55116,42.95862]]]]}},{"type":"Feature","properties":{"mun_code":"01063","mun_name":"Zuia","mun_name_local":null,"prov_code":"01","prov_name":"Araba","acom_code":"16","acom_name":"País Vasco","geo_point_2d":{"lon":-2.835889452555852,"lat":42.98438491690877}},"geometry":{"type":"Polygon","coordinates":[[[-2.91482,43.02062],[-2.91351,43.02094],[-2.90647,43.01407],[-2.90354,43.01309],[-2.90233,43.00647],[-2.88743,42.9956],[-2.88385,42.99005],[-2.88171,42.98523],[-2.88434,42.98212],[-2.88483,42.97561],[-2.87687,42.97046],[-2.87478,42.96745],[-2.87768,42.95263],[-2.87653,42.94472],[-2.87909,42.9416],[-2.87185,42.93602],[-2.87055,42.92604],[-2.8681,42.9219],[-2.86064,42.91805],[-2.85638,42.91406],[-2.85468,42.9156],[-2.85211,42.91552],[-2.83783,42.91284],[-2.80828,42.91184],[-2.80777,42.91479],[-2.7962,42.91571],[-2.78785,42.92291],[-2.7834,42.93051],[-2.78639,42.93299],[-2.78881,42.93899],[-2.78723,42.94464],[-2.78836,42.94765],[-2.78441,42.95248],[-2.78017,42.95493],[-2.77635,42.95534],[-2.77148,42.96071],[-2.77715,42.97007],[-2.7807,42.98192],[-2.77669,42.99845],[-2.77708,43.01961],[-2.77405,43.02318],[-2.77498,43.03122],[-2.78118,43.03392],[-2.78604,43.03438],[-2.82171,43.0356],[-2.83611,43.04168],[-2.84797,43.04449],[-2.86417,43.05174],[-2.88009,43.05111],[-2.88912,43.04837],[-2.89018,43.04572],[-2.88605,43.04551],[-2.89721,43.03591],[-2.90333,43.03378],[-2.91159,43.03386],[-2.91647,43.03202],[-2.91393,43.03146],[-2.91537,43.02103],[-2.91482,43.02062]]]}},{"type":"Feature","properties":{"mun_code":"01058","mun_name":"Legutio","mun_name_local":null,"prov_code":"01","prov_name":"Araba","acom_code":"16","acom_name":"País Vasco","geo_point_2d":{"lon":-2.647783515657854,"lat":42.98290741945538}},"geometry":{"type":"Polygon","coordinates":[[[-2.68661,43.02186],[-2.68487,43.01794],[-2.68544,43.01124],[-2.67783,43.00324],[-2.67684,42.99975],[-2.67636,42.99405],[-2.67954,42.98962],[-2.6798,42.98125],[-2.68329,42.97967],[-2.68287,42.97762],[-2.68641,42.97674],[-2.68349,42.97046],[-2.67816,42.96724],[-2.68104,42.96282],[-2.68079,42.96041],[-2.67322,42.95705],[-2.67035,42.95009],[-2.66278,42.95074],[-2.66164,42.94687],[-2.6564,42.94128],[-2.6532,42.93508],[-2.64472,42.93714],[-2.63962,42.94365],[-2.63713,42.94261],[-2.63842,42.94119],[-2.6352,42.94049],[-2.62252,42.94102],[-2.61967,42.94596],[-2.63476,42.94608],[-2.63272,42.94836],[-2.63007,42.95843],[-2.6276,42.95345],[-2.62548,42.95548],[-2.61925,42.95747],[-2.6123,42.95418],[-2.60846,42.95412],[-2.60762,42.96081],[-2.60562,42.96434],[-2.6024,42.96573],[-2.60261,42.97236],[-2.5968,42.97598],[-2.60268,42.98223],[-2.60389,42.98554],[-2.60809,42.98814],[-2.62299,42.99492],[-2.63547,42.99563],[-2.62775,43.01173],[-2.63362,43.01991],[-2.6433,43.02137],[-2.65344,43.02713],[-2.65291,43.03003],[-2.6567,43.02635],[-2.66688,43.03143],[-2.67397,43.02595],[-2.67612,43.02643],[-2.68082,43.02417],[-2.68661,43.02186]]]}},{"type":"Feature","properties":{"mun_code":"01049","mun_name":"Añana","mun_name_local":null,"prov_code":"01","prov_name":"Araba","acom_code":"16","acom_name":"País Vasco","geo_point_2d":{"lon":-2.9916164895721518,"lat":42.81373751073906}},"geometry":{"type":"Polygon","coordinates":[[[-3.01538,42.79158],[-3.00757,42.78829],[-2.99773,42.78685],[-2.99404,42.78297],[-2.98843,42.78212],[-2.97563,42.79468],[-2.96707,42.79829],[-2.96733,42.8041],[-2.9712,42.81209],[-2.9696,42.81603],[-2.96634,42.82014],[-2.95334,42.82857],[-2.96108,42.8337],[-2.97163,42.83704],[-2.98732,42.83308],[-2.99145,42.83554],[-2.99604,42.83518],[-3.00222,42.8373],[-3.00852,42.84089],[-3.01442,42.84106],[-3.01601,42.83962],[-3.01539,42.83682],[-3.01808,42.83405],[-3.01687,42.82124],[-3.02042,42.81703],[-3.01147,42.81357],[-3.00896,42.8113],[-3.01727,42.80327],[-3.01529,42.79275],[-3.01538,42.79158]]]}},{"type":"Feature","properties":{"mun_code":"01037","mun_name":"Arraia-Maeztu","mun_name_local":null,"prov_code":"01","prov_name":"Araba","acom_code":"16","acom_name":"País Vasco","geo_point_2d":{"lon":-2.445246670647624,"lat":42.74911483142025}},"geometry":{"type":"Polygon","coordinates":[[[-2.52707,42.78814],[-2.52658,42.78165],[-2.52244,42.77892],[-2.51644,42.77752],[-2.5155,42.77412],[-2.51023,42.76908],[-2.50893,42.76445],[-2.52244,42.75496],[-2.52739,42.75467],[-2.52501,42.74564],[-2.5213,42.74154],[-2.52427,42.74251],[-2.51749,42.73446],[-2.51844,42.73109],[-2.51714,42.72883],[-2.52151,42.72577],[-2.51742,42.72641],[-2.51808,42.72336],[-2.51436,42.72186],[-2.51647,42.72591],[-2.51063,42.72544],[-2.50311,42.71724],[-2.50223,42.71403],[-2.5087,42.71003],[-2.49935,42.70127],[-2.47616,42.69596],[-2.47303,42.69355],[-2.4694,42.69471],[-2.46213,42.69213],[-2.46011,42.68868],[-2.46173,42.68362],[-2.45631,42.67843],[-2.44426,42.6786],[-2.44158,42.67734],[-2.44057,42.67491],[-2.43804,42.67525],[-2.43644,42.67963],[-2.43335,42.68072],[-2.42862,42.67871],[-2.43074,42.68153],[-2.42834,42.68537],[-2.42633,42.6874],[-2.42237,42.6884],[-2.42266,42.68969],[-2.4179,42.69084],[-2.41675,42.69745],[-2.41878,42.70421],[-2.42492,42.71042],[-2.41419,42.71257],[-2.41406,42.71487],[-2.41095,42.71811],[-2.41153,42.72137],[-2.40761,42.73093],[-2.39845,42.72901],[-2.38566,42.73462],[-2.3778,42.73204],[-2.3766,42.73719],[-2.37308,42.74023],[-2.37619,42.74737],[-2.38012,42.74687],[-2.37642,42.75283],[-2.37693,42.75465],[-2.37372,42.75535],[-2.37399,42.75739],[-2.36979,42.75938],[-2.36712,42.75885],[-2.36199,42.76144],[-2.35778,42.76582],[-2.37191,42.77982],[-2.36733,42.783],[-2.36502,42.7876],[-2.3693,42.80437],[-2.39411,42.80462],[-2.40905,42.80641],[-2.41321,42.80482],[-2.42469,42.80413],[-2.42529,42.79911],[-2.43813,42.79223],[-2.4445,42.79434],[-2.45672,42.78814],[-2.46821,42.78882],[-2.4695,42.78726],[-2.47675,42.78562],[-2.48315,42.7869],[-2.49156,42.7929],[-2.49715,42.79321],[-2.50244,42.79016],[-2.5077,42.79132],[-2.51001,42.78937],[-2.52613,42.78799],[-2.52707,42.78814]]]}},{"type":"Feature","properties":{"mun_code":"01060","mun_name":"Yécora","mun_name_local":"Iekora","prov_code":"01","prov_name":"Araba","acom_code":"16","acom_name":"País Vasco","geo_point_2d":{"lon":-2.468705637019789,"lat":42.55551619093566}},"geometry":{"type":"Polygon","coordinates":[[[-2.49063,42.58536],[-2.48868,42.57513],[-2.48345,42.57249],[-2.48349,42.5665],[-2.48115,42.56091],[-2.48564,42.54899],[-2.48017,42.52786],[-2.48382,42.52363],[-2.48362,42.51958],[-2.47633,42.52029],[-2.46737,42.52484],[-2.45947,42.52706],[-2.45601,42.53156],[-2.44206,42.53517],[-2.44185,42.53886],[-2.44573,42.54614],[-2.45241,42.55271],[-2.45429,42.55912],[-2.45124,42.56044],[-2.45433,42.57064],[-2.46001,42.57885],[-2.46221,42.58739],[-2.47251,42.58936],[-2.48371,42.58916],[-2.48893,42.58774],[-2.49063,42.58536]]]}},{"type":"Feature","properties":{"mun_code":"01061","mun_name":"Zalduondo","mun_name_local":null,"prov_code":"01","prov_name":"Araba","acom_code":"16","acom_name":"País Vasco","geo_point_2d":{"lon":-2.343904605497484,"lat":42.90026118484339}},"geometry":{"type":"Polygon","coordinates":[[[-2.33912,42.93639],[-2.3396,42.9313],[-2.34947,42.92101],[-2.35125,42.91592],[-2.35131,42.90659],[-2.35742,42.89351],[-2.3697,42.88354],[-2.3585,42.87852],[-2.36234,42.87677],[-2.35938,42.8769],[-2.35794,42.87555],[-2.35862,42.87268],[-2.35619,42.87236],[-2.35533,42.8746],[-2.34924,42.87435],[-2.34623,42.87349],[-2.34663,42.87194],[-2.34498,42.87129],[-2.34104,42.8728],[-2.33776,42.87123],[-2.32849,42.88511],[-2.32938,42.88823],[-2.3432,42.89141],[-2.33842,42.89773],[-2.33582,42.91336],[-2.33125,42.91545],[-2.32942,42.91894],[-2.32317,42.92269],[-2.32461,42.93073],[-2.3229,42.93134],[-2.33773,42.93555],[-2.33912,42.93639]]]}},{"type":"Feature","properties":{"mun_code":"01009","mun_name":"Asparrena","mun_name_local":null,"prov_code":"01","prov_name":"Araba","acom_code":"16","acom_name":"País Vasco","geo_point_2d":{"lon":-2.3160038272915693,"lat":42.89424331525681}},"geometry":{"type":"MultiPolygon","coordinates":[[[[-2.32299,42.93156],[-2.32461,42.93073],[-2.32317,42.92269],[-2.32942,42.91894],[-2.33125,42.91545],[-2.33582,42.91336],[-2.33842,42.89773],[-2.3432,42.89141],[-2.32938,42.88823],[-2.32849,42.88511],[-2.33746,42.87145],[-2.33322,42.87126],[-2.32431,42.86628],[-2.32002,42.87148],[-2.3163,42.87324],[-2.30765,42.87044],[-2.30419,42.86887],[-2.30389,42.86644],[-2.30158,42.86471],[-2.29864,42.85737],[-2.29791,42.84962],[-2.28107,42.84735],[-2.26853,42.84118],[-2.26513,42.84442],[-2.25776,42.84702],[-2.23594,42.85097],[-2.2405,42.86504],[-2.24212,42.8795],[-2.24098,42.88563],[-2.25307,42.89277],[-2.25153,42.89651],[-2.25545,42.89855],[-2.27317,42.90168],[-2.28954,42.90231],[-2.29281,42.90612],[-2.29119,42.90805],[-2.29772,42.91505],[-2.30232,42.92595],[-2.30495,42.92744],[-2.30961,42.92606],[-2.31426,42.9267],[-2.31644,42.92906],[-2.321,42.93047],[-2.32299,42.93156]]],[[[-2.38481,42.95105],[-2.39937,42.93368],[-2.40469,42.92158],[-2.40455,42.91267],[-2.39929,42.90028],[-2.40611,42.89483],[-2.38688,42.88964],[-2.38163,42.89067],[-2.37611,42.88992],[-2.37652,42.89274],[-2.36766,42.91177],[-2.36325,42.92592],[-2.3509,42.94261],[-2.35192,42.94721],[-2.3548,42.95003],[-2.36236,42.94678],[-2.37113,42.9489],[-2.37668,42.94804],[-2.382,42.95008],[-2.38481,42.95105]]]]}},{"type":"Feature","properties":{"mun_code":"01042","mun_name":"Okondo","mun_name_local":null,"prov_code":"01","prov_name":"Araba","acom_code":"16","acom_name":"País Vasco","geo_point_2d":{"lon":-3.017929719496193,"lat":43.168487510979396}},"geometry":{"type":"Polygon","coordinates":[[[-3.07469,43.14635],[-3.06808,43.14514],[-3.06995,43.13883],[-3.06721,43.13698],[-3.04762,43.13429],[-3.04072,43.1365],[-3.034,43.13666],[-3.03273,43.13842],[-3.03048,43.136],[-3.0238,43.13382],[-3.02211,43.13768],[-3.00397,43.15147],[-3.00013,43.15248],[-2.99123,43.16415],[-2.97311,43.17791],[-2.978,43.18375],[-2.97295,43.18623],[-2.98023,43.20129],[-2.98153,43.20195],[-2.9834,43.20025],[-2.98846,43.20074],[-3.00646,43.19601],[-3.01151,43.19921],[-3.01341,43.20461],[-3.02004,43.20679],[-3.01816,43.20773],[-3.01844,43.21018],[-3.02701,43.21719],[-3.03387,43.21656],[-3.03972,43.21067],[-3.02842,43.20512],[-3.01667,43.20262],[-3.02185,43.19964],[-3.0173,43.19413],[-3.02134,43.19309],[-3.01858,43.18221],[-3.02813,43.16944],[-3.02666,43.1611],[-3.06615,43.15551],[-3.0734,43.14766],[-3.07469,43.14635]]]}},{"type":"Feature","properties":{"mun_code":"01046","mun_name":"Erriberagoitia","mun_name_local":"Ribera Alta","prov_code":"01","prov_name":"Araba","acom_code":"16","acom_name":"País Vasco","geo_point_2d":{"lon":-2.9251234352684614,"lat":42.80245900038341}},"geometry":{"type":"MultiPolygon","coordinates":[[[[-3.01538,42.79158],[-3.02071,42.78972],[-3.01686,42.77913],[-3.01608,42.77254],[-3.01797,42.77011],[-3.01117,42.76424],[-3.00414,42.77145],[-2.99616,42.77377],[-2.99763,42.77802],[-2.99576,42.78046],[-2.98898,42.78193],[-2.99404,42.78297],[-2.99773,42.78685],[-3.00757,42.78829],[-3.01266,42.79049],[-3.01538,42.79158]]],[[[-2.99296,42.87908],[-2.99388,42.87073],[-2.99916,42.86188],[-3.002,42.84868],[-3.00919,42.84104],[-3.00222,42.8373],[-2.99604,42.83518],[-2.99145,42.83554],[-2.98732,42.83308],[-2.97163,42.83704],[-2.96108,42.8337],[-2.95334,42.82857],[-2.96634,42.82014],[-2.9696,42.81603],[-2.9712,42.81209],[-2.96733,42.8041],[-2.96707,42.79829],[-2.97563,42.79468],[-2.98544,42.78528],[-2.97813,42.7732],[-2.97425,42.77189],[-2.96113,42.77223],[-2.96262,42.77545],[-2.95691,42.77879],[-2.95234,42.78413],[-2.95104,42.78203],[-2.94353,42.78322],[-2.94145,42.77626],[-2.94486,42.77275],[-2.94555,42.76971],[-2.93668,42.76947],[-2.93955,42.76673],[-2.94219,42.76634],[-2.93798,42.75606],[-2.92611,42.74665],[-2.9382,42.74822],[-2.94857,42.74476],[-2.94996,42.74315],[-2.95347,42.72932],[-2.94846,42.72041],[-2.94369,42.71754],[-2.9409,42.71732],[-2.9407,42.71892],[-2.93093,42.71911],[-2.92552,42.72558],[-2.9268,42.73027],[-2.92596,42.73672],[-2.91868,42.73998],[-2.92013,42.74094],[-2.91831,42.74395],[-2.91201,42.74421],[-2.90685,42.74811],[-2.9097,42.75515],[-2.90013,42.75705],[-2.89662,42.75264],[-2.88765,42.75484],[-2.87996,42.75201],[-2.87456,42.75379],[-2.87482,42.75556],[-2.87339,42.75546],[-2.862,42.74585],[-2.85342,42.74735],[-2.8558,42.7525],[-2.8527,42.7519],[-2.85109,42.75284],[-2.85233,42.76215],[-2.84837,42.76329],[-2.85352,42.76619],[-2.85391,42.76786],[-2.84529,42.77806],[-2.84185,42.7762],[-2.83547,42.79627],[-2.85023,42.8024],[-2.86815,42.80698],[-2.87829,42.80826],[-2.87407,42.81057],[-2.87754,42.82037],[-2.87656,42.82625],[-2.86797,42.84364],[-2.88499,42.8397],[-2.88565,42.84164],[-2.89061,42.83392],[-2.89467,42.83367],[-2.90647,42.8482],[-2.91527,42.85354],[-2.91868,42.85842],[-2.93779,42.86274],[-2.93727,42.86369],[-2.94182,42.8658],[-2.95397,42.8694],[-2.96922,42.87238],[-2.97821,42.8725],[-2.99025,42.87622],[-2.99224,42.87878],[-2.99296,42.87908]]]]}},{"type":"Feature","properties":{"mun_code":"01010","mun_name":"Ayala","mun_name_local":"Aiara","prov_code":"01","prov_name":"Araba","acom_code":"16","acom_name":"País Vasco","geo_point_2d":{"lon":-3.0782745885294354,"lat":43.07549143665464}},"geometry":{"type":"Polygon","coordinates":[[[-3.1778,43.02198],[-3.17146,43.01826],[-3.16887,43.01493],[-3.16362,43.01411],[-3.14479,43.00684],[-3.12439,43.00776],[-3.11951,43.00572],[-3.10611,43.0054],[-3.08915,43.0015],[-3.09048,43.00947],[-3.06533,43.023],[-3.06326,43.02609],[-3.06406,43.03217],[-3.06249,43.03559],[-3.05004,43.04671],[-3.04789,43.04412],[-3.04437,43.04551],[-3.04184,43.04364],[-3.02847,43.04621],[-3.0292,43.0368],[-3.02792,43.03618],[-3.01834,43.03735],[-3.01619,43.04059],[-3.01275,43.04128],[-3.01619,43.04591],[-3.01831,43.05311],[-3.01303,43.06098],[-3.0006,43.06833],[-3.00305,43.0837],[-3.00185,43.08482],[-2.99994,43.08217],[-2.98967,43.08986],[-2.97756,43.09446],[-2.97269,43.09506],[-2.97471,43.09877],[-2.98988,43.10415],[-2.99281,43.10796],[-3.00903,43.11535],[-3.01201,43.1191],[-3.0154,43.11798],[-3.01877,43.12175],[-3.01883,43.12766],[-3.02379,43.13126],[-3.0238,43.13382],[-3.03048,43.136],[-3.03273,43.13842],[-3.034,43.13666],[-3.04072,43.1365],[-3.04762,43.13429],[-3.058,43.13497],[-3.06184,43.13681],[-3.06721,43.13698],[-3.06995,43.13883],[-3.06879,43.14541],[-3.08148,43.14741],[-3.0881,43.15063],[-3.09374,43.15095],[-3.09915,43.14893],[-3.10855,43.14441],[-3.10891,43.14328],[-3.10562,43.14158],[-3.10952,43.13629],[-3.10804,43.12528],[-3.11246,43.11603],[-3.11593,43.11418],[-3.11572,43.10701],[-3.13103,43.09694],[-3.13394,43.09723],[-3.14211,43.08911],[-3.1476,43.08573],[-3.14947,43.08116],[-3.15819,43.07402],[-3.14905,43.06933],[-3.14104,43.0687],[-3.14031,43.06715],[-3.14063,43.05932],[-3.14356,43.05438],[-3.14177,43.04901],[-3.14507,43.04933],[-3.14438,43.03809],[-3.14768,43.0345],[-3.14235,43.03144],[-3.1423,43.02874],[-3.14346,43.0274],[-3.15285,43.02697],[-3.17025,43.02907],[-3.17188,43.02684],[-3.17096,43.02553],[-3.17675,43.0236],[-3.17647,43.0225],[-3.1778,43.02198]]]}},{"type":"Feature","properties":{"mun_code":"01055","mun_name":"Valdegovía","mun_name_local":"Gaubea","prov_code":"01","prov_name":"Araba","acom_code":"16","acom_name":"País Vasco","geo_point_2d":{"lon":-3.1283281069854785,"lat":42.86406802912569}},"geometry":{"type":"Polygon","coordinates":[[[-3.28677,42.88515],[-3.28261,42.87551],[-3.27208,42.86644],[-3.25361,42.85282],[-3.23676,42.83793],[-3.22584,42.83012],[-3.21697,42.82652],[-3.20553,42.8274],[-3.22218,42.83864],[-3.20944,42.84423],[-3.207,42.85135],[-3.20047,42.85507],[-3.19069,42.86946],[-3.17306,42.85721],[-3.16282,42.85674],[-3.14989,42.86132],[-3.14474,42.86869],[-3.13872,42.87129],[-3.13808,42.87617],[-3.1257,42.89132],[-3.11896,42.89127],[-3.11257,42.88673],[-3.11332,42.88187],[-3.10519,42.88017],[-3.10825,42.87118],[-3.11374,42.86406],[-3.11315,42.86106],[-3.12084,42.855],[-3.12307,42.84871],[-3.12843,42.84925],[-3.13139,42.84466],[-3.12992,42.84216],[-3.13211,42.83795],[-3.14119,42.83605],[-3.14198,42.83164],[-3.14898,42.82017],[-3.14891,42.81292],[-3.15923,42.80459],[-3.14117,42.79642],[-3.13139,42.7898],[-3.12325,42.78933],[-3.11015,42.79096],[-3.10063,42.78783],[-3.0945,42.78485],[-3.09386,42.7786],[-3.08226,42.77023],[-3.0808,42.76678],[-3.0781,42.76675],[-3.07569,42.76408],[-3.06446,42.76019],[-3.05771,42.76289],[-3.05812,42.76675],[-3.06121,42.76812],[-3.05913,42.77039],[-3.06455,42.77903],[-3.06403,42.78127],[-3.05998,42.77987],[-3.05857,42.78094],[-3.05928,42.78281],[-3.04312,42.78974],[-3.04046,42.78856],[-3.02851,42.79135],[-3.02365,42.78887],[-3.01538,42.79158],[-3.01727,42.80327],[-3.00896,42.8113],[-3.01147,42.81357],[-3.02042,42.81703],[-3.01687,42.82124],[-3.01808,42.83405],[-3.01539,42.83682],[-3.0153,42.84053],[-3.00919,42.84104],[-3.002,42.84868],[-2.99916,42.86188],[-2.99388,42.87073],[-2.99296,42.87908],[-2.99995,42.88299],[-3.00574,42.8913],[-3.0061,42.89474],[-3.01367,42.90027],[-3.01471,42.90232],[-3.01285,42.9083],[-3.01614,42.91056],[-3.01891,42.90851],[-3.03171,42.90598],[-3.06005,42.90172],[-3.06897,42.90392],[-3.07518,42.90101],[-3.0921,42.89878],[-3.09852,42.9061],[-3.10466,42.91016],[-3.10842,42.90616],[-3.12653,42.90406],[-3.13285,42.91348],[-3.14159,42.91324],[-3.14927,42.91706],[-3.15083,42.91919],[-3.14796,42.93234],[-3.14473,42.93468],[-3.16939,42.94021],[-3.18075,42.94453],[-3.19654,42.94643],[-3.20259,42.94497],[-3.20649,42.94694],[-3.20973,42.94674],[-3.20979,42.94457],[-3.21162,42.9443],[-3.21375,42.94604],[-3.21665,42.94556],[-3.21782,42.94874],[-3.22473,42.94969],[-3.23556,42.94386],[-3.23537,42.93307],[-3.23995,42.93155],[-3.24572,42.92384],[-3.24879,42.91585],[-3.24854,42.91215],[-3.27724,42.90158],[-3.2764,42.88702],[-3.28677,42.88515]]]}},{"type":"Feature","properties":{"mun_code":"01034","mun_name":"Leza","mun_name_local":null,"prov_code":"01","prov_name":"Araba","acom_code":"16","acom_name":"País Vasco","geo_point_2d":{"lon":-2.637456098891766,"lat":42.571238253585925}},"geometry":{"type":"Polygon","coordinates":[[[-2.65544,42.56111],[-2.65095,42.55868],[-2.64653,42.55108],[-2.63076,42.55539],[-2.61666,42.55441],[-2.62077,42.56276],[-2.61684,42.56717],[-2.61615,42.57237],[-2.61898,42.57394],[-2.62388,42.57395],[-2.63881,42.59611],[-2.65061,42.59413],[-2.65154,42.5864],[-2.6468,42.57942],[-2.65298,42.57291],[-2.6546,42.5648],[-2.65544,42.56111]]]}},{"type":"Feature","properties":{"mun_code":"01043","mun_name":"Oyón-Oion","mun_name_local":null,"prov_code":"01","prov_name":"Araba","acom_code":"16","acom_name":"País Vasco","geo_point_2d":{"lon":-2.4328495814637807,"lat":42.5445644977021}},"geometry":{"type":"Polygon","coordinates":[[[-2.48362,42.51958],[-2.47991,42.51146],[-2.47993,42.50736],[-2.47471,42.50132],[-2.48226,42.4998],[-2.48154,42.49678],[-2.48409,42.49448],[-2.47743,42.48664],[-2.47233,42.49259],[-2.4488,42.49688],[-2.43952,42.49103],[-2.43851,42.48912],[-2.42058,42.48923],[-2.42353,42.49908],[-2.42375,42.50963],[-2.42206,42.51172],[-2.42983,42.51672],[-2.43075,42.52032],[-2.43477,42.52366],[-2.43795,42.5353],[-2.41298,42.54165],[-2.40019,42.54317],[-2.39603,42.54685],[-2.38995,42.54906],[-2.39056,42.56074],[-2.39344,42.56541],[-2.39584,42.58035],[-2.40003,42.5891],[-2.39675,42.5991],[-2.39933,42.59788],[-2.41198,42.60029],[-2.41855,42.60715],[-2.42112,42.60712],[-2.42484,42.60457],[-2.42494,42.60024],[-2.42957,42.59728],[-2.44179,42.57697],[-2.45324,42.56711],[-2.45124,42.56044],[-2.45429,42.55912],[-2.45355,42.55547],[-2.44802,42.54734],[-2.44573,42.54614],[-2.442,42.53948],[-2.44206,42.53517],[-2.45601,42.53156],[-2.45947,42.52706],[-2.46737,42.52484],[-2.47633,42.52029],[-2.47953,42.52073],[-2.48362,42.51958]]]}},{"type":"Feature","properties":{"mun_code":"01044","mun_name":"Peñacerrada-Urizaharra","mun_name_local":null,"prov_code":"01","prov_name":"Araba","acom_code":"16","acom_name":"País Vasco","geo_point_2d":{"lon":-2.7005451207414204,"lat":42.63831547419373}},"geometry":{"type":"Polygon","coordinates":[[[-2.79477,42.63258],[-2.78987,42.63471],[-2.7786,42.62938],[-2.77549,42.62535],[-2.76588,42.62016],[-2.76393,42.62244],[-2.76065,42.61993],[-2.75626,42.61884],[-2.74984,42.62383],[-2.74071,42.62244],[-2.73015,42.61702],[-2.72248,42.60852],[-2.71062,42.60109],[-2.68566,42.59493],[-2.68177,42.59539],[-2.68438,42.59875],[-2.68323,42.60192],[-2.67931,42.60565],[-2.67605,42.60673],[-2.67097,42.61551],[-2.66618,42.61732],[-2.66386,42.62364],[-2.65134,42.63156],[-2.62814,42.63179],[-2.62231,42.6432],[-2.62191,42.6477],[-2.61868,42.64863],[-2.62851,42.6495],[-2.63485,42.6478],[-2.64292,42.6527],[-2.65172,42.66099],[-2.65393,42.66999],[-2.65846,42.67239],[-2.66096,42.67191],[-2.6664,42.66619],[-2.67067,42.66982],[-2.67788,42.66917],[-2.67987,42.67162],[-2.6992,42.67484],[-2.70536,42.67382],[-2.71475,42.66957],[-2.71454,42.66388],[-2.71801,42.66202],[-2.72652,42.66368],[-2.73504,42.66209],[-2.73821,42.66282],[-2.74671,42.65578],[-2.74959,42.65498],[-2.7524,42.65233],[-2.75231,42.65021],[-2.75908,42.6499],[-2.75913,42.64837],[-2.75605,42.64707],[-2.75888,42.63826],[-2.76132,42.64039],[-2.76784,42.63947],[-2.77124,42.64051],[-2.77522,42.63914],[-2.78166,42.63943],[-2.78471,42.63686],[-2.79135,42.63716],[-2.79415,42.63485],[-2.79477,42.63258]]]}},{"type":"Feature","properties":{"mun_code":"01039","mun_name":"Moreda de Álava","mun_name_local":"Moreda Araba","prov_code":"01","prov_name":"Araba","acom_code":"16","acom_name":"País Vasco","geo_point_2d":{"lon":-2.4150374340087453,"lat":42.52743159175694}},"geometry":{"type":"Polygon","coordinates":[[[-2.42206,42.51172],[-2.4093,42.51602],[-2.3922,42.51695],[-2.3933,42.52312],[-2.39824,42.52939],[-2.3984,42.53419],[-2.40105,42.5385],[-2.40019,42.54317],[-2.41298,42.54165],[-2.43795,42.5353],[-2.43477,42.52366],[-2.43075,42.52032],[-2.42983,42.51672],[-2.4247,42.51291],[-2.42206,42.51172]]]}},{"type":"Feature","properties":{"mun_code":"01051","mun_name":"Agurain","mun_name_local":"Salvatierra","prov_code":"01","prov_name":"Araba","acom_code":"16","acom_name":"País Vasco","geo_point_2d":{"lon":-2.3871358577697137,"lat":42.838436086126684}},"geometry":{"type":"MultiPolygon","coordinates":[[[[-2.41891,42.86709],[-2.42778,42.86429],[-2.42856,42.8586],[-2.42499,42.85302],[-2.42686,42.85045],[-2.42182,42.84756],[-2.42354,42.84209],[-2.42194,42.83778],[-2.41558,42.8306],[-2.41839,42.8273],[-2.40665,42.82819],[-2.41029,42.8189],[-2.40905,42.80641],[-2.38501,42.8042],[-2.35403,42.80469],[-2.33153,42.81474],[-2.33067,42.81737],[-2.36063,42.83276],[-2.37133,42.84126],[-2.37139,42.84713],[-2.36676,42.84708],[-2.36726,42.85184],[-2.36953,42.85441],[-2.36566,42.85746],[-2.35694,42.85553],[-2.36405,42.86219],[-2.36583,42.86541],[-2.36434,42.86671],[-2.3811,42.86966],[-2.38817,42.87854],[-2.39244,42.8801],[-2.39536,42.87928],[-2.3968,42.87105],[-2.4035,42.86508],[-2.40959,42.86248],[-2.41448,42.86716],[-2.4165,42.86696],[-2.41891,42.86709]]],[[[-2.40611,42.89483],[-2.41111,42.894],[-2.4096,42.89178],[-2.41839,42.89452],[-2.42359,42.8929],[-2.42089,42.88627],[-2.41281,42.88445],[-2.4113,42.88251],[-2.40648,42.88305],[-2.40482,42.88512],[-2.401,42.88361],[-2.40567,42.89466],[-2.40611,42.89483]]]]}},{"type":"Feature","properties":{"mun_code":"01017","mun_name":"Campezo","mun_name_local":"Kanpezu","prov_code":"01","prov_name":"Araba","acom_code":"16","acom_name":"País Vasco","geo_point_2d":{"lon":-2.3608927068559296,"lat":42.68665557078148}},"geometry":{"type":"Polygon","coordinates":[[[-2.42862,42.67871],[-2.42636,42.67661],[-2.42633,42.67264],[-2.42194,42.66847],[-2.42613,42.66682],[-2.41825,42.6635],[-2.4173,42.66135],[-2.4158,42.66268],[-2.4035,42.65935],[-2.3946,42.66081],[-2.37626,42.65071],[-2.38166,42.64737],[-2.37212,42.64338],[-2.37605,42.63726],[-2.38254,42.63614],[-2.38195,42.6343],[-2.36929,42.63545],[-2.3675,42.63708],[-2.34489,42.63451],[-2.33635,42.64054],[-2.33548,42.64358],[-2.33218,42.64618],[-2.3221,42.64762],[-2.31517,42.65127],[-2.30743,42.65266],[-2.29334,42.65086],[-2.28848,42.65507],[-2.28935,42.66829],[-2.29358,42.67794],[-2.2964,42.67646],[-2.30109,42.67722],[-2.30508,42.67594],[-2.30794,42.67332],[-2.30493,42.67046],[-2.3093,42.67115],[-2.31153,42.68048],[-2.31686,42.6825],[-2.31236,42.68826],[-2.31571,42.70333],[-2.31285,42.70868],[-2.31839,42.71892],[-2.3205,42.71708],[-2.32224,42.71762],[-2.32416,42.72231],[-2.31831,42.7301],[-2.31685,42.73935],[-2.32821,42.73726],[-2.33195,42.73869],[-2.34015,42.73473],[-2.34519,42.72952],[-2.34427,42.72765],[-2.34158,42.72784],[-2.33983,42.72638],[-2.34557,42.71601],[-2.35091,42.724],[-2.35286,42.72515],[-2.35468,42.72452],[-2.35571,42.72939],[-2.35949,42.73002],[-2.35995,42.735],[-2.36177,42.73237],[-2.36428,42.73311],[-2.3682,42.73937],[-2.37329,42.73822],[-2.37878,42.73182],[-2.38566,42.73462],[-2.39845,42.72901],[-2.40761,42.73093],[-2.41153,42.72137],[-2.41095,42.71811],[-2.41406,42.71487],[-2.41419,42.71257],[-2.42492,42.71042],[-2.41657,42.70023],[-2.4179,42.69084],[-2.42012,42.69087],[-2.42266,42.68969],[-2.42237,42.6884],[-2.42633,42.6874],[-2.43074,42.68153],[-2.42862,42.67871]]]}},{"type":"Feature","properties":{"mun_code":"01056","mun_name":"Harana","mun_name_local":"Valle de Arana","prov_code":"01","prov_name":"Araba","acom_code":"16","acom_name":"País Vasco","geo_point_2d":{"lon":-2.3183767573692524,"lat":42.75720911263375}},"geometry":{"type":"Polygon","coordinates":[[[-2.3778,42.73204],[-2.37329,42.73822],[-2.3682,42.73937],[-2.36428,42.73311],[-2.36177,42.73237],[-2.35995,42.735],[-2.35949,42.73002],[-2.35571,42.72939],[-2.35468,42.72452],[-2.35286,42.72515],[-2.35091,42.724],[-2.34557,42.71601],[-2.33983,42.72638],[-2.34158,42.72784],[-2.34427,42.72765],[-2.34519,42.72952],[-2.34015,42.73473],[-2.33195,42.73869],[-2.32821,42.73726],[-2.31685,42.73935],[-2.31073,42.73605],[-2.31007,42.7371],[-2.30626,42.73558],[-2.28938,42.73964],[-2.28652,42.743],[-2.28244,42.74237],[-2.2775,42.74343],[-2.27344,42.74187],[-2.27249,42.7445],[-2.26766,42.74787],[-2.2625,42.74781],[-2.26208,42.74898],[-2.26673,42.75399],[-2.27328,42.76858],[-2.27531,42.77898],[-2.27882,42.78347],[-2.28101,42.78513],[-2.28561,42.7852],[-2.29183,42.79054],[-2.30734,42.79704],[-2.30905,42.79664],[-2.3089,42.79477],[-2.3128,42.79644],[-2.31903,42.79649],[-2.3166,42.79078],[-2.30755,42.78295],[-2.30532,42.77575],[-2.31358,42.77606],[-2.3259,42.77916],[-2.33534,42.76993],[-2.34121,42.7698],[-2.34295,42.76749],[-2.35565,42.76448],[-2.35778,42.76582],[-2.36199,42.76144],[-2.36673,42.75898],[-2.36955,42.75944],[-2.37399,42.75739],[-2.37372,42.75535],[-2.37693,42.75465],[-2.37664,42.75234],[-2.3804,42.748],[-2.37963,42.74614],[-2.37619,42.74737],[-2.37308,42.74023],[-2.3766,42.73719],[-2.37658,42.73529],[-2.3778,42.73204]]]}},{"type":"Feature","properties":{"mun_code":"01023","mun_name":"Elvillar","mun_name_local":"Bilar","prov_code":"01","prov_name":"Araba","acom_code":"16","acom_name":"País Vasco","geo_point_2d":{"lon":-2.5405537012861266,"lat":42.56205611110374}},"geometry":{"type":"Polygon","coordinates":[[[-2.53256,42.58847],[-2.54124,42.58962],[-2.54679,42.58839],[-2.55469,42.59046],[-2.56894,42.58794],[-2.57074,42.5848],[-2.56481,42.57739],[-2.5668,42.57246],[-2.56233,42.57081],[-2.56145,42.56736],[-2.55568,42.56047],[-2.5492,42.54302],[-2.54226,42.53842],[-2.53736,42.53776],[-2.53704,42.53497],[-2.52259,42.52545],[-2.5196,42.52097],[-2.51668,42.52605],[-2.51877,42.52897],[-2.51961,42.53525],[-2.51753,42.54238],[-2.51839,42.55066],[-2.52634,42.55986],[-2.52652,42.56785],[-2.52305,42.57043],[-2.52999,42.57675],[-2.53035,42.58903],[-2.53256,42.58847]]]}},{"type":"Feature","properties":{"mun_code":"01033","mun_name":"Lapuebla de Labarca","mun_name_local":null,"prov_code":"01","prov_name":"Araba","acom_code":"16","acom_name":"País Vasco","geo_point_2d":{"lon":-2.5702709200327365,"lat":42.494685224507265}},"geometry":{"type":"Polygon","coordinates":[[[-2.59136,42.48251],[-2.5886,42.48352],[-2.57759,42.48297],[-2.57384,42.49167],[-2.5684,42.49408],[-2.554,42.48387],[-2.5488,42.48391],[-2.54917,42.48541],[-2.54456,42.48884],[-2.54967,42.4911],[-2.54979,42.49472],[-2.5575,42.50337],[-2.57451,42.50754],[-2.5813,42.50443],[-2.58635,42.50011],[-2.58804,42.49722],[-2.58727,42.49344],[-2.59164,42.48639],[-2.59187,42.48292],[-2.59136,42.48251]]]}},{"type":"Feature","properties":{"mun_code":"53001","mun_name":"Comunidad de la Sierra Brava de Badaya","mun_name_local":null,"prov_code":"01","prov_name":"Araba","acom_code":"16","acom_name":"País Vasco","geo_point_2d":{"lon":-2.860750049222051,"lat":42.880329011877635}},"geometry":{"type":"Polygon","coordinates":[[[-2.88565,42.84164],[-2.88499,42.8397],[-2.87065,42.84351],[-2.85423,42.84435],[-2.85066,42.84638],[-2.83943,42.84825],[-2.83609,42.85142],[-2.84655,42.85631],[-2.84959,42.86074],[-2.84755,42.86294],[-2.84769,42.86633],[-2.85483,42.87134],[-2.85155,42.87389],[-2.854,42.87794],[-2.85339,42.88472],[-2.84972,42.8921],[-2.83801,42.8995],[-2.83364,42.90517],[-2.83462,42.90745],[-2.82937,42.91272],[-2.83908,42.91297],[-2.85468,42.9156],[-2.85627,42.91282],[-2.86827,42.91159],[-2.87377,42.90938],[-2.88222,42.902],[-2.88052,42.89766],[-2.88288,42.89369],[-2.88132,42.88922],[-2.87691,42.88556],[-2.87648,42.87932],[-2.87096,42.86988],[-2.8734,42.85616],[-2.87772,42.85408],[-2.87923,42.85164],[-2.87755,42.85068],[-2.88117,42.84863],[-2.88527,42.8422],[-2.88565,42.84164]]]}},{"type":"Feature","properties":{"mun_code":"01019","mun_name":"Kripan","mun_name_local":null,"prov_code":"01","prov_name":"Araba","acom_code":"16","acom_name":"País Vasco","geo_point_2d":{"lon":-2.5145122337941044,"lat":42.59519136190805}},"geometry":{"type":"Polygon","coordinates":[[[-2.53256,42.58847],[-2.52946,42.58905],[-2.52999,42.57675],[-2.52305,42.57043],[-2.50782,42.57215],[-2.50539,42.58224],[-2.49927,42.59036],[-2.49063,42.58536],[-2.4948,42.60283],[-2.49935,42.61156],[-2.50492,42.61274],[-2.5033,42.61682],[-2.51658,42.61706],[-2.52655,42.61402],[-2.53168,42.60896],[-2.53215,42.59374],[-2.53256,42.58847]]]}}]}