{"type":"FeatureCollection","features":[{"type":"Feature","properties":{"mun_code":"11001","mun_name":"Alcalá de los Gazules","mun_name_local":null,"prov_code":"11","prov_name":"Cádiz","acom_code":"01","acom_name":"Andalucía","geo_point_2d":{"lon":-5.694432145752196,"lat":36.44396715831509}},"geometry":{"type":"Polygon","coordinates":[[[-5.83951,36.49689],[-5.8242,36.48499],[-5.81853,36.47749],[-5.80916,36.44574],[-5.80579,36.42733],[-5.80893,36.42222],[-5.8053,36.41878],[-5.80302,36.41877],[-5.80226,36.41567],[-5.79827,36.41326],[-5.79472,36.40523],[-5.79612,36.40405],[-5.79553,36.4025],[-5.79453,36.40089],[-5.79186,36.40032],[-5.79365,36.39895],[-5.7921,36.39708],[-5.79433,36.39592],[-5.79359,36.39407],[-5.78961,36.39263],[-5.78967,36.38927],[-5.79438,36.38665],[-5.79111,36.38523],[-5.79291,36.38511],[-5.79284,36.38353],[-5.79607,36.38081],[-5.79321,36.37518],[-5.7998,36.36914],[-5.79188,36.36071],[-5.79202,36.35656],[-5.78771,36.35798],[-5.78844,36.35493],[-5.78707,36.35182],[-5.7853,36.35508],[-5.77991,36.35277],[-5.77422,36.35682],[-5.754,36.34641],[-5.71775,36.34298],[-5.68997,36.33426],[-5.68538,36.33391],[-5.68143,36.33119],[-5.66451,36.33276],[-5.66031,36.33132],[-5.64783,36.33193],[-5.63729,36.32434],[-5.62941,36.32282],[-5.61625,36.31748],[-5.60559,36.3184],[-5.58915,36.33283],[-5.58349,36.33391],[-5.57738,36.34088],[-5.57375,36.34202],[-5.5734,36.35037],[-5.57678,36.35139],[-5.58003,36.35594],[-5.58206,36.36219],[-5.58057,36.36421],[-5.586,36.37528],[-5.58826,36.37717],[-5.58744,36.38206],[-5.58992,36.389],[-5.58788,36.398],[-5.58227,36.40895],[-5.57874,36.42285],[-5.57454,36.4316],[-5.57508,36.43452],[-5.57361,36.43799],[-5.57054,36.4397],[-5.57132,36.44101],[-5.56127,36.48697],[-5.55898,36.5015],[-5.56113,36.50497],[-5.57025,36.51162],[-5.58299,36.51369],[-5.58882,36.51211],[-5.59126,36.50965],[-5.59914,36.50829],[-5.60792,36.51203],[-5.60881,36.51672],[-5.6353,36.52672],[-5.64985,36.53803],[-5.664,36.54435],[-5.71576,36.55602],[-5.73462,36.55638],[-5.75676,36.55455],[-5.77807,36.54952],[-5.78652,36.55071],[-5.79603,36.54926],[-5.82306,36.53945],[-5.83105,36.538],[-5.82911,36.51577],[-5.82989,36.5112],[-5.83684,36.49932],[-5.83951,36.49689]]]}},{"type":"Feature","properties":{"mun_code":"11038","mun_name":"Ubrique","mun_name_local":null,"prov_code":"11","prov_name":"Cádiz","acom_code":"01","acom_name":"Andalucía","geo_point_2d":{"lon":-5.463699169488531,"lat":36.65858659208867}},"geometry":{"type":"Polygon","coordinates":[[[-5.54038,36.67042],[-5.53164,36.6643],[-5.53099,36.65938],[-5.52277,36.66011],[-5.51813,36.65761],[-5.51215,36.65672],[-5.50885,36.65304],[-5.50261,36.65089],[-5.49577,36.64449],[-5.49115,36.64431],[-5.4886,36.6377],[-5.47753,36.63375],[-5.46628,36.62597],[-5.46428,36.6215],[-5.44788,36.61794],[-5.44437,36.6156],[-5.4385,36.61417],[-5.43386,36.6182],[-5.41277,36.62137],[-5.40916,36.62321],[-5.40666,36.62654],[-5.39602,36.63002],[-5.39803,36.63971],[-5.40515,36.6456],[-5.40394,36.64756],[-5.39687,36.65083],[-5.39692,36.65316],[-5.40266,36.65636],[-5.40501,36.65464],[-5.40712,36.65528],[-5.40888,36.66171],[-5.4105,36.66174],[-5.42226,36.6741],[-5.42415,36.68079],[-5.4315,36.68337],[-5.43631,36.68346],[-5.43676,36.68639],[-5.43929,36.68892],[-5.43775,36.69348],[-5.44426,36.69119],[-5.4551,36.6919],[-5.46076,36.687],[-5.46799,36.6841],[-5.47071,36.6844],[-5.47341,36.68021],[-5.4853,36.68217],[-5.4884,36.6925],[-5.4931,36.69662],[-5.49394,36.69919],[-5.51768,36.69778],[-5.52106,36.69576],[-5.52894,36.69393],[-5.52991,36.68897],[-5.53433,36.68891],[-5.5329,36.67838],[-5.53511,36.67812],[-5.53518,36.6752],[-5.53936,36.67145],[-5.54038,36.67042]]]}},{"type":"Feature","properties":{"mun_code":"11019","mun_name":"Grazalema","mun_name_local":null,"prov_code":"11","prov_name":"Cádiz","acom_code":"01","acom_name":"Andalucía","geo_point_2d":{"lon":-5.3894801275566655,"lat":36.77086503848934}},"geometry":{"type":"Polygon","coordinates":[[[-5.50151,36.79478],[-5.48683,36.78704],[-5.48345,36.78107],[-5.48325,36.77446],[-5.47926,36.77138],[-5.48248,36.76309],[-5.48189,36.75459],[-5.47656,36.75024],[-5.46604,36.74529],[-5.46189,36.74779],[-5.45427,36.74529],[-5.44808,36.74055],[-5.44712,36.73586],[-5.42832,36.73954],[-5.42546,36.7452],[-5.41964,36.74739],[-5.4124,36.74347],[-5.41309,36.74097],[-5.40776,36.74227],[-5.40308,36.73885],[-5.39374,36.73784],[-5.39138,36.73342],[-5.38318,36.73481],[-5.37648,36.73292],[-5.36935,36.73265],[-5.36344,36.72415],[-5.36164,36.72403],[-5.36045,36.72761],[-5.35693,36.72768],[-5.35542,36.73054],[-5.35313,36.73012],[-5.34432,36.72056],[-5.33868,36.72324],[-5.33747,36.72434],[-5.33794,36.72807],[-5.33515,36.7278],[-5.33449,36.72934],[-5.33017,36.72828],[-5.32463,36.72401],[-5.31624,36.7303],[-5.31214,36.73501],[-5.30762,36.75101],[-5.302,36.75588],[-5.30008,36.76017],[-5.29523,36.76365],[-5.29093,36.77517],[-5.30726,36.78037],[-5.31982,36.78673],[-5.32395,36.79484],[-5.32654,36.80527],[-5.33396,36.81246],[-5.33536,36.81729],[-5.34071,36.81942],[-5.35073,36.81306],[-5.35584,36.81354],[-5.36665,36.81116],[-5.37167,36.80518],[-5.38051,36.80815],[-5.40734,36.80358],[-5.44356,36.80356],[-5.46023,36.80637],[-5.4988,36.79506],[-5.50151,36.79478]]]}},{"type":"Feature","properties":{"mun_code":"11040","mun_name":"Villaluenga del Rosario","mun_name_local":null,"prov_code":"11","prov_name":"Cádiz","acom_code":"01","acom_name":"Andalucía","geo_point_2d":{"lon":-5.367126560852091,"lat":36.686328508383944}},"geometry":{"type":"Polygon","coordinates":[[[-5.40266,36.65636],[-5.39692,36.65316],[-5.39687,36.65083],[-5.40394,36.64756],[-5.40515,36.6456],[-5.39829,36.64009],[-5.39646,36.63581],[-5.39602,36.63002],[-5.39858,36.62897],[-5.39602,36.62841],[-5.38317,36.63093],[-5.37876,36.63282],[-5.36367,36.64601],[-5.353,36.65261],[-5.35124,36.65605],[-5.35061,36.65534],[-5.34335,36.65992],[-5.33382,36.67239],[-5.32403,36.67334],[-5.32974,36.67798],[-5.33031,36.68004],[-5.32968,36.68192],[-5.31961,36.6882],[-5.31873,36.69115],[-5.32159,36.69444],[-5.32762,36.69489],[-5.32805,36.70048],[-5.32635,36.70279],[-5.32665,36.70716],[-5.32308,36.71951],[-5.32463,36.72401],[-5.32958,36.72793],[-5.33449,36.72934],[-5.33515,36.7278],[-5.33794,36.72807],[-5.33747,36.72434],[-5.34432,36.72056],[-5.35313,36.73012],[-5.35542,36.73054],[-5.35693,36.72768],[-5.36045,36.72761],[-5.36164,36.72403],[-5.36317,36.7241],[-5.36935,36.73265],[-5.37648,36.73292],[-5.38318,36.73481],[-5.39138,36.73342],[-5.38837,36.72728],[-5.39245,36.72382],[-5.39257,36.72174],[-5.39221,36.72052],[-5.38867,36.71965],[-5.38924,36.71636],[-5.39585,36.70978],[-5.39623,36.70592],[-5.39483,36.70484],[-5.40891,36.69406],[-5.41206,36.68898],[-5.40951,36.68303],[-5.39829,36.67205],[-5.39479,36.6658],[-5.40023,36.65793],[-5.40266,36.65636]]]}},{"type":"Feature","properties":{"mun_code":"11027","mun_name":"El Puerto de Santa María","mun_name_local":null,"prov_code":"11","prov_name":"Cádiz","acom_code":"01","acom_name":"Andalucía","geo_point_2d":{"lon":-6.2349254284708095,"lat":36.631214229907364}},"geometry":{"type":"Polygon","coordinates":[[[-6.32363,36.70286],[-6.31382,36.69523],[-6.31366,36.68516],[-6.30717,36.67773],[-6.30752,36.66793],[-6.31314,36.6686],[-6.31496,36.66559],[-6.31269,36.66422],[-6.31137,36.66054],[-6.30917,36.66128],[-6.30889,36.65985],[-6.30423,36.65961],[-6.29689,36.65372],[-6.29695,36.65217],[-6.30073,36.64956],[-6.30108,36.64462],[-6.30663,36.63684],[-6.29826,36.61628],[-6.28763,36.61127],[-6.27878,36.6026],[-6.2717,36.59109],[-6.26946,36.58369],[-6.26594,36.57986],[-6.262,36.58061],[-6.26018,36.57887],[-6.254,36.5771],[-6.25662,36.5781],[-6.25563,36.5788],[-6.2578,36.58133],[-6.25578,36.58174],[-6.25565,36.58063],[-6.25515,36.58175],[-6.25504,36.58052],[-6.25508,36.58176],[-6.25459,36.58069],[-6.25458,36.58178],[-6.25256,36.58147],[-6.25364,36.57889],[-6.25495,36.57899],[-6.25351,36.57822],[-6.2503,36.57933],[-6.2504,36.58143],[-6.249,36.58068],[-6.2504,36.58159],[-6.24977,36.58363],[-6.24234,36.58548],[-6.2377,36.58333],[-6.24232,36.57888],[-6.24013,36.57772],[-6.23777,36.57919],[-6.23574,36.57774],[-6.2391,36.57413],[-6.23214,36.58087],[-6.22716,36.57662],[-6.22459,36.57151],[-6.22387,36.56383],[-6.22856,36.53993],[-6.2329,36.52874],[-6.22764,36.52755],[-6.22029,36.52808],[-6.21421,36.53406],[-6.20766,36.54781],[-6.20669,36.56149],[-6.21261,36.57218],[-6.20803,36.57697],[-6.19702,36.58122],[-6.18824,36.57836],[-6.19249,36.57103],[-6.19903,36.56537],[-6.19822,36.56358],[-6.1877,36.56668],[-6.1796,36.57073],[-6.17846,36.56936],[-6.18028,36.56416],[-6.17857,36.56227],[-6.16799,36.55937],[-6.16126,36.56259],[-6.16141,36.56693],[-6.16897,36.56666],[-6.17168,36.56953],[-6.1673,36.57098],[-6.15802,36.58077],[-6.15539,36.58084],[-6.15327,36.57823],[-6.15153,36.57868],[-6.15085,36.58226],[-6.15244,36.58495],[-6.15099,36.58785],[-6.156,36.59183],[-6.15737,36.5955],[-6.14888,36.60353],[-6.1441,36.60225],[-6.14139,36.60574],[-6.13903,36.60353],[-6.14195,36.61503],[-6.13991,36.6159],[-6.14249,36.62208],[-6.14819,36.63023],[-6.15789,36.6396],[-6.16116,36.64114],[-6.16355,36.64117],[-6.16461,36.63991],[-6.17499,36.64219],[-6.18686,36.64925],[-6.18553,36.65169],[-6.19084,36.65191],[-6.19193,36.65264],[-6.19088,36.65432],[-6.19517,36.65696],[-6.19735,36.65592],[-6.1971,36.657],[-6.20424,36.65754],[-6.20318,36.65954],[-6.20513,36.66114],[-6.20754,36.66046],[-6.20842,36.66114],[-6.20718,36.66207],[-6.20988,36.66454],[-6.22903,36.67408],[-6.23906,36.68477],[-6.23912,36.69357],[-6.25541,36.70599],[-6.2766,36.70898],[-6.28311,36.71364],[-6.29169,36.71479],[-6.30341,36.71869],[-6.31652,36.71282],[-6.31543,36.71102],[-6.3226,36.70334],[-6.32363,36.70286]]]}},{"type":"Feature","properties":{"mun_code":"11011","mun_name":"El Bosque","mun_name_local":null,"prov_code":"11","prov_name":"Cádiz","acom_code":"01","acom_name":"Andalucía","geo_point_2d":{"lon":-5.510768746648596,"lat":36.75370036105514}},"geometry":{"type":"Polygon","coordinates":[[[-5.54432,36.7331],[-5.53817,36.7228],[-5.53181,36.71804],[-5.53271,36.71659],[-5.53068,36.71468],[-5.53282,36.71408],[-5.53167,36.71057],[-5.52687,36.71248],[-5.52624,36.7144],[-5.51721,36.71633],[-5.51577,36.71936],[-5.505,36.71967],[-5.49823,36.72409],[-5.50044,36.73628],[-5.49155,36.74697],[-5.4851,36.75081],[-5.48189,36.75459],[-5.48248,36.76309],[-5.47926,36.77138],[-5.48325,36.77446],[-5.48335,36.78081],[-5.48683,36.78704],[-5.50151,36.79478],[-5.50812,36.79233],[-5.51803,36.78559],[-5.52664,36.7752],[-5.52981,36.75809],[-5.53811,36.7407],[-5.54417,36.7335],[-5.54432,36.7331]]]}},{"type":"Feature","properties":{"mun_code":"11018","mun_name":"El Gastor","mun_name_local":null,"prov_code":"11","prov_name":"Cádiz","acom_code":"01","acom_name":"Andalucía","geo_point_2d":{"lon":-5.345148833367047,"lat":36.84635296000992}},"geometry":{"type":"Polygon","coordinates":[[[-5.38275,36.84976],[-5.38159,36.84777],[-5.37759,36.84525],[-5.37371,36.84458],[-5.37019,36.84025],[-5.36602,36.83862],[-5.36483,36.83129],[-5.3712,36.82658],[-5.37432,36.82076],[-5.37306,36.81149],[-5.38051,36.80815],[-5.37167,36.80518],[-5.36665,36.81116],[-5.35584,36.81354],[-5.35073,36.81306],[-5.34071,36.81942],[-5.33509,36.82762],[-5.33251,36.8386],[-5.31543,36.85545],[-5.30776,36.85655],[-5.30577,36.85812],[-5.30158,36.86964],[-5.30318,36.87382],[-5.30506,36.87639],[-5.31944,36.87354],[-5.34268,36.87214],[-5.35774,36.86707],[-5.36927,36.86131],[-5.37556,36.85467],[-5.37819,36.84925],[-5.38246,36.84992],[-5.38275,36.84976]]]}},{"type":"Feature","properties":{"mun_code":"11012","mun_name":"Cádiz","mun_name_local":null,"prov_code":"11","prov_name":"Cádiz","acom_code":"01","acom_name":"Andalucía","geo_point_2d":{"lon":-6.266429032825678,"lat":36.4945680874564}},"geometry":{"type":"MultiPolygon","coordinates":[[[[-6.22668,36.4665],[-6.22895,36.46264],[-6.2454,36.46483],[-6.25352,36.46792],[-6.2576,36.47311],[-6.26665,36.48966],[-6.2622,36.49144],[-6.26243,36.49602],[-6.25435,36.50058],[-6.25642,36.50777],[-6.25502,36.50138],[-6.2591,36.49931],[-6.26318,36.50282],[-6.26139,36.50535],[-6.26282,36.5066],[-6.26103,36.50638],[-6.26242,36.50705],[-6.26059,36.50701],[-6.26157,36.50819],[-6.26007,36.5075],[-6.26119,36.50897],[-6.26354,36.50735],[-6.26984,36.50858],[-6.27502,36.52405],[-6.27607,36.52386],[-6.27515,36.52474],[-6.27629,36.52546],[-6.27872,36.52431],[-6.28193,36.52747],[-6.27653,36.52684],[-6.27631,36.52771],[-6.27871,36.52816],[-6.27826,36.5295],[-6.27656,36.52946],[-6.27788,36.52975],[-6.27667,36.53076],[-6.27286,36.53004],[-6.2757,36.53094],[-6.27479,36.53226],[-6.26873,36.53166],[-6.27538,36.53508],[-6.27401,36.53594],[-6.27564,36.53588],[-6.27684,36.54074],[-6.27534,36.53325],[-6.28111,36.52891],[-6.28295,36.52947],[-6.28109,36.53215],[-6.28195,36.53284],[-6.28552,36.52953],[-6.28717,36.53087],[-6.28129,36.53369],[-6.28422,36.53469],[-6.28995,36.53076],[-6.29229,36.53287],[-6.28569,36.5389],[-6.28667,36.53971],[-6.28555,36.54068],[-6.28547,36.53911],[-6.28269,36.54291],[-6.27961,36.54307],[-6.28729,36.54284],[-6.29148,36.5392],[-6.2905,36.5377],[-6.29607,36.5366],[-6.29932,36.53839],[-6.30505,36.53674],[-6.30867,36.53322],[-6.30617,36.52971],[-6.30945,36.52848],[-6.30233,36.52754],[-6.29691,36.52881],[-6.28901,36.52367],[-6.29003,36.52224],[-6.28862,36.52242],[-6.28722,36.51851],[-6.28839,36.51779],[-6.26962,36.49081],[-6.25944,36.47333],[-6.25036,36.45205],[-6.24972,36.4462],[-6.24683,36.44156],[-6.24863,36.44886],[-6.24261,36.44378],[-6.23844,36.44736],[-6.23039,36.44874],[-6.22899,36.45826],[-6.22569,36.46318],[-6.22629,36.46594],[-6.22668,36.4665]]],[[[-6.31731,36.52719],[-6.31237,36.52775],[-6.31658,36.52908],[-6.31722,36.52766],[-6.31731,36.52719]]]]}},{"type":"Feature","properties":{"mun_code":"11020","mun_name":"Jerez de la Frontera","mun_name_local":null,"prov_code":"11","prov_name":"Cádiz","acom_code":"01","acom_name":"Andalucía","geo_point_2d":{"lon":-5.96669983646403,"lat":36.68199594777022}},"geometry":{"type":"MultiPolygon","coordinates":[[[[-5.61812,36.68065],[-5.62768,36.67787],[-5.6508,36.67653],[-5.65664,36.67644],[-5.66332,36.68011],[-5.66996,36.68185],[-5.6735,36.6811],[-5.67482,36.67944],[-5.66335,36.66769],[-5.65244,36.66707],[-5.65156,36.6654],[-5.64437,36.66676],[-5.64175,36.66567],[-5.61822,36.67556],[-5.61802,36.67999],[-5.61812,36.68065]]],[[[-6.20377,36.82921],[-6.21577,36.82543],[-6.21967,36.82109],[-6.22358,36.81967],[-6.22566,36.82033],[-6.23273,36.81091],[-6.23871,36.79232],[-6.24404,36.78817],[-6.25464,36.78775],[-6.27127,36.79118],[-6.27022,36.78217],[-6.28215,36.76784],[-6.28283,36.76486],[-6.28579,36.76562],[-6.29505,36.7509],[-6.29419,36.74276],[-6.30083,36.73609],[-6.30612,36.7216],[-6.30099,36.71716],[-6.28311,36.71364],[-6.2766,36.70898],[-6.25541,36.70599],[-6.23912,36.69357],[-6.23906,36.68477],[-6.22903,36.67408],[-6.20988,36.66454],[-6.20718,36.66207],[-6.20842,36.66114],[-6.20754,36.66046],[-6.20513,36.66114],[-6.20318,36.65954],[-6.20424,36.65754],[-6.1971,36.657],[-6.19735,36.65592],[-6.19517,36.65696],[-6.19088,36.65432],[-6.19193,36.65264],[-6.19084,36.65191],[-6.18553,36.65169],[-6.18686,36.64925],[-6.17499,36.64219],[-6.16461,36.63991],[-6.16355,36.64117],[-6.16116,36.64114],[-6.15575,36.63807],[-6.14546,36.62662],[-6.13991,36.6159],[-6.14195,36.61503],[-6.13903,36.60353],[-6.14199,36.60564],[-6.1441,36.60225],[-6.14888,36.60353],[-6.15294,36.6003],[-6.13232,36.5936],[-6.11762,36.57735],[-6.1165,36.57349],[-6.10289,36.56615],[-6.09991,36.56538],[-6.09684,36.56668],[-6.0918,36.56324],[-6.0852,36.56638],[-6.08029,36.56366],[-6.07001,36.56455],[-6.06839,36.56185],[-6.06162,36.55809],[-6.05746,36.55967],[-6.05455,36.55895],[-6.04922,36.56259],[-6.04597,36.56134],[-6.04192,36.56296],[-6.035,36.55895],[-6.03503,36.55749],[-6.02925,36.55313],[-6.0222,36.55072],[-6.02235,36.5495],[-6.01612,36.55232],[-6.00946,36.56195],[-6.00257,36.55932],[-5.99465,36.54982],[-5.98844,36.54655],[-5.9905,36.54447],[-5.99845,36.54199],[-5.99644,36.53869],[-5.99713,36.52856],[-5.99413,36.52825],[-5.98024,36.52151],[-5.98045,36.51841],[-5.97171,36.52194],[-5.95048,36.52594],[-5.91783,36.52934],[-5.89929,36.5357],[-5.85124,36.53463],[-5.84229,36.5375],[-5.82306,36.53945],[-5.79603,36.54926],[-5.78652,36.55071],[-5.77807,36.54952],[-5.75676,36.55455],[-5.72622,36.55649],[-5.71576,36.55602],[-5.664,36.54435],[-5.64985,36.53803],[-5.6353,36.52672],[-5.60765,36.51579],[-5.60625,36.52527],[-5.61045,36.53411],[-5.60945,36.53691],[-5.61178,36.5416],[-5.61022,36.54456],[-5.60417,36.54892],[-5.59606,36.55099],[-5.57979,36.54746],[-5.57456,36.54841],[-5.57149,36.54759],[-5.56704,36.54245],[-5.54164,36.53766],[-5.53951,36.53567],[-5.53707,36.52715],[-5.53041,36.52977],[-5.52811,36.52926],[-5.51819,36.53498],[-5.51277,36.54239],[-5.50206,36.54761],[-5.49306,36.56138],[-5.48955,36.57046],[-5.47697,36.57407],[-5.46287,36.58895],[-5.46082,36.58878],[-5.45718,36.60209],[-5.45833,36.61395],[-5.45585,36.61682],[-5.45591,36.61958],[-5.46428,36.6215],[-5.46628,36.62597],[-5.47753,36.63375],[-5.4886,36.6377],[-5.49115,36.64431],[-5.49577,36.64449],[-5.50261,36.65089],[-5.50885,36.65304],[-5.51215,36.65672],[-5.51813,36.65761],[-5.52277,36.66011],[-5.53099,36.65938],[-5.53164,36.6643],[-5.539,36.66964],[-5.54223,36.66448],[-5.54654,36.66234],[-5.55994,36.66165],[-5.5625,36.66022],[-5.56366,36.65846],[-5.56264,36.65539],[-5.56616,36.6528],[-5.56968,36.64691],[-5.56955,36.64348],[-5.58035,36.64291],[-5.58606,36.6439],[-5.59496,36.64016],[-5.59873,36.63741],[-5.59844,36.63449],[-5.60564,36.62575],[-5.6033,36.62288],[-5.60792,36.62392],[-5.61947,36.62246],[-5.62503,36.62448],[-5.63243,36.61763],[-5.64811,36.60779],[-5.66235,36.59943],[-5.66758,36.59866],[-5.66807,36.59687],[-5.66136,36.58339],[-5.65996,36.57559],[-5.66178,36.56897],[-5.66061,36.56653],[-5.66885,36.55237],[-5.67744,36.55237],[-5.68086,36.56231],[-5.69051,36.56313],[-5.68975,36.56785],[-5.6927,36.57466],[-5.69479,36.57561],[-5.70428,36.57387],[-5.70773,36.57201],[-5.70516,36.56688],[-5.71376,36.56994],[-5.71569,36.56542],[-5.72375,36.56667],[-5.724,36.56918],[-5.73081,36.57054],[-5.73179,36.5725],[-5.7295,36.57357],[-5.72614,36.57887],[-5.72838,36.58419],[-5.73088,36.58172],[-5.73229,36.58236],[-5.74019,36.57878],[-5.74833,36.57364],[-5.74873,36.57575],[-5.7609,36.56616],[-5.76489,36.56519],[-5.76878,36.56688],[-5.77902,36.56311],[-5.78508,36.56006],[-5.79228,36.55237],[-5.79742,36.54992],[-5.79904,36.55246],[-5.80584,36.55308],[-5.8106,36.55128],[-5.81612,36.55246],[-5.82358,36.55107],[-5.82682,36.55221],[-5.83434,36.55114],[-5.84342,36.55337],[-5.84831,36.55087],[-5.85455,36.55033],[-5.86962,36.5525],[-5.86298,36.56911],[-5.85471,36.58004],[-5.85215,36.59153],[-5.85829,36.64712],[-5.85428,36.66963],[-5.85848,36.67076],[-5.85987,36.67308],[-5.86708,36.67609],[-5.87296,36.67788],[-5.87843,36.67739],[-5.88008,36.67907],[-5.88969,36.67353],[-5.89253,36.67345],[-5.89461,36.67682],[-5.90254,36.67508],[-5.91498,36.68734],[-5.91775,36.68831],[-5.92037,36.69374],[-5.9273,36.69806],[-5.9352,36.70985],[-5.93542,36.71391],[-5.94604,36.72735],[-5.94278,36.72987],[-5.9412,36.73385],[-5.92441,36.74555],[-5.92126,36.7593],[-5.91789,36.76506],[-5.9196,36.77228],[-5.91993,36.78981],[-5.92101,36.79417],[-5.92248,36.79462],[-5.91609,36.7996],[-5.91247,36.80846],[-5.90356,36.82148],[-5.89101,36.83512],[-5.89105,36.84219],[-5.92535,36.85307],[-5.94134,36.85192],[-5.95285,36.85313],[-5.96224,36.85079],[-5.97312,36.84419],[-5.97768,36.8455],[-6.0336,36.84884],[-6.05059,36.85344],[-6.07657,36.85352],[-6.08054,36.85523],[-6.0857,36.85449],[-6.10524,36.85743],[-6.12199,36.86379],[-6.13364,36.85223],[-6.15718,36.85166],[-6.18769,36.83779],[-6.19546,36.83608],[-6.20264,36.82954],[-6.20377,36.82921]]]]}},{"type":"Feature","properties":{"mun_code":"11902","mun_name":"San José del Valle","mun_name_local":null,"prov_code":"11","prov_name":"Cádiz","acom_code":"01","acom_name":"Andalucía","geo_point_2d":{"lon":-5.741580542375473,"lat":36.61684974462786}},"geometry":{"type":"Polygon","coordinates":[[[-5.85428,36.66963],[-5.85829,36.64712],[-5.85215,36.59153],[-5.85471,36.58004],[-5.86298,36.56911],[-5.86962,36.5525],[-5.85455,36.55033],[-5.84831,36.55087],[-5.84342,36.55337],[-5.83434,36.55114],[-5.82682,36.55221],[-5.82358,36.55107],[-5.81612,36.55246],[-5.8106,36.55128],[-5.80584,36.55308],[-5.79904,36.55246],[-5.79742,36.54992],[-5.79228,36.55237],[-5.78508,36.56006],[-5.77902,36.56311],[-5.76878,36.56688],[-5.76489,36.56519],[-5.7609,36.56616],[-5.74873,36.57575],[-5.74833,36.57364],[-5.74019,36.57878],[-5.73229,36.58236],[-5.73088,36.58172],[-5.72838,36.58419],[-5.72614,36.57887],[-5.7295,36.57357],[-5.73179,36.5725],[-5.73081,36.57054],[-5.724,36.56918],[-5.72375,36.56667],[-5.71569,36.56542],[-5.71376,36.56994],[-5.70516,36.56688],[-5.70773,36.57201],[-5.70428,36.57387],[-5.69479,36.57561],[-5.6927,36.57466],[-5.68975,36.56785],[-5.69051,36.56313],[-5.68086,36.56231],[-5.67744,36.55237],[-5.66885,36.55237],[-5.66061,36.56653],[-5.66178,36.56897],[-5.65996,36.57559],[-5.66136,36.58339],[-5.66807,36.59687],[-5.66758,36.59866],[-5.66235,36.59943],[-5.64811,36.60779],[-5.63243,36.61763],[-5.62503,36.62448],[-5.61947,36.62246],[-5.60792,36.62392],[-5.6033,36.62288],[-5.60564,36.62575],[-5.59844,36.63449],[-5.59873,36.63741],[-5.59496,36.64016],[-5.58606,36.6439],[-5.58035,36.64291],[-5.56955,36.64348],[-5.56968,36.64691],[-5.56616,36.6528],[-5.56264,36.65539],[-5.56366,36.65846],[-5.5625,36.66022],[-5.55994,36.66165],[-5.54654,36.66234],[-5.54223,36.66448],[-5.539,36.66964],[-5.55109,36.68002],[-5.57392,36.68396],[-5.58431,36.69025],[-5.5906,36.6902],[-5.59948,36.68506],[-5.60314,36.67654],[-5.60706,36.67467],[-5.61144,36.6684],[-5.61015,36.66491],[-5.60576,36.66135],[-5.61473,36.65121],[-5.61885,36.64367],[-5.61397,36.63904],[-5.62076,36.63636],[-5.63032,36.64152],[-5.63318,36.63913],[-5.63282,36.63657],[-5.63492,36.6326],[-5.64118,36.6292],[-5.63987,36.62715],[-5.65206,36.62382],[-5.65314,36.62682],[-5.65905,36.62992],[-5.65838,36.63199],[-5.66045,36.63643],[-5.66363,36.63619],[-5.67284,36.64279],[-5.66923,36.64688],[-5.67152,36.64672],[-5.67361,36.65109],[-5.67745,36.65258],[-5.68125,36.65097],[-5.6805,36.6478],[-5.68239,36.64662],[-5.68868,36.65653],[-5.69782,36.65808],[-5.70121,36.66117],[-5.70573,36.6596],[-5.71049,36.65572],[-5.70762,36.6523],[-5.71116,36.64552],[-5.71308,36.64453],[-5.71568,36.64762],[-5.71526,36.64989],[-5.72091,36.65143],[-5.72717,36.64674],[-5.73169,36.65223],[-5.73644,36.65102],[-5.74106,36.65173],[-5.74248,36.65642],[-5.75037,36.65868],[-5.75314,36.65832],[-5.75561,36.65552],[-5.76059,36.65344],[-5.76432,36.65357],[-5.76587,36.65818],[-5.764,36.66091],[-5.76481,36.6637],[-5.76849,36.66472],[-5.77391,36.66314],[-5.77901,36.66983],[-5.78457,36.66746],[-5.79054,36.66908],[-5.8129,36.6686],[-5.82985,36.6711],[-5.84509,36.66879],[-5.85362,36.66954],[-5.85428,36.66963]]]}},{"type":"Feature","properties":{"mun_code":"11039","mun_name":"Vejer de la Frontera","mun_name_local":null,"prov_code":"11","prov_name":"Cádiz","acom_code":"01","acom_name":"Andalucía","geo_point_2d":{"lon":-5.941884969946603,"lat":36.2819341595442}},"geometry":{"type":"Polygon","coordinates":[[[-6.07914,36.24392],[-6.05457,36.20551],[-6.05164,36.20786],[-6.04406,36.2079],[-6.04294,36.20965],[-6.04029,36.20812],[-6.03616,36.20892],[-6.03468,36.20808],[-6.03131,36.20986],[-6.03015,36.21265],[-6.02294,36.21106],[-6.02039,36.21192],[-6.0188,36.21074],[-6.01576,36.21486],[-6.00813,36.21631],[-6.00094,36.21597],[-5.99791,36.21806],[-5.99514,36.21783],[-5.98839,36.22193],[-5.98315,36.22905],[-5.97478,36.23248],[-5.96342,36.2281],[-5.96022,36.22463],[-5.95518,36.22378],[-5.94896,36.22469],[-5.94675,36.21902],[-5.94057,36.21979],[-5.93826,36.22116],[-5.94574,36.22742],[-5.94368,36.22705],[-5.9413,36.23116],[-5.93734,36.23221],[-5.93434,36.23866],[-5.93262,36.23729],[-5.92868,36.23713],[-5.92828,36.24015],[-5.92415,36.24494],[-5.91773,36.24089],[-5.90355,36.23921],[-5.89533,36.23673],[-5.89071,36.23306],[-5.88869,36.24322],[-5.88383,36.24099],[-5.87244,36.23967],[-5.83019,36.2406],[-5.82083,36.23377],[-5.78632,36.21632],[-5.78228,36.22006],[-5.78949,36.2351],[-5.79197,36.25273],[-5.80811,36.27024],[-5.84109,36.3014],[-5.85526,36.31299],[-5.86487,36.32528],[-5.87658,36.335],[-5.88726,36.34204],[-5.9132,36.35419],[-5.93927,36.36024],[-5.97225,36.37279],[-5.98378,36.37595],[-5.99194,36.37445],[-5.99885,36.36981],[-6.002,36.35728],[-6.00068,36.35269],[-6.00456,36.34648],[-5.99595,36.3439],[-5.99459,36.34172],[-5.99571,36.34052],[-5.99264,36.33764],[-5.98922,36.32061],[-5.99522,36.31927],[-5.99615,36.31631],[-5.99892,36.31452],[-6.00072,36.31558],[-6.00206,36.31493],[-6.00488,36.31714],[-6.01034,36.31783],[-6.01285,36.31217],[-6.01791,36.31553],[-6.02079,36.3153],[-6.02685,36.31256],[-6.02763,36.30869],[-6.03631,36.30276],[-6.03874,36.30271],[-6.03886,36.29844],[-6.04084,36.2981],[-6.0462,36.29146],[-6.05076,36.28951],[-6.04973,36.28709],[-6.0526,36.2861],[-6.05426,36.2869],[-6.0544,36.28392],[-6.05604,36.28361],[-6.05069,36.25957],[-6.05778,36.25875],[-6.05655,36.25635],[-6.06062,36.25373],[-6.06035,36.25251],[-6.06342,36.25298],[-6.06644,36.25044],[-6.07338,36.25186],[-6.07212,36.25031],[-6.07444,36.24864],[-6.07598,36.24924],[-6.07732,36.24458],[-6.07914,36.24392]]]}},{"type":"Feature","properties":{"mun_code":"11026","mun_name":"Prado del Rey","mun_name_local":null,"prov_code":"11","prov_name":"Cádiz","acom_code":"01","acom_name":"Andalucía","geo_point_2d":{"lon":-5.54601579731447,"lat":36.78363410715162}},"geometry":{"type":"Polygon","coordinates":[[[-5.59999,36.76261],[-5.58021,36.75504],[-5.55789,36.73412],[-5.54432,36.7331],[-5.53411,36.7479],[-5.52946,36.75914],[-5.52612,36.776],[-5.5164,36.78692],[-5.50812,36.79233],[-5.50151,36.79478],[-5.50253,36.79913],[-5.50013,36.80276],[-5.50081,36.80532],[-5.51123,36.81889],[-5.51517,36.82829],[-5.5232,36.8359],[-5.53805,36.83191],[-5.54546,36.82775],[-5.54558,36.82613],[-5.54855,36.82646],[-5.55405,36.82376],[-5.55633,36.8206],[-5.55816,36.82052],[-5.55605,36.81891],[-5.55306,36.80974],[-5.55422,36.79491],[-5.55863,36.79177],[-5.56353,36.79387],[-5.56797,36.79134],[-5.56693,36.78877],[-5.5776,36.78992],[-5.58255,36.7872],[-5.59884,36.76343],[-5.59999,36.76261]]]}},{"type":"Feature","properties":{"mun_code":"11030","mun_name":"Rota","mun_name_local":null,"prov_code":"11","prov_name":"Cádiz","acom_code":"01","acom_name":"Andalucía","geo_point_2d":{"lon":-6.35537436754331,"lat":36.667826142950005}},"geometry":{"type":"Polygon","coordinates":[[[-6.42189,36.68882],[-6.41722,36.68381],[-6.4048,36.66276],[-6.39845,36.65837],[-6.39332,36.64468],[-6.39434,36.63438],[-6.38661,36.62798],[-6.36297,36.61868],[-6.35824,36.61529],[-6.35216,36.61371],[-6.35057,36.61458],[-6.35641,36.61537],[-6.35514,36.61701],[-6.35265,36.61536],[-6.35504,36.61716],[-6.35357,36.61825],[-6.35152,36.61512],[-6.35259,36.61842],[-6.35545,36.61925],[-6.35444,36.62159],[-6.34996,36.6245],[-6.34296,36.62605],[-6.33552,36.62462],[-6.33682,36.62097],[-6.32613,36.61039],[-6.33507,36.62116],[-6.33343,36.6223],[-6.33032,36.61958],[-6.3333,36.62237],[-6.33082,36.62406],[-6.33064,36.62292],[-6.32976,36.62451],[-6.32028,36.623],[-6.32305,36.62069],[-6.32442,36.6217],[-6.32202,36.61934],[-6.32297,36.62063],[-6.3183,36.62319],[-6.31576,36.62284],[-6.30877,36.61593],[-6.30712,36.61793],[-6.30388,36.61862],[-6.29826,36.61628],[-6.30663,36.63684],[-6.30108,36.64462],[-6.30073,36.64956],[-6.29695,36.65217],[-6.29689,36.65372],[-6.30423,36.65961],[-6.30889,36.65985],[-6.30917,36.66128],[-6.31137,36.66054],[-6.31269,36.66422],[-6.31496,36.66559],[-6.31314,36.6686],[-6.30752,36.66793],[-6.3067,36.67164],[-6.30809,36.67967],[-6.31366,36.68516],[-6.31382,36.69523],[-6.3175,36.69916],[-6.33139,36.70817],[-6.34351,36.71209],[-6.36134,36.72349],[-6.36858,36.72939],[-6.37035,36.7341],[-6.37913,36.71369],[-6.38924,36.70573],[-6.39565,36.69778],[-6.41093,36.69422],[-6.42021,36.68962],[-6.42189,36.68882]]]}},{"type":"Feature","properties":{"mun_code":"11035","mun_name":"Tarifa","mun_name_local":null,"prov_code":"11","prov_name":"Cádiz","acom_code":"01","acom_name":"Andalucía","geo_point_2d":{"lon":-5.683628893181537,"lat":36.12584834575663}},"geometry":{"type":"Polygon","coordinates":[[[-5.84171,36.1266],[-5.83197,36.11445],[-5.82507,36.10358],[-5.82575,36.10229],[-5.82217,36.10263],[-5.81839,36.10081],[-5.81184,36.09076],[-5.81307,36.08876],[-5.80642,36.08945],[-5.8002,36.08041],[-5.79653,36.07797],[-5.7919,36.07882],[-5.78757,36.08143],[-5.78355,36.0877],[-5.77634,36.08776],[-5.76641,36.08347],[-5.75015,36.07079],[-5.74451,36.07026],[-5.73778,36.0672],[-5.73119,36.06603],[-5.72576,36.06295],[-5.72392,36.06011],[-5.72247,36.06086],[-5.72015,36.05953],[-5.71653,36.06064],[-5.71148,36.05862],[-5.70873,36.05895],[-5.69967,36.06258],[-5.69533,36.06657],[-5.68929,36.06736],[-5.67057,36.05778],[-5.65993,36.05599],[-5.65025,36.05202],[-5.62978,36.03509],[-5.6123,36.01453],[-5.60839,36.00718],[-5.61265,36.00389],[-5.61028,36.00028],[-5.60626,36.00344],[-5.60915,36.00522],[-5.60744,36.0077],[-5.60268,36.00838],[-5.60519,36.00835],[-5.60562,36.0103],[-5.60444,36.00931],[-5.60413,36.01078],[-5.60192,36.01008],[-5.6014,36.00795],[-5.60349,36.00642],[-5.60106,36.00797],[-5.60106,36.01127],[-5.5996,36.01177],[-5.58794,36.01194],[-5.57419,36.01505],[-5.55342,36.02344],[-5.54485,36.02854],[-5.53951,36.03007],[-5.53842,36.03178],[-5.51692,36.0373],[-5.51412,36.04013],[-5.50355,36.0438],[-5.4989,36.0488],[-5.49502,36.05019],[-5.50674,36.06373],[-5.51261,36.06522],[-5.51076,36.06835],[-5.51992,36.08124],[-5.51869,36.0868],[-5.52204,36.09372],[-5.53576,36.10554],[-5.54356,36.10566],[-5.55073,36.10901],[-5.5613,36.11138],[-5.57566,36.11148],[-5.5903,36.11697],[-5.60051,36.12303],[-5.59863,36.1508],[-5.59736,36.1522],[-5.59869,36.15695],[-5.60282,36.15865],[-5.60811,36.1634],[-5.61002,36.16842],[-5.60724,36.17168],[-5.60692,36.17487],[-5.61801,36.182],[-5.62385,36.18305],[-5.62523,36.18773],[-5.62845,36.1918],[-5.63843,36.18969],[-5.64024,36.19321],[-5.6431,36.19351],[-5.65854,36.206],[-5.66042,36.206],[-5.67065,36.1975],[-5.68109,36.19711],[-5.68567,36.20207],[-5.68647,36.2062],[-5.69244,36.20947],[-5.69561,36.21478],[-5.70448,36.22245],[-5.73806,36.24586],[-5.74967,36.25716],[-5.76747,36.26477],[-5.79155,36.25205],[-5.78949,36.2351],[-5.78228,36.22006],[-5.79065,36.21229],[-5.80107,36.18978],[-5.81741,36.17471],[-5.82436,36.16497],[-5.83997,36.13417],[-5.84108,36.12925],[-5.84171,36.1266]]]}},{"type":"Feature","properties":{"mun_code":"11028","mun_name":"Puerto Real","mun_name_local":null,"prov_code":"11","prov_name":"Cádiz","acom_code":"01","acom_name":"Andalucía","geo_point_2d":{"lon":-6.111335311518421,"lat":36.523520478652216}},"geometry":{"type":"Polygon","coordinates":[[[-6.2329,36.52874],[-6.23261,36.5271],[-6.22912,36.52507],[-6.23553,36.52569],[-6.24102,36.52839],[-6.25614,36.52971],[-6.25909,36.5284],[-6.25578,36.5289],[-6.255,36.52554],[-6.25779,36.52516],[-6.25566,36.51995],[-6.24936,36.51823],[-6.24361,36.51844],[-6.24344,36.51694],[-6.25053,36.51568],[-6.24999,36.51402],[-6.2487,36.51414],[-6.25011,36.51342],[-6.24823,36.51343],[-6.24963,36.51269],[-6.24799,36.51159],[-6.24511,36.51284],[-6.24457,36.51207],[-6.24703,36.51103],[-6.24563,36.50896],[-6.2433,36.50948],[-6.24214,36.5063],[-6.24108,36.5071],[-6.23323,36.5037],[-6.21888,36.50998],[-6.2098,36.50897],[-6.20729,36.50998],[-6.20362,36.51633],[-6.19636,36.5221],[-6.19986,36.52377],[-6.1984,36.52532],[-6.20053,36.52873],[-6.19128,36.52529],[-6.19101,36.52399],[-6.19034,36.52551],[-6.18455,36.52518],[-6.17324,36.52141],[-6.17132,36.5122],[-6.17494,36.50905],[-6.18033,36.50797],[-6.17917,36.50033],[-6.17268,36.49846],[-6.16844,36.49316],[-6.1729,36.4893],[-6.17231,36.48661],[-6.17441,36.48341],[-6.17932,36.48093],[-6.17975,36.47434],[-6.18868,36.46522],[-6.18944,36.4624],[-6.18693,36.45977],[-6.17992,36.45953],[-6.17097,36.45552],[-6.16851,36.4565],[-6.16758,36.46236],[-6.16514,36.46573],[-6.15258,36.46778],[-6.14413,36.47179],[-6.14183,36.4688],[-6.1379,36.4703],[-6.12376,36.46606],[-6.1039,36.46366],[-6.07918,36.46825],[-6.07119,36.46856],[-6.06369,36.47393],[-6.04487,36.47975],[-6.02495,36.49158],[-6.01942,36.49286],[-5.99369,36.51089],[-5.98045,36.51841],[-5.98024,36.52151],[-5.99413,36.52825],[-5.99713,36.52856],[-5.99644,36.53869],[-5.99845,36.54199],[-5.9905,36.54447],[-5.98844,36.54655],[-5.99465,36.54982],[-6.00257,36.55932],[-6.00946,36.56195],[-6.01612,36.55232],[-6.02235,36.5495],[-6.0222,36.55072],[-6.02925,36.55313],[-6.03503,36.55749],[-6.035,36.55895],[-6.04192,36.56296],[-6.04597,36.56134],[-6.04922,36.56259],[-6.05455,36.55895],[-6.05746,36.55967],[-6.06092,36.55805],[-6.06816,36.56167],[-6.07001,36.56455],[-6.08029,36.56366],[-6.0852,36.56638],[-6.09104,36.56313],[-6.09684,36.56668],[-6.10092,36.56534],[-6.1165,36.57349],[-6.11762,36.57735],[-6.13232,36.5936],[-6.15294,36.6003],[-6.15303,36.59846],[-6.15736,36.59507],[-6.156,36.59183],[-6.15099,36.58785],[-6.15244,36.58495],[-6.15085,36.58226],[-6.15153,36.57868],[-6.15327,36.57823],[-6.15539,36.58084],[-6.15802,36.58077],[-6.16655,36.57159],[-6.1718,36.56913],[-6.16897,36.56666],[-6.16141,36.56693],[-6.16065,36.56434],[-6.16207,36.56164],[-6.16879,36.55938],[-6.17857,36.56227],[-6.18028,36.56416],[-6.17846,36.56936],[-6.1796,36.57073],[-6.1877,36.56668],[-6.19822,36.56358],[-6.19878,36.56573],[-6.19249,36.57103],[-6.18799,36.57778],[-6.19532,36.58116],[-6.20344,36.5792],[-6.20827,36.57681],[-6.21261,36.57218],[-6.20763,36.56381],[-6.2062,36.55763],[-6.20766,36.54781],[-6.21421,36.53406],[-6.2174,36.52986],[-6.22115,36.52777],[-6.2315,36.52839],[-6.2329,36.52874]]]}},{"type":"Feature","properties":{"mun_code":"11041","mun_name":"Villamartín","mun_name_local":null,"prov_code":"11","prov_name":"Cádiz","acom_code":"01","acom_name":"Andalucía","geo_point_2d":{"lon":-5.6165003344922395,"lat":36.87284905369441}},"geometry":{"type":"Polygon","coordinates":[[[-5.73631,36.91822],[-5.7052,36.90345],[-5.67412,36.88184],[-5.66273,36.866],[-5.66647,36.85967],[-5.66395,36.85614],[-5.66822,36.8537],[-5.66698,36.84998],[-5.66423,36.8481],[-5.65919,36.83054],[-5.64672,36.81349],[-5.6413,36.80244],[-5.64181,36.78844],[-5.62457,36.77948],[-5.59999,36.76261],[-5.58255,36.7872],[-5.5776,36.78992],[-5.56693,36.78877],[-5.56797,36.79134],[-5.56353,36.79387],[-5.55863,36.79177],[-5.5546,36.79437],[-5.5527,36.80715],[-5.55605,36.81891],[-5.55816,36.82052],[-5.55633,36.8206],[-5.55405,36.82376],[-5.54855,36.82646],[-5.54558,36.82613],[-5.54546,36.82775],[-5.53805,36.83191],[-5.5232,36.8359],[-5.52703,36.8409],[-5.5281,36.87468],[-5.5289,36.8783],[-5.53211,36.87993],[-5.53358,36.88377],[-5.53382,36.89345],[-5.56404,36.90763],[-5.57586,36.91116],[-5.5834,36.91509],[-5.58585,36.92146],[-5.58711,36.94701],[-5.59492,36.94467],[-5.60628,36.95079],[-5.60735,36.9447],[-5.61025,36.94142],[-5.61486,36.94255],[-5.61809,36.94016],[-5.62614,36.95444],[-5.63283,36.9506],[-5.64966,36.95432],[-5.6584,36.96717],[-5.66612,36.97574],[-5.66795,36.97595],[-5.69461,36.95678],[-5.69556,36.95314],[-5.69368,36.94577],[-5.69618,36.93528],[-5.70277,36.92797],[-5.7032,36.9256],[-5.71701,36.91952],[-5.72638,36.92156],[-5.73505,36.91867],[-5.73631,36.91822]]]}},{"type":"Feature","properties":{"mun_code":"11021","mun_name":"Jimena de la Frontera","mun_name_local":null,"prov_code":"11","prov_name":"Cádiz","acom_code":"01","acom_name":"Andalucía","geo_point_2d":{"lon":-5.473105287159526,"lat":36.438685062734855}},"geometry":{"type":"Polygon","coordinates":[[[-5.58057,36.36421],[-5.57402,36.3634],[-5.54076,36.36694],[-5.53659,36.36514],[-5.52747,36.36654],[-5.52498,36.36494],[-5.51891,36.36544],[-5.51529,36.3658],[-5.51138,36.36822],[-5.47648,36.3708],[-5.47398,36.37332],[-5.47111,36.37335],[-5.46286,36.37137],[-5.46267,36.37011],[-5.45606,36.36762],[-5.45387,36.36829],[-5.43807,36.36177],[-5.43309,36.36343],[-5.42682,36.36271],[-5.42475,36.36025],[-5.42599,36.35723],[-5.42234,36.35209],[-5.42019,36.35158],[-5.42059,36.34774],[-5.41903,36.34684],[-5.41477,36.34769],[-5.40628,36.34377],[-5.40797,36.35972],[-5.41419,36.3704],[-5.40818,36.37299],[-5.40772,36.37718],[-5.41617,36.3824],[-5.41161,36.38596],[-5.40666,36.38564],[-5.40414,36.38262],[-5.39462,36.37869],[-5.39414,36.37689],[-5.38882,36.37694],[-5.38796,36.37554],[-5.38311,36.37794],[-5.3798,36.37535],[-5.37974,36.37674],[-5.37851,36.37543],[-5.37324,36.37677],[-5.37399,36.37873],[-5.37189,36.38229],[-5.36951,36.38075],[-5.36526,36.38332],[-5.36463,36.38594],[-5.36632,36.38973],[-5.3619,36.39466],[-5.35904,36.39554],[-5.36,36.40442],[-5.35515,36.40436],[-5.35364,36.40019],[-5.34411,36.41229],[-5.34734,36.41883],[-5.35728,36.42384],[-5.35633,36.42639],[-5.35805,36.43226],[-5.35545,36.4338],[-5.36066,36.44002],[-5.37507,36.45429],[-5.39532,36.46931],[-5.39906,36.4844],[-5.4034,36.4903],[-5.40414,36.49462],[-5.40984,36.49655],[-5.40887,36.50054],[-5.4114,36.50431],[-5.41456,36.51815],[-5.4129,36.52034],[-5.42515,36.52492],[-5.4289,36.53359],[-5.43765,36.53435],[-5.44154,36.53645],[-5.44519,36.53627],[-5.45099,36.5386],[-5.45683,36.53842],[-5.46205,36.53651],[-5.46551,36.52871],[-5.47076,36.53601],[-5.47372,36.53715],[-5.49142,36.53722],[-5.49696,36.53002],[-5.50075,36.52756],[-5.5076,36.51782],[-5.50676,36.51642],[-5.51384,36.5107],[-5.5148,36.50139],[-5.51801,36.5016],[-5.52303,36.49845],[-5.53473,36.50346],[-5.53986,36.50284],[-5.55183,36.50446],[-5.5598,36.50372],[-5.55898,36.5015],[-5.56127,36.48697],[-5.57132,36.44101],[-5.57054,36.4397],[-5.57361,36.43799],[-5.57508,36.43452],[-5.57454,36.4316],[-5.57874,36.42285],[-5.58227,36.40895],[-5.58788,36.398],[-5.58992,36.389],[-5.58744,36.38206],[-5.58826,36.37717],[-5.58521,36.37394],[-5.58365,36.36926],[-5.58057,36.36421]]]}},{"type":"Feature","properties":{"mun_code":"11010","mun_name":"Bornos","mun_name_local":null,"prov_code":"11","prov_name":"Cádiz","acom_code":"01","acom_name":"Andalucía","geo_point_2d":{"lon":-5.71243828446801,"lat":36.8492896157621}},"geometry":{"type":"Polygon","coordinates":[[[-5.76109,36.83832],[-5.76068,36.83473],[-5.75567,36.833],[-5.76028,36.83105],[-5.75559,36.82091],[-5.75642,36.81824],[-5.74936,36.81492],[-5.74973,36.81224],[-5.74296,36.80503],[-5.74054,36.8056],[-5.73995,36.80794],[-5.73787,36.80886],[-5.73309,36.80656],[-5.73091,36.80265],[-5.72911,36.80417],[-5.72638,36.80338],[-5.72439,36.80596],[-5.72236,36.80457],[-5.71877,36.80495],[-5.7162,36.80874],[-5.71071,36.80593],[-5.70682,36.8086],[-5.70773,36.81273],[-5.70306,36.81224],[-5.70126,36.81362],[-5.70406,36.81652],[-5.70372,36.81797],[-5.69925,36.81758],[-5.69706,36.81871],[-5.69987,36.8211],[-5.6983,36.82551],[-5.69316,36.82593],[-5.68644,36.82992],[-5.68593,36.8333],[-5.68095,36.83283],[-5.68019,36.83735],[-5.67727,36.8374],[-5.67585,36.84018],[-5.67668,36.84466],[-5.66774,36.85079],[-5.66779,36.85472],[-5.66395,36.85614],[-5.66647,36.85967],[-5.66273,36.866],[-5.67412,36.88184],[-5.7052,36.90345],[-5.70932,36.89171],[-5.72376,36.88097],[-5.72839,36.8698],[-5.75561,36.85329],[-5.76084,36.83869],[-5.76109,36.83832]]]}},{"type":"Feature","properties":{"mun_code":"11009","mun_name":"Benaocaz","mun_name_local":null,"prov_code":"11","prov_name":"Cádiz","acom_code":"01","acom_name":"Andalucía","geo_point_2d":{"lon":-5.452534852826461,"lat":36.712378869628324}},"geometry":{"type":"Polygon","coordinates":[[[-5.5323,36.71134],[-5.54377,36.70829],[-5.53966,36.7052],[-5.53992,36.70356],[-5.53818,36.70226],[-5.53033,36.70095],[-5.52833,36.69701],[-5.52894,36.69393],[-5.52106,36.69576],[-5.51768,36.69778],[-5.49394,36.69919],[-5.4931,36.69662],[-5.4884,36.6925],[-5.48548,36.68239],[-5.48137,36.68082],[-5.47341,36.68021],[-5.47071,36.6844],[-5.46799,36.6841],[-5.46076,36.687],[-5.4551,36.6919],[-5.44426,36.69119],[-5.43718,36.69329],[-5.43934,36.68932],[-5.43631,36.68346],[-5.4315,36.68337],[-5.42383,36.68053],[-5.42226,36.6741],[-5.4105,36.66174],[-5.40888,36.66171],[-5.40712,36.65528],[-5.40501,36.65464],[-5.39657,36.66204],[-5.39473,36.66553],[-5.39764,36.67108],[-5.40703,36.67977],[-5.41206,36.68898],[-5.40891,36.69406],[-5.39483,36.70484],[-5.39623,36.70592],[-5.39585,36.70978],[-5.38847,36.71858],[-5.3894,36.72027],[-5.39221,36.72052],[-5.39259,36.72345],[-5.38833,36.72795],[-5.39374,36.73784],[-5.40308,36.73885],[-5.40776,36.74227],[-5.41309,36.74097],[-5.4124,36.74347],[-5.41964,36.74739],[-5.42546,36.7452],[-5.42832,36.73954],[-5.44712,36.73586],[-5.44808,36.74055],[-5.45427,36.74529],[-5.46189,36.74779],[-5.46604,36.74529],[-5.47656,36.75024],[-5.48189,36.75459],[-5.4851,36.75081],[-5.49155,36.74697],[-5.50044,36.73628],[-5.49823,36.72409],[-5.505,36.71967],[-5.51577,36.71936],[-5.51721,36.71633],[-5.52624,36.7144],[-5.52687,36.71248],[-5.53188,36.71065],[-5.5323,36.71134]]]}},{"type":"Feature","properties":{"mun_code":"11025","mun_name":"Paterna de Rivera","mun_name_local":null,"prov_code":"11","prov_name":"Cádiz","acom_code":"01","acom_name":"Andalucía","geo_point_2d":{"lon":-5.852640754558662,"lat":36.52211752639148}},"geometry":{"type":"Polygon","coordinates":[[[-5.89619,36.53596],[-5.88375,36.5256],[-5.86563,36.51711],[-5.85191,36.50532],[-5.83951,36.49689],[-5.82989,36.5112],[-5.83105,36.538],[-5.84229,36.5375],[-5.85124,36.53463],[-5.87899,36.53483],[-5.89619,36.53596]]]}},{"type":"Feature","properties":{"mun_code":"11016","mun_name":"Chipiona","mun_name_local":null,"prov_code":"11","prov_name":"Cádiz","acom_code":"01","acom_name":"Andalucía","geo_point_2d":{"lon":-6.406846648062909,"lat":36.72663440720981}},"geometry":{"type":"MultiPolygon","coordinates":[[[[-6.39656,36.76254],[-6.39925,36.76105],[-6.40959,36.76105],[-6.41331,36.75214],[-6.42016,36.74546],[-6.42605,36.74412],[-6.42664,36.74721],[-6.42854,36.74822],[-6.42777,36.7466],[-6.42985,36.74631],[-6.4282,36.74469],[-6.43011,36.74434],[-6.43175,36.74583],[-6.42848,36.74948],[-6.43515,36.74244],[-6.44263,36.73826],[-6.44316,36.73638],[-6.43978,36.72844],[-6.43994,36.72024],[-6.42189,36.68882],[-6.41093,36.69422],[-6.39565,36.69778],[-6.38924,36.70573],[-6.37913,36.71369],[-6.37439,36.72276],[-6.37035,36.7341],[-6.37391,36.74265],[-6.38049,36.75116],[-6.39331,36.75786],[-6.3952,36.7603],[-6.39656,36.76254]]],[[[-6.46955,36.73294],[-6.4685,36.73225],[-6.46809,36.73324],[-6.46916,36.73804],[-6.47207,36.73759],[-6.46968,36.73347],[-6.46955,36.73294]]]]}},{"type":"Feature","properties":{"mun_code":"11029","mun_name":"Puerto Serrano","mun_name_local":null,"prov_code":"11","prov_name":"Cádiz","acom_code":"01","acom_name":"Andalucía","geo_point_2d":{"lon":-5.4762547050644494,"lat":36.978937915612434}},"geometry":{"type":"Polygon","coordinates":[[[-5.55085,36.92312],[-5.53936,36.90699],[-5.53382,36.89345],[-5.53063,36.89852],[-5.52071,36.90615],[-5.51301,36.91476],[-5.50306,36.92033],[-5.48569,36.92595],[-5.46642,36.92711],[-5.4463,36.93312],[-5.44299,36.93529],[-5.43895,36.93529],[-5.44126,36.94396],[-5.44627,36.94644],[-5.44543,36.94968],[-5.44795,36.95419],[-5.44592,36.95667],[-5.45456,36.9612],[-5.45717,36.97414],[-5.46028,36.97514],[-5.45958,36.97851],[-5.45604,36.97815],[-5.45294,36.98241],[-5.44987,36.98264],[-5.44314,36.98693],[-5.44247,36.98986],[-5.43524,36.99112],[-5.427,36.99963],[-5.42599,37.0057],[-5.42011,37.01321],[-5.42143,37.02446],[-5.42704,37.03744],[-5.42774,37.04457],[-5.43305,37.05222],[-5.44187,37.0495],[-5.44791,37.05022],[-5.45898,37.04238],[-5.46269,37.04123],[-5.46485,37.04076],[-5.47311,37.04294],[-5.48875,37.03984],[-5.49688,37.0397],[-5.51099,37.0336],[-5.50354,37.02132],[-5.49769,37.01578],[-5.4953,37.01147],[-5.48723,37.00732],[-5.48364,37.00256],[-5.47304,36.99523],[-5.46917,36.98802],[-5.46973,36.98395],[-5.48143,36.97237],[-5.48981,36.97289],[-5.49343,36.97092],[-5.49888,36.96587],[-5.50234,36.95832],[-5.50898,36.95853],[-5.51389,36.95654],[-5.51528,36.95022],[-5.52061,36.94805],[-5.5204,36.94483],[-5.52479,36.93733],[-5.53275,36.93585],[-5.53319,36.93247],[-5.53577,36.92998],[-5.54612,36.93018],[-5.54841,36.92465],[-5.55085,36.92312]]]}},{"type":"Feature","properties":{"mun_code":"11015","mun_name":"Chiclana de la Frontera","mun_name_local":null,"prov_code":"11","prov_name":"Cádiz","acom_code":"01","acom_name":"Andalucía","geo_point_2d":{"lon":-6.109958082509127,"lat":36.399777541606156}},"geometry":{"type":"Polygon","coordinates":[[[-6.21132,36.38743],[-6.20085,36.37862],[-6.18973,36.37406],[-6.18221,36.36857],[-6.16812,36.34623],[-6.16246,36.33074],[-6.13682,36.34101],[-6.11544,36.34265],[-6.08636,36.34303],[-6.04949,36.34583],[-6.01786,36.34126],[-6.00456,36.34648],[-6.00068,36.35269],[-6.002,36.35728],[-5.99885,36.36981],[-5.9937,36.37284],[-5.99964,36.37731],[-6.02501,36.40423],[-6.03471,36.42279],[-6.04916,36.4357],[-6.05661,36.44841],[-6.07217,36.46141],[-6.07053,36.46447],[-6.07119,36.46856],[-6.07918,36.46825],[-6.1039,36.46366],[-6.12376,36.46606],[-6.1379,36.4703],[-6.14183,36.4688],[-6.14413,36.47179],[-6.15258,36.46778],[-6.16514,36.46573],[-6.16947,36.45569],[-6.17992,36.45953],[-6.18693,36.45977],[-6.18149,36.45342],[-6.17331,36.44729],[-6.18343,36.44267],[-6.18467,36.43978],[-6.18397,36.43621],[-6.18593,36.43436],[-6.1925,36.43623],[-6.19913,36.44123],[-6.20297,36.44069],[-6.20572,36.43781],[-6.212,36.42586],[-6.214,36.41738],[-6.2132,36.4099],[-6.20849,36.39993],[-6.21106,36.39401],[-6.21079,36.38851],[-6.21132,36.38743]]]}},{"type":"Feature","properties":{"mun_code":"11022","mun_name":"La Línea de la Concepción","mun_name_local":null,"prov_code":"11","prov_name":"Cádiz","acom_code":"01","acom_name":"Andalucía","geo_point_2d":{"lon":-5.341450110265244,"lat":36.20179941786472}},"geometry":{"type":"Polygon","coordinates":[[[-5.37085,36.16933],[-5.35901,36.1636],[-5.3579,36.16083],[-5.36129,36.15913],[-5.35658,36.16118],[-5.35594,36.16047],[-5.35895,36.1593],[-5.35854,36.15846],[-5.35508,36.15976],[-5.35299,36.15697],[-5.35448,36.15643],[-5.35589,36.15893],[-5.35531,36.15702],[-5.35827,36.15593],[-5.35812,36.15766],[-5.3596,36.15825],[-5.36034,36.15516],[-5.36507,36.15521],[-5.36753,36.15846],[-5.3651,36.15508],[-5.35196,36.15506],[-5.35162,36.15253],[-5.33885,36.15345],[-5.33575,36.17638],[-5.33298,36.18005],[-5.33586,36.17974],[-5.33527,36.18179],[-5.33176,36.17889],[-5.33387,36.18186],[-5.33173,36.18904],[-5.31736,36.22863],[-5.31073,36.2379],[-5.31223,36.24124],[-5.31598,36.24149],[-5.32405,36.24539],[-5.33094,36.24656],[-5.33529,36.24525],[-5.33857,36.24608],[-5.34588,36.23545],[-5.34606,36.22654],[-5.35077,36.22179],[-5.35634,36.21943],[-5.36096,36.21461],[-5.35904,36.2049],[-5.35918,36.17937],[-5.36298,36.17738],[-5.36668,36.17759],[-5.36535,36.17356],[-5.36954,36.17022],[-5.37085,36.16933]]]}},{"type":"Feature","properties":{"mun_code":"11005","mun_name":"Algodonales","mun_name_local":null,"prov_code":"11","prov_name":"Cádiz","acom_code":"01","acom_name":"Andalucía","geo_point_2d":{"lon":-5.4338194697126685,"lat":36.89112795989804}},"geometry":{"type":"Polygon","coordinates":[[[-5.53382,36.89345],[-5.53358,36.88377],[-5.53211,36.87993],[-5.5289,36.8783],[-5.52839,36.87059],[-5.52695,36.8689],[-5.52703,36.8409],[-5.5232,36.8359],[-5.51649,36.842],[-5.51759,36.85252],[-5.50998,36.85558],[-5.50366,36.85441],[-5.48756,36.85717],[-5.48446,36.85629],[-5.48166,36.85763],[-5.47363,36.85695],[-5.46395,36.85462],[-5.4581,36.85517],[-5.45233,36.85026],[-5.44405,36.85368],[-5.43365,36.85312],[-5.42586,36.85697],[-5.42283,36.86018],[-5.40726,36.85855],[-5.40556,36.85687],[-5.40164,36.85646],[-5.39939,36.85752],[-5.39608,36.85641],[-5.3935,36.85852],[-5.38825,36.8536],[-5.386,36.85363],[-5.38275,36.84976],[-5.37845,36.84907],[-5.37556,36.85467],[-5.36947,36.86117],[-5.35774,36.86707],[-5.34187,36.87229],[-5.31944,36.87354],[-5.30506,36.87639],[-5.31501,36.88456],[-5.32647,36.88934],[-5.34419,36.90056],[-5.34689,36.90105],[-5.35284,36.9115],[-5.36907,36.92216],[-5.37386,36.92353],[-5.37464,36.92584],[-5.37917,36.92528],[-5.38277,36.92632],[-5.38432,36.92919],[-5.40327,36.93972],[-5.42369,36.93902],[-5.43316,36.93566],[-5.44299,36.93529],[-5.4463,36.93312],[-5.46642,36.92711],[-5.48569,36.92595],[-5.49563,36.92321],[-5.51301,36.91476],[-5.52071,36.90615],[-5.53063,36.89852],[-5.53357,36.89373],[-5.53382,36.89345]]]}},{"type":"Feature","properties":{"mun_code":"11032","mun_name":"Sanlúcar de Barrameda","mun_name_local":null,"prov_code":"11","prov_name":"Cádiz","acom_code":"01","acom_name":"Andalucía","geo_point_2d":{"lon":-6.308462725905855,"lat":36.806525144184036}},"geometry":{"type":"Polygon","coordinates":[[[-6.39656,36.76254],[-6.39331,36.75786],[-6.3787,36.74933],[-6.37391,36.74265],[-6.36764,36.72837],[-6.34688,36.71402],[-6.34009,36.71056],[-6.33139,36.70817],[-6.32363,36.70286],[-6.31543,36.71102],[-6.31652,36.71282],[-6.30341,36.71869],[-6.30612,36.7216],[-6.30449,36.72889],[-6.29969,36.73769],[-6.29419,36.74276],[-6.29505,36.7509],[-6.28579,36.76562],[-6.28283,36.76486],[-6.28215,36.76784],[-6.27022,36.78217],[-6.27127,36.79118],[-6.25464,36.78775],[-6.24404,36.78817],[-6.23871,36.79232],[-6.23273,36.81091],[-6.22566,36.82033],[-6.22358,36.81967],[-6.21967,36.82109],[-6.21577,36.82543],[-6.20377,36.82921],[-6.21894,36.84929],[-6.24185,36.85215],[-6.25788,36.84601],[-6.26415,36.84735],[-6.28074,36.85694],[-6.28424,36.86195],[-6.28258,36.876],[-6.28383,36.88061],[-6.28951,36.88886],[-6.28965,36.89319],[-6.29905,36.90638],[-6.30142,36.90459],[-6.33391,36.89783],[-6.34118,36.89413],[-6.34587,36.88801],[-6.35356,36.85139],[-6.3529,36.82924],[-6.35181,36.82527],[-6.34354,36.81249],[-6.34238,36.80311],[-6.3455,36.79872],[-6.34226,36.79426],[-6.34417,36.79253],[-6.35409,36.78918],[-6.38819,36.76672],[-6.39623,36.76276],[-6.39656,36.76254]]]}},{"type":"Feature","properties":{"mun_code":"11007","mun_name":"Barbate","mun_name_local":null,"prov_code":"11","prov_name":"Cádiz","acom_code":"01","acom_name":"Andalucía","geo_point_2d":{"lon":-5.899396775046042,"lat":36.20032555548871}},"geometry":{"type":"MultiPolygon","coordinates":[[[[-6.009,36.18144],[-6.008,36.18148],[-6.00904,36.18161],[-6.009,36.18144]]],[[[-5.78632,36.21632],[-5.82083,36.23377],[-5.83019,36.2406],[-5.87244,36.23967],[-5.88383,36.24099],[-5.88869,36.24322],[-5.89071,36.23306],[-5.89533,36.23673],[-5.90355,36.23921],[-5.91773,36.24089],[-5.92415,36.24494],[-5.92828,36.24015],[-5.92868,36.23713],[-5.93262,36.23729],[-5.93434,36.23866],[-5.93734,36.23221],[-5.9413,36.23116],[-5.94368,36.22705],[-5.94574,36.22742],[-5.93826,36.22116],[-5.94057,36.21979],[-5.94675,36.21902],[-5.94896,36.22469],[-5.95518,36.22378],[-5.96022,36.22463],[-5.96342,36.2281],[-5.97478,36.23248],[-5.98315,36.22905],[-5.98839,36.22193],[-5.99514,36.21783],[-5.99791,36.21806],[-6.00094,36.21597],[-6.00813,36.21631],[-6.01576,36.21486],[-6.0188,36.21074],[-6.02039,36.21192],[-6.02294,36.21106],[-6.03015,36.21265],[-6.03131,36.20986],[-6.03468,36.20808],[-6.03616,36.20892],[-6.04029,36.20812],[-6.04294,36.20965],[-6.04406,36.2079],[-6.05164,36.20786],[-6.05457,36.2055],[-6.05186,36.20122],[-6.04936,36.19937],[-6.04696,36.19952],[-6.04048,36.19246],[-6.03601,36.1827],[-6.03388,36.18095],[-6.02997,36.18198],[-6.02698,36.1861],[-6.01979,36.18617],[-6.01502,36.1848],[-6.01047,36.18525],[-6.00617,36.18262],[-5.98089,36.1766],[-5.95863,36.18098],[-5.94472,36.18659],[-5.92549,36.17932],[-5.93254,36.18206],[-5.93259,36.18448],[-5.93309,36.18269],[-5.93357,36.18456],[-5.93521,36.18341],[-5.93482,36.18609],[-5.93233,36.18495],[-5.93222,36.18655],[-5.92672,36.18604],[-5.92702,36.18396],[-5.92979,36.18423],[-5.93025,36.1828],[-5.92765,36.18229],[-5.92616,36.18465],[-5.92297,36.18594],[-5.91529,36.18491],[-5.90729,36.18031],[-5.90837,36.17936],[-5.90685,36.1802],[-5.90085,36.17643],[-5.87329,36.15691],[-5.85256,36.1383],[-5.84171,36.1266],[-5.83997,36.13417],[-5.82436,36.16497],[-5.81741,36.17471],[-5.80107,36.18978],[-5.79065,36.21229],[-5.78632,36.21632]]]]}},{"type":"Feature","properties":{"mun_code":"11901","mun_name":"Benalup-Casas Viejas","mun_name_local":null,"prov_code":"11","prov_name":"Cádiz","acom_code":"01","acom_name":"Andalucía","geo_point_2d":{"lon":-5.7756591362540775,"lat":36.3317778534516}},"geometry":{"type":"Polygon","coordinates":[[[-5.79844,36.36687],[-5.80347,36.369],[-5.80502,36.37225],[-5.80864,36.37114],[-5.8104,36.37251],[-5.81282,36.3673],[-5.82822,36.36699],[-5.83701,36.36889],[-5.84333,36.35163],[-5.83508,36.3368],[-5.84075,36.33297],[-5.83999,36.32875],[-5.83535,36.32515],[-5.81866,36.32685],[-5.81084,36.33225],[-5.8028,36.32935],[-5.80437,36.32129],[-5.79854,36.30889],[-5.79903,36.30177],[-5.79722,36.29468],[-5.78948,36.29806],[-5.77613,36.29949],[-5.77474,36.30486],[-5.77078,36.30136],[-5.76642,36.30196],[-5.76235,36.30059],[-5.76154,36.29813],[-5.7588,36.29742],[-5.76048,36.29607],[-5.75776,36.2966],[-5.7581,36.29377],[-5.75344,36.29254],[-5.7525,36.29287],[-5.75416,36.29407],[-5.75697,36.29475],[-5.75615,36.29662],[-5.75312,36.29582],[-5.75208,36.29759],[-5.75582,36.29926],[-5.75656,36.30182],[-5.75536,36.30314],[-5.75228,36.30248],[-5.75044,36.30024],[-5.74543,36.30413],[-5.74366,36.30411],[-5.74257,36.30179],[-5.74124,36.30416],[-5.73506,36.30588],[-5.72961,36.30913],[-5.72638,36.30667],[-5.7223,36.30623],[-5.71965,36.30043],[-5.71745,36.29957],[-5.7121,36.30276],[-5.70565,36.30415],[-5.7056,36.30722],[-5.70761,36.30802],[-5.70622,36.31571],[-5.71134,36.32389],[-5.70897,36.33029],[-5.70976,36.33548],[-5.70657,36.33942],[-5.71775,36.34298],[-5.754,36.34641],[-5.77422,36.35682],[-5.77991,36.35277],[-5.7853,36.35508],[-5.78707,36.35182],[-5.78844,36.35493],[-5.78771,36.35798],[-5.79202,36.35656],[-5.79188,36.36071],[-5.79818,36.36678],[-5.79844,36.36687]]]}},{"type":"Feature","properties":{"mun_code":"11006","mun_name":"Arcos de la Frontera","mun_name_local":null,"prov_code":"11","prov_name":"Cádiz","acom_code":"01","acom_name":"Andalucía","geo_point_2d":{"lon":-5.754629468176751,"lat":36.74349532089478}},"geometry":{"type":"Polygon","coordinates":[[[-5.89105,36.84219],[-5.89101,36.83512],[-5.90356,36.82148],[-5.91247,36.80846],[-5.91609,36.7996],[-5.92248,36.79462],[-5.92101,36.79417],[-5.91993,36.78981],[-5.9196,36.77228],[-5.91789,36.76506],[-5.92126,36.7593],[-5.92441,36.74555],[-5.9412,36.73385],[-5.94278,36.72987],[-5.94604,36.72735],[-5.93542,36.71391],[-5.9352,36.70985],[-5.9273,36.69806],[-5.92037,36.69374],[-5.91775,36.68831],[-5.91498,36.68734],[-5.90254,36.67508],[-5.89461,36.67682],[-5.89253,36.67345],[-5.88969,36.67353],[-5.88008,36.67907],[-5.87843,36.67739],[-5.87296,36.67788],[-5.86708,36.67609],[-5.85987,36.67308],[-5.85757,36.67033],[-5.84686,36.66886],[-5.82985,36.6711],[-5.8129,36.6686],[-5.79054,36.66908],[-5.78457,36.66746],[-5.77901,36.66983],[-5.77391,36.66314],[-5.76849,36.66472],[-5.76481,36.6637],[-5.764,36.66091],[-5.76587,36.65818],[-5.76432,36.65357],[-5.76059,36.65344],[-5.75561,36.65552],[-5.75314,36.65832],[-5.75037,36.65868],[-5.74248,36.65642],[-5.74106,36.65173],[-5.73644,36.65102],[-5.73169,36.65223],[-5.72717,36.64674],[-5.72091,36.65143],[-5.71526,36.64989],[-5.71568,36.64762],[-5.71308,36.64453],[-5.71116,36.64552],[-5.70762,36.6523],[-5.71075,36.65485],[-5.70965,36.65647],[-5.70187,36.66131],[-5.69782,36.65808],[-5.69116,36.65715],[-5.68311,36.67187],[-5.67966,36.67477],[-5.67645,36.67542],[-5.6735,36.6811],[-5.66996,36.68185],[-5.66332,36.68011],[-5.65664,36.67644],[-5.62888,36.67773],[-5.61222,36.68228],[-5.60098,36.68759],[-5.58536,36.69059],[-5.57392,36.68396],[-5.55109,36.68002],[-5.54038,36.67042],[-5.53553,36.67468],[-5.53527,36.67791],[-5.5329,36.67838],[-5.53452,36.68853],[-5.52921,36.68963],[-5.53012,36.69237],[-5.52833,36.69701],[-5.53033,36.70095],[-5.53818,36.70226],[-5.53992,36.70356],[-5.53966,36.7052],[-5.54377,36.70829],[-5.5323,36.71134],[-5.53278,36.71424],[-5.53068,36.71468],[-5.53271,36.71659],[-5.53181,36.71804],[-5.53817,36.7228],[-5.54432,36.7331],[-5.55789,36.73412],[-5.58021,36.75504],[-5.59999,36.76261],[-5.62457,36.77948],[-5.64228,36.78883],[-5.6413,36.80244],[-5.64672,36.81349],[-5.65919,36.83054],[-5.66423,36.8481],[-5.6675,36.85158],[-5.67668,36.84466],[-5.67603,36.83956],[-5.67755,36.83719],[-5.68019,36.83735],[-5.68095,36.83283],[-5.68593,36.8333],[-5.68644,36.82992],[-5.69316,36.82593],[-5.6983,36.82551],[-5.69987,36.8211],[-5.69706,36.81871],[-5.69925,36.81758],[-5.70372,36.81797],[-5.70406,36.81652],[-5.70126,36.81362],[-5.70306,36.81224],[-5.70773,36.81273],[-5.70662,36.80914],[-5.70763,36.80764],[-5.71103,36.80594],[-5.71228,36.80761],[-5.7162,36.80874],[-5.71877,36.80495],[-5.72236,36.80457],[-5.72439,36.80596],[-5.72638,36.80338],[-5.72911,36.80417],[-5.73091,36.80265],[-5.73309,36.80656],[-5.73787,36.80886],[-5.73995,36.80794],[-5.74054,36.8056],[-5.74296,36.80503],[-5.74973,36.81224],[-5.74936,36.81492],[-5.75642,36.81824],[-5.75559,36.82091],[-5.76028,36.83105],[-5.75567,36.833],[-5.76068,36.83473],[-5.76109,36.83832],[-5.76377,36.83807],[-5.76392,36.83663],[-5.77733,36.83893],[-5.79468,36.82834],[-5.80753,36.82585],[-5.81672,36.83212],[-5.8277,36.82679],[-5.82739,36.83024],[-5.83054,36.83115],[-5.83487,36.83482],[-5.84588,36.83383],[-5.85108,36.83748],[-5.85869,36.83598],[-5.86629,36.8426],[-5.88096,36.84708],[-5.88883,36.84677],[-5.89035,36.84437],[-5.88879,36.8433],[-5.8906,36.84251],[-5.89105,36.84219]]]}},{"type":"Feature","properties":{"mun_code":"11008","mun_name":"Los Barrios","mun_name_local":null,"prov_code":"11","prov_name":"Cádiz","acom_code":"01","acom_name":"Andalucía","geo_point_2d":{"lon":-5.558883035096098,"lat":36.2206791684403}},"geometry":{"type":"Polygon","coordinates":[[[-5.69561,36.21478],[-5.69244,36.20947],[-5.68647,36.2062],[-5.68567,36.20207],[-5.68109,36.19711],[-5.67065,36.1975],[-5.66042,36.206],[-5.65854,36.206],[-5.6431,36.19351],[-5.64024,36.19321],[-5.63843,36.18969],[-5.62845,36.1918],[-5.62523,36.18773],[-5.62385,36.18305],[-5.61801,36.182],[-5.60692,36.17487],[-5.60724,36.17168],[-5.61002,36.16842],[-5.60811,36.1634],[-5.60282,36.15865],[-5.59869,36.15695],[-5.59736,36.1522],[-5.59863,36.1508],[-5.60051,36.12303],[-5.5903,36.11697],[-5.57566,36.11148],[-5.5613,36.11138],[-5.55975,36.11021],[-5.55173,36.10933],[-5.54468,36.11493],[-5.53925,36.12172],[-5.53638,36.13136],[-5.51949,36.12883],[-5.51387,36.13775],[-5.50573,36.14061],[-5.50023,36.14009],[-5.48999,36.1436],[-5.48818,36.15088],[-5.48623,36.15115],[-5.4861,36.15268],[-5.48113,36.15309],[-5.47701,36.15849],[-5.47636,36.16028],[-5.47953,36.16273],[-5.46861,36.16801],[-5.46346,36.16806],[-5.45999,36.16334],[-5.45539,36.16292],[-5.4498,36.16965],[-5.44292,36.17059],[-5.44226,36.17626],[-5.43012,36.17262],[-5.42507,36.17655],[-5.42391,36.17524],[-5.41998,36.17752],[-5.41816,36.1754],[-5.4194,36.17882],[-5.41671,36.17453],[-5.41985,36.17316],[-5.4162,36.17446],[-5.41729,36.17649],[-5.41416,36.17757],[-5.41745,36.18605],[-5.42476,36.1944],[-5.42548,36.19767],[-5.42362,36.20083],[-5.43187,36.20749],[-5.43596,36.21475],[-5.43573,36.21998],[-5.4392,36.22638],[-5.43838,36.23771],[-5.43674,36.23994],[-5.43853,36.24435],[-5.44539,36.24275],[-5.44958,36.24678],[-5.4547,36.24723],[-5.45775,36.25002],[-5.45965,36.25476],[-5.46735,36.25259],[-5.47553,36.25396],[-5.48201,36.26324],[-5.4873,36.26336],[-5.4894,36.26128],[-5.49228,36.26102],[-5.50383,36.26381],[-5.51684,36.26319],[-5.51901,36.27127],[-5.5225,36.27091],[-5.53567,36.27413],[-5.54042,36.27377],[-5.55363,36.27748],[-5.55574,36.27969],[-5.55661,36.28406],[-5.55402,36.28788],[-5.55471,36.29307],[-5.53818,36.30553],[-5.52822,36.31064],[-5.52767,36.31373],[-5.53419,36.31949],[-5.54128,36.31993],[-5.54647,36.33189],[-5.55112,36.33535],[-5.55361,36.33998],[-5.55901,36.34245],[-5.55981,36.34774],[-5.57099,36.35012],[-5.5734,36.35037],[-5.57375,36.34202],[-5.57738,36.34088],[-5.58349,36.33391],[-5.58915,36.33283],[-5.60559,36.3184],[-5.61625,36.31748],[-5.62656,36.30157],[-5.62722,36.29655],[-5.63738,36.29119],[-5.64049,36.28555],[-5.65023,36.2746],[-5.64586,36.26768],[-5.65215,36.25547],[-5.64963,36.25474],[-5.65385,36.25335],[-5.6557,36.24949],[-5.65855,36.25042],[-5.67001,36.24943],[-5.6845,36.24639],[-5.69504,36.24995],[-5.6993,36.25458],[-5.70739,36.24749],[-5.70097,36.23787],[-5.69851,36.23639],[-5.69452,36.22195],[-5.69517,36.21609],[-5.69561,36.21478]]]}},{"type":"Feature","properties":{"mun_code":"11031","mun_name":"San Fernando","mun_name_local":null,"prov_code":"11","prov_name":"Cádiz","acom_code":"01","acom_name":"Andalucía","geo_point_2d":{"lon":-6.2046889203709,"lat":36.453526849400866}},"geometry":{"type":"MultiPolygon","coordinates":[[[[-6.21634,36.38248],[-6.21488,36.38311],[-6.21557,36.38397],[-6.21588,36.38269],[-6.21634,36.38248]]],[[[-6.21999,36.38382],[-6.22064,36.38686],[-6.22025,36.38397],[-6.21999,36.38382]]],[[[-6.22071,36.37895],[-6.21903,36.38088],[-6.22089,36.38131],[-6.22542,36.39609],[-6.22072,36.37949],[-6.22071,36.37895]]],[[[-6.22149,36.38828],[-6.22106,36.38754],[-6.22159,36.38844],[-6.22149,36.38828]]],[[[-6.22668,36.4665],[-6.22569,36.46318],[-6.22899,36.45826],[-6.23039,36.44874],[-6.23844,36.44736],[-6.24261,36.44378],[-6.2344,36.43628],[-6.22296,36.41288],[-6.21817,36.39971],[-6.21875,36.39255],[-6.21132,36.38743],[-6.21106,36.39401],[-6.20849,36.39993],[-6.2132,36.4099],[-6.214,36.41738],[-6.212,36.42586],[-6.20572,36.43781],[-6.20297,36.44069],[-6.19913,36.44123],[-6.1925,36.43623],[-6.18593,36.43436],[-6.18397,36.43621],[-6.18467,36.43978],[-6.18343,36.44267],[-6.17331,36.44729],[-6.18149,36.45342],[-6.18944,36.4624],[-6.18868,36.46522],[-6.17975,36.47434],[-6.17932,36.48093],[-6.17441,36.48341],[-6.17231,36.48661],[-6.1729,36.4893],[-6.16844,36.49316],[-6.17268,36.49846],[-6.17911,36.50008],[-6.18016,36.50787],[-6.18616,36.50194],[-6.19261,36.49834],[-6.19073,36.49243],[-6.19367,36.48675],[-6.19983,36.48467],[-6.20113,36.4854],[-6.2069,36.48019],[-6.21307,36.48128],[-6.21126,36.47295],[-6.21255,36.47004],[-6.21966,36.46627],[-6.22588,36.4664],[-6.22668,36.4665]]]]}},{"type":"Feature","properties":{"mun_code":"11014","mun_name":"Conil de la Frontera","mun_name_local":null,"prov_code":"11","prov_name":"Cádiz","acom_code":"01","acom_name":"Andalucía","geo_point_2d":{"lon":-6.07807276087481,"lat":36.31141425028621}},"geometry":{"type":"Polygon","coordinates":[[[-6.16246,36.33074],[-6.15247,36.30886],[-6.14185,36.29541],[-6.13881,36.29514],[-6.13684,36.29276],[-6.13456,36.29253],[-6.13861,36.29556],[-6.13757,36.297],[-6.13576,36.2945],[-6.13103,36.29672],[-6.11873,36.29376],[-6.11599,36.29451],[-6.10276,36.28411],[-6.08865,36.26516],[-6.07914,36.24392],[-6.07653,36.24514],[-6.07598,36.24924],[-6.07444,36.24864],[-6.07212,36.25031],[-6.07338,36.25186],[-6.06644,36.25044],[-6.06342,36.25298],[-6.06035,36.25251],[-6.06062,36.25373],[-6.05655,36.25635],[-6.05778,36.25875],[-6.05069,36.25957],[-6.05604,36.28361],[-6.0544,36.28392],[-6.05426,36.2869],[-6.0526,36.2861],[-6.04973,36.28709],[-6.05076,36.28951],[-6.0462,36.29146],[-6.04084,36.2981],[-6.03886,36.29844],[-6.03874,36.30271],[-6.03631,36.30276],[-6.02763,36.30869],[-6.02685,36.31256],[-6.02079,36.3153],[-6.01791,36.31553],[-6.01285,36.31217],[-6.01034,36.31783],[-6.00488,36.31714],[-6.00206,36.31493],[-6.00072,36.31558],[-5.99892,36.31452],[-5.99615,36.31631],[-5.99522,36.31927],[-5.98922,36.32061],[-5.99264,36.33764],[-5.99571,36.34052],[-5.99459,36.34172],[-5.99595,36.3439],[-6.00456,36.34648],[-6.01786,36.34126],[-6.04949,36.34583],[-6.13682,36.34101],[-6.16135,36.3312],[-6.16246,36.33074]]]}},{"type":"Feature","properties":{"mun_code":"11042","mun_name":"Zahara","mun_name_local":null,"prov_code":"11","prov_name":"Cádiz","acom_code":"01","acom_name":"Andalucía","geo_point_2d":{"lon":-5.4449157087376046,"lat":36.82988046180908}},"geometry":{"type":"Polygon","coordinates":[[[-5.5232,36.8359],[-5.51517,36.82829],[-5.51123,36.81889],[-5.50081,36.80532],[-5.50013,36.80276],[-5.50253,36.79913],[-5.50151,36.79478],[-5.4862,36.79811],[-5.46023,36.80637],[-5.44356,36.80356],[-5.4252,36.80351],[-5.40734,36.80358],[-5.38653,36.80651],[-5.37319,36.81132],[-5.37432,36.82076],[-5.3712,36.82658],[-5.36483,36.83129],[-5.36646,36.83925],[-5.37019,36.84025],[-5.37371,36.84458],[-5.37759,36.84525],[-5.38159,36.84777],[-5.38562,36.8533],[-5.38825,36.8536],[-5.39317,36.85841],[-5.39608,36.85641],[-5.39939,36.85752],[-5.40164,36.85646],[-5.40556,36.85687],[-5.40726,36.85855],[-5.42283,36.86018],[-5.42586,36.85697],[-5.43365,36.85312],[-5.44405,36.85368],[-5.45233,36.85026],[-5.4581,36.85517],[-5.46395,36.85462],[-5.47363,36.85695],[-5.48166,36.85763],[-5.48446,36.85629],[-5.48756,36.85717],[-5.50366,36.85441],[-5.50998,36.85558],[-5.51759,36.85252],[-5.51649,36.842],[-5.52105,36.83896],[-5.5232,36.8359]]]}},{"type":"Feature","properties":{"mun_code":"11017","mun_name":"Espera","mun_name_local":null,"prov_code":"11","prov_name":"Cádiz","acom_code":"01","acom_name":"Andalucía","geo_point_2d":{"lon":-5.80165533179749,"lat":36.8785367817409}},"geometry":{"type":"Polygon","coordinates":[[[-5.88883,36.84677],[-5.88096,36.84708],[-5.86629,36.8426],[-5.85869,36.83598],[-5.85108,36.83748],[-5.84588,36.83383],[-5.83487,36.83482],[-5.83054,36.83115],[-5.82739,36.83024],[-5.8277,36.82679],[-5.81672,36.83212],[-5.80753,36.82585],[-5.79514,36.82817],[-5.77733,36.83893],[-5.76392,36.83663],[-5.76377,36.83807],[-5.76109,36.83832],[-5.75946,36.8403],[-5.75532,36.85356],[-5.7466,36.85946],[-5.73291,36.86607],[-5.72839,36.8698],[-5.72376,36.88097],[-5.70932,36.89171],[-5.7052,36.90345],[-5.71404,36.90672],[-5.72377,36.91289],[-5.73234,36.91568],[-5.74402,36.92294],[-5.763,36.92572],[-5.77001,36.92567],[-5.77411,36.92425],[-5.78695,36.92585],[-5.79822,36.92435],[-5.80498,36.92546],[-5.82889,36.91579],[-5.83726,36.91438],[-5.84551,36.91521],[-5.85991,36.89997],[-5.86672,36.89518],[-5.87033,36.89355],[-5.87652,36.89471],[-5.89358,36.85158],[-5.88957,36.84736],[-5.88883,36.84677]]]}},{"type":"Feature","properties":{"mun_code":"11002","mun_name":"Alcalá del Valle","mun_name_local":null,"prov_code":"11","prov_name":"Cádiz","acom_code":"01","acom_name":"Andalucía","geo_point_2d":{"lon":-5.14957776185746,"lat":36.921575010793646}},"geometry":{"type":"Polygon","coordinates":[[[-5.20062,36.92841],[-5.19648,36.91924],[-5.19666,36.90234],[-5.19431,36.89405],[-5.19024,36.88935],[-5.18608,36.88697],[-5.16571,36.88562],[-5.15725,36.88948],[-5.14775,36.89582],[-5.14716,36.89797],[-5.14304,36.89817],[-5.13896,36.9011],[-5.13417,36.90157],[-5.12889,36.9059],[-5.11664,36.90764],[-5.11383,36.90989],[-5.11604,36.91391],[-5.1154,36.91694],[-5.11375,36.91704],[-5.10859,36.91109],[-5.09178,36.92104],[-5.09803,36.92864],[-5.10557,36.95484],[-5.11012,36.95933],[-5.11674,36.95814],[-5.11869,36.95417],[-5.12417,36.95126],[-5.13229,36.94942],[-5.13506,36.95001],[-5.13719,36.95238],[-5.14042,36.95028],[-5.14005,36.94734],[-5.14306,36.94612],[-5.14854,36.95035],[-5.15316,36.94459],[-5.16169,36.94624],[-5.16295,36.94367],[-5.16718,36.94205],[-5.17285,36.94073],[-5.17802,36.94189],[-5.18741,36.93519],[-5.19994,36.92879],[-5.20062,36.92841]]]}},{"type":"Feature","properties":{"mun_code":"11024","mun_name":"Olvera","mun_name_local":null,"prov_code":"11","prov_name":"Cádiz","acom_code":"01","acom_name":"Andalucía","geo_point_2d":{"lon":-5.281786147030208,"lat":36.95088275570686}},"geometry":{"type":"Polygon","coordinates":[[[-5.41366,36.93979],[-5.40327,36.93972],[-5.38432,36.92919],[-5.38277,36.92632],[-5.37917,36.92528],[-5.37464,36.92584],[-5.37386,36.92353],[-5.36907,36.92216],[-5.35284,36.9115],[-5.35053,36.90561],[-5.34926,36.90554],[-5.34667,36.9009],[-5.34419,36.90056],[-5.32647,36.88934],[-5.31168,36.8821],[-5.30434,36.87565],[-5.30158,36.86964],[-5.30035,36.8697],[-5.27797,36.87825],[-5.26978,36.88422],[-5.26448,36.88976],[-5.26386,36.89385],[-5.25838,36.89569],[-5.25885,36.89805],[-5.25562,36.8996],[-5.2522,36.91686],[-5.24969,36.92084],[-5.24406,36.92472],[-5.23067,36.92908],[-5.22437,36.9333],[-5.21806,36.93562],[-5.21482,36.93544],[-5.20722,36.92887],[-5.20062,36.92841],[-5.18741,36.93519],[-5.17802,36.94189],[-5.17285,36.94073],[-5.16718,36.94205],[-5.16295,36.94367],[-5.16169,36.94624],[-5.15316,36.94459],[-5.14854,36.95035],[-5.14306,36.94612],[-5.14005,36.94734],[-5.14042,36.95028],[-5.13719,36.95238],[-5.13506,36.95001],[-5.13229,36.94942],[-5.1225,36.9517],[-5.11869,36.95417],[-5.11674,36.95814],[-5.11012,36.95933],[-5.10462,36.96406],[-5.1009,36.96395],[-5.09558,36.9683],[-5.09906,36.97234],[-5.10779,36.97402],[-5.10923,36.97578],[-5.11234,36.97629],[-5.11236,36.98107],[-5.11048,36.98188],[-5.1124,36.98349],[-5.11074,36.98395],[-5.11515,36.98896],[-5.11837,36.98849],[-5.12331,36.9906],[-5.12749,36.99569],[-5.14238,37.00386],[-5.148,36.99708],[-5.1584,36.98932],[-5.16264,36.98142],[-5.17322,36.97786],[-5.18122,36.97191],[-5.18981,36.96973],[-5.19166,36.96641],[-5.19693,36.96461],[-5.20251,36.96446],[-5.20604,36.96264],[-5.21577,36.95185],[-5.21984,36.95089],[-5.22522,36.9423],[-5.23502,36.94118],[-5.25674,36.96404],[-5.26219,36.97307],[-5.26239,36.97578],[-5.26828,36.97843],[-5.27403,36.99057],[-5.28588,37.00064],[-5.29369,37.01036],[-5.30022,37.01374],[-5.30203,37.01923],[-5.30211,37.03736],[-5.3375,37.01174],[-5.33965,37.00456],[-5.34514,36.99754],[-5.34998,36.99682],[-5.3524,36.994],[-5.35596,36.99432],[-5.35968,36.99249],[-5.36098,36.98501],[-5.3653,36.98566],[-5.37314,36.98178],[-5.37409,36.98233],[-5.37593,36.98],[-5.38272,36.97908],[-5.39239,36.97328],[-5.40097,36.96273],[-5.41336,36.95402],[-5.41317,36.9512],[-5.4168,36.94535],[-5.41382,36.94167],[-5.41366,36.93979]]]}},{"type":"Feature","properties":{"mun_code":"11034","mun_name":"Setenil de las Bodegas","mun_name_local":null,"prov_code":"11","prov_name":"Cádiz","acom_code":"01","acom_name":"Andalucía","geo_point_2d":{"lon":-5.1762232948520825,"lat":36.87133041768616}},"geometry":{"type":"Polygon","coordinates":[[[-5.26978,36.88422],[-5.2663,36.87533],[-5.24981,36.86569],[-5.24542,36.8647],[-5.24403,36.86277],[-5.23109,36.86117],[-5.22564,36.85678],[-5.22213,36.85021],[-5.22201,36.84272],[-5.1995,36.83765],[-5.19232,36.83373],[-5.18666,36.82797],[-5.17932,36.82863],[-5.17493,36.82469],[-5.1704,36.82355],[-5.16333,36.82638],[-5.15526,36.83173],[-5.14871,36.83306],[-5.14176,36.83683],[-5.13329,36.8391],[-5.1205,36.85884],[-5.11727,36.87028],[-5.11248,36.87383],[-5.11221,36.88178],[-5.10983,36.8894],[-5.10259,36.89174],[-5.10259,36.89556],[-5.10508,36.89794],[-5.09968,36.90085],[-5.09362,36.90075],[-5.08677,36.90509],[-5.09293,36.91169],[-5.09178,36.92104],[-5.10859,36.91109],[-5.11426,36.9174],[-5.11625,36.91506],[-5.11383,36.90989],[-5.11664,36.90764],[-5.12889,36.9059],[-5.13417,36.90157],[-5.13896,36.9011],[-5.14304,36.89817],[-5.14716,36.89797],[-5.14775,36.89582],[-5.16513,36.88585],[-5.18608,36.88697],[-5.19024,36.88935],[-5.19431,36.89405],[-5.19666,36.90234],[-5.19648,36.91924],[-5.20062,36.92841],[-5.20459,36.92401],[-5.20507,36.91564],[-5.21007,36.90358],[-5.2161,36.89604],[-5.22477,36.89247],[-5.2474,36.89193],[-5.26791,36.88425],[-5.26978,36.88422]]]}},{"type":"Feature","properties":{"mun_code":"11003","mun_name":"Algar","mun_name_local":null,"prov_code":"11","prov_name":"Cádiz","acom_code":"01","acom_name":"Andalucía","geo_point_2d":{"lon":-5.644744904720508,"lat":36.65514017705396}},"geometry":{"type":"Polygon","coordinates":[[[-5.69116,36.65715],[-5.68767,36.65571],[-5.68239,36.64662],[-5.6805,36.6478],[-5.68125,36.65097],[-5.67745,36.65258],[-5.67361,36.65109],[-5.67152,36.64672],[-5.66923,36.64688],[-5.67284,36.64279],[-5.66363,36.63619],[-5.66045,36.63643],[-5.65838,36.63199],[-5.65905,36.62992],[-5.65314,36.62682],[-5.65264,36.62401],[-5.64126,36.62614],[-5.63983,36.62738],[-5.64118,36.6292],[-5.63838,36.62988],[-5.63407,36.63371],[-5.63318,36.63913],[-5.63097,36.64123],[-5.62843,36.6413],[-5.62076,36.63636],[-5.61397,36.63904],[-5.61885,36.64367],[-5.61473,36.65121],[-5.60576,36.66135],[-5.61015,36.66491],[-5.61144,36.6684],[-5.60706,36.67467],[-5.60314,36.67654],[-5.59948,36.68506],[-5.59192,36.6895],[-5.60098,36.68759],[-5.61812,36.68065],[-5.61822,36.67556],[-5.64175,36.66567],[-5.64437,36.66676],[-5.65156,36.6654],[-5.65244,36.66707],[-5.66296,36.66751],[-5.67482,36.67944],[-5.67645,36.67542],[-5.67966,36.67477],[-5.68311,36.67187],[-5.68363,36.6692],[-5.68603,36.66813],[-5.68524,36.66657],[-5.69038,36.65857],[-5.69116,36.65715]]]}},{"type":"Feature","properties":{"mun_code":"11033","mun_name":"San Roque","mun_name_local":null,"prov_code":"11","prov_name":"Cádiz","acom_code":"01","acom_name":"Andalucía","geo_point_2d":{"lon":-5.351229960129107,"lat":36.258869491527285}},"geometry":{"type":"MultiPolygon","coordinates":[[[[-5.2945,36.2454],[-5.29309,36.2455],[-5.29503,36.24527],[-5.2945,36.2454]]],[[[-5.35524,36.32341],[-5.35362,36.31718],[-5.36072,36.31037],[-5.35924,36.3046],[-5.36053,36.30273],[-5.35943,36.29334],[-5.36628,36.2845],[-5.36932,36.28252],[-5.38528,36.2808],[-5.40322,36.267],[-5.41134,36.25006],[-5.42552,36.24844],[-5.43672,36.24082],[-5.43848,36.23689],[-5.4392,36.22638],[-5.43573,36.21998],[-5.43596,36.21475],[-5.43187,36.20749],[-5.42362,36.20083],[-5.42548,36.19767],[-5.42476,36.1944],[-5.41803,36.18697],[-5.41494,36.18019],[-5.40956,36.18142],[-5.40307,36.17995],[-5.39872,36.18052],[-5.39818,36.17718],[-5.40314,36.17606],[-5.39383,36.17745],[-5.39803,36.17716],[-5.39828,36.1787],[-5.39706,36.17891],[-5.39827,36.17878],[-5.3984,36.18061],[-5.39191,36.18092],[-5.39218,36.17926],[-5.39181,36.18093],[-5.38864,36.1804],[-5.38886,36.17901],[-5.3878,36.18028],[-5.38296,36.17926],[-5.38146,36.17769],[-5.38244,36.17685],[-5.38101,36.17746],[-5.37997,36.17534],[-5.38348,36.17443],[-5.38182,36.17439],[-5.38128,36.17208],[-5.37762,36.17241],[-5.37709,36.17056],[-5.38201,36.1694],[-5.37551,36.16589],[-5.37654,36.16528],[-5.37432,36.16378],[-5.37118,36.16644],[-5.37165,36.16884],[-5.36535,36.17356],[-5.36668,36.17759],[-5.36298,36.17738],[-5.35918,36.17937],[-5.35904,36.2049],[-5.36096,36.21461],[-5.35634,36.21943],[-5.35077,36.22179],[-5.34606,36.22654],[-5.34588,36.23545],[-5.33857,36.24608],[-5.33529,36.24525],[-5.33094,36.24656],[-5.32405,36.24539],[-5.31598,36.24149],[-5.31223,36.24124],[-5.31069,36.23831],[-5.30538,36.24386],[-5.2989,36.2439],[-5.29452,36.249],[-5.27993,36.28029],[-5.27736,36.28357],[-5.27498,36.28286],[-5.27601,36.28348],[-5.27475,36.28594],[-5.2708,36.2884],[-5.27567,36.28874],[-5.28034,36.28598],[-5.2808,36.28757],[-5.28312,36.28841],[-5.28127,36.28919],[-5.28024,36.2872],[-5.27841,36.28716],[-5.27397,36.29181],[-5.27498,36.28926],[-5.2734,36.29144],[-5.27283,36.28947],[-5.27279,36.29083],[-5.27218,36.28938],[-5.27217,36.29084],[-5.27173,36.28938],[-5.27172,36.29084],[-5.26976,36.29023],[-5.26967,36.28591],[-5.26939,36.29174],[-5.27124,36.29285],[-5.26905,36.29911],[-5.26527,36.30109],[-5.25713,36.31015],[-5.25235,36.31122],[-5.2595,36.32236],[-5.26785,36.32418],[-5.27075,36.32898],[-5.2755,36.33281],[-5.27586,36.33594],[-5.28246,36.33773],[-5.29131,36.33679],[-5.32008,36.32507],[-5.32921,36.32506],[-5.33308,36.33066],[-5.33512,36.32715],[-5.34041,36.32845],[-5.35066,36.32234],[-5.355,36.32219],[-5.35524,36.32341]]]]}},{"type":"Feature","properties":{"mun_code":"11004","mun_name":"Algeciras","mun_name_local":null,"prov_code":"11","prov_name":"Cádiz","acom_code":"01","acom_name":"Andalucía","geo_point_2d":{"lon":-5.478297941083328,"lat":36.10719551422052}},"geometry":{"type":"MultiPolygon","coordinates":[[[[-5.43094,36.17262],[-5.44226,36.17626],[-5.44292,36.17059],[-5.4498,36.16965],[-5.4549,36.16302],[-5.45933,36.16294],[-5.46278,36.16763],[-5.46573,36.16851],[-5.4781,36.164],[-5.47953,36.16246],[-5.47636,36.16028],[-5.47701,36.15849],[-5.48113,36.15309],[-5.4861,36.15268],[-5.48623,36.15115],[-5.48818,36.15088],[-5.48955,36.1439],[-5.50023,36.14009],[-5.50573,36.14061],[-5.51387,36.13775],[-5.51949,36.12883],[-5.53638,36.13136],[-5.53925,36.12172],[-5.54468,36.11493],[-5.55173,36.10933],[-5.54356,36.10566],[-5.53576,36.10554],[-5.5313,36.10084],[-5.52447,36.09662],[-5.51879,36.08726],[-5.51992,36.08124],[-5.51076,36.06835],[-5.51261,36.06522],[-5.50674,36.06373],[-5.49502,36.05019],[-5.48505,36.05463],[-5.47148,36.05066],[-5.46459,36.05028],[-5.45853,36.05403],[-5.44877,36.05706],[-5.44725,36.05816],[-5.44852,36.05965],[-5.44749,36.06175],[-5.44471,36.06178],[-5.44335,36.0651],[-5.43656,36.06913],[-5.43164,36.07018],[-5.42961,36.0723],[-5.42976,36.07074],[-5.42911,36.07474],[-5.42543,36.0773],[-5.42656,36.08299],[-5.43576,36.08615],[-5.44097,36.08611],[-5.44355,36.09161],[-5.44019,36.10286],[-5.43567,36.10617],[-5.43163,36.10515],[-5.43116,36.10604],[-5.43223,36.10937],[-5.43538,36.1097],[-5.43766,36.11243],[-5.43513,36.11857],[-5.43569,36.1173],[-5.43782,36.11724],[-5.43791,36.11898],[-5.43806,36.1177],[-5.4425,36.11792],[-5.44155,36.12129],[-5.43705,36.12135],[-5.43602,36.12271],[-5.43471,36.12181],[-5.43685,36.11899],[-5.43489,36.12048],[-5.4223,36.11992],[-5.42283,36.13282],[-5.43008,36.13332],[-5.43003,36.14363],[-5.42793,36.14755],[-5.43021,36.14362],[-5.43193,36.12801],[-5.44109,36.12665],[-5.44243,36.12792],[-5.43629,36.13096],[-5.43746,36.13041],[-5.43713,36.13184],[-5.4388,36.13188],[-5.43774,36.13254],[-5.43962,36.13278],[-5.43619,36.13489],[-5.43556,36.14833],[-5.44089,36.14873],[-5.44173,36.14757],[-5.44186,36.13711],[-5.44283,36.13111],[-5.44425,36.1305],[-5.44344,36.13763],[-5.44724,36.13871],[-5.44322,36.15785],[-5.43102,36.17232],[-5.43094,36.17262]]]]}},{"type":"Feature","properties":{"mun_code":"11036","mun_name":"Torre Alháquime","mun_name_local":null,"prov_code":"11","prov_name":"Cádiz","acom_code":"01","acom_name":"Andalucía","geo_point_2d":{"lon":-5.231478435278807,"lat":36.91053503438873}},"geometry":{"type":"Polygon","coordinates":[[[-5.26978,36.88422],[-5.26554,36.8847],[-5.2474,36.89193],[-5.22477,36.89247],[-5.2161,36.89604],[-5.21007,36.90358],[-5.20507,36.91564],[-5.20459,36.92401],[-5.20062,36.92841],[-5.20722,36.92887],[-5.21482,36.93544],[-5.21806,36.93562],[-5.22437,36.9333],[-5.23067,36.92908],[-5.24489,36.92427],[-5.24969,36.92084],[-5.2522,36.91686],[-5.25562,36.8996],[-5.25885,36.89805],[-5.25838,36.89569],[-5.26386,36.89385],[-5.26448,36.88976],[-5.26851,36.88571],[-5.26978,36.88422]]]}},{"type":"Feature","properties":{"mun_code":"11037","mun_name":"Trebujena","mun_name_local":null,"prov_code":"11","prov_name":"Cádiz","acom_code":"01","acom_name":"Andalucía","geo_point_2d":{"lon":-6.2156444489403855,"lat":36.87071571657061}},"geometry":{"type":"Polygon","coordinates":[[[-6.29905,36.90638],[-6.28965,36.89319],[-6.28951,36.88886],[-6.28383,36.88061],[-6.28258,36.876],[-6.28424,36.86195],[-6.28074,36.85694],[-6.26415,36.84735],[-6.25788,36.84601],[-6.24185,36.85215],[-6.21894,36.84929],[-6.20377,36.82921],[-6.20014,36.83063],[-6.20068,36.8322],[-6.19546,36.83608],[-6.18769,36.83779],[-6.15491,36.8524],[-6.13364,36.85223],[-6.12199,36.86379],[-6.1305,36.86979],[-6.1432,36.87623],[-6.1555,36.88538],[-6.18368,36.89153],[-6.18716,36.89359],[-6.20869,36.89343],[-6.22919,36.89595],[-6.23099,36.89811],[-6.24301,36.89442],[-6.25379,36.89391],[-6.26282,36.89784],[-6.27672,36.91052],[-6.29408,36.90573],[-6.29905,36.90638]]]}},{"type":"Feature","properties":{"mun_code":"11013","mun_name":"Castellar de la Frontera","mun_name_local":null,"prov_code":"11","prov_name":"Cádiz","acom_code":"01","acom_name":"Andalucía","geo_point_2d":{"lon":-5.464744439621784,"lat":36.31154767761461}},"geometry":{"type":"Polygon","coordinates":[[[-5.58057,36.36421],[-5.58207,36.36249],[-5.58138,36.35938],[-5.57678,36.35139],[-5.55981,36.34774],[-5.55901,36.34245],[-5.55361,36.33998],[-5.55112,36.33535],[-5.54647,36.33189],[-5.54128,36.31993],[-5.53419,36.31949],[-5.52767,36.31373],[-5.52822,36.31064],[-5.53818,36.30553],[-5.55471,36.29307],[-5.55402,36.28788],[-5.55661,36.28406],[-5.55674,36.28109],[-5.55363,36.27748],[-5.54042,36.27377],[-5.53567,36.27413],[-5.5225,36.27091],[-5.51901,36.27127],[-5.51684,36.26319],[-5.50383,36.26381],[-5.49228,36.26102],[-5.4894,36.26128],[-5.4873,36.26336],[-5.48201,36.26324],[-5.47553,36.25396],[-5.46735,36.25259],[-5.45965,36.25476],[-5.45775,36.25002],[-5.4547,36.24723],[-5.44958,36.24678],[-5.44539,36.24275],[-5.43853,36.24435],[-5.43672,36.24082],[-5.42552,36.24844],[-5.41134,36.25006],[-5.40322,36.267],[-5.38528,36.2808],[-5.36713,36.28365],[-5.35943,36.29334],[-5.36053,36.30273],[-5.35924,36.3046],[-5.36072,36.31037],[-5.35362,36.31718],[-5.35524,36.32341],[-5.35869,36.32363],[-5.36452,36.32674],[-5.36676,36.33225],[-5.37765,36.32943],[-5.38223,36.33078],[-5.38437,36.33314],[-5.38896,36.33053],[-5.39194,36.33172],[-5.40251,36.33892],[-5.40643,36.34396],[-5.41477,36.34769],[-5.41903,36.34684],[-5.42059,36.34774],[-5.42019,36.35158],[-5.42234,36.35209],[-5.42599,36.35723],[-5.42475,36.36025],[-5.42682,36.36271],[-5.43309,36.36343],[-5.43807,36.36177],[-5.45387,36.36829],[-5.45606,36.36762],[-5.46036,36.36908],[-5.46589,36.37239],[-5.47252,36.37336],[-5.47648,36.3708],[-5.51138,36.36822],[-5.51529,36.3658],[-5.51891,36.36544],[-5.52498,36.36494],[-5.52747,36.36654],[-5.53659,36.36514],[-5.54076,36.36694],[-5.57402,36.3634],[-5.57981,36.36415],[-5.58057,36.36421]]]}},{"type":"Feature","properties":{"mun_code":"11903","mun_name":"San Martín del Tesorillo","mun_name_local":null,"prov_code":"11","prov_name":"Cádiz","acom_code":"01","acom_name":"Andalucía","geo_point_2d":{"lon":-5.363160996787776,"lat":36.35897400194983}},"geometry":{"type":"Polygon","coordinates":[[[-5.40628,36.34377],[-5.39855,36.33558],[-5.38976,36.33054],[-5.3849,36.33319],[-5.37831,36.32944],[-5.36676,36.33225],[-5.36452,36.32674],[-5.35869,36.32363],[-5.35582,36.32377],[-5.355,36.32219],[-5.35066,36.32234],[-5.34041,36.32845],[-5.33512,36.32715],[-5.33308,36.33066],[-5.32921,36.32506],[-5.32008,36.32507],[-5.323,36.33217],[-5.31551,36.34085],[-5.31516,36.34334],[-5.32131,36.3465],[-5.32625,36.35804],[-5.33512,36.37052],[-5.33403,36.37884],[-5.33653,36.38344],[-5.33497,36.39488],[-5.33821,36.3978],[-5.34411,36.41229],[-5.35364,36.40019],[-5.35515,36.40436],[-5.36,36.40442],[-5.35904,36.39554],[-5.3619,36.39466],[-5.36632,36.38973],[-5.36463,36.38594],[-5.36526,36.38332],[-5.36951,36.38075],[-5.37189,36.38229],[-5.37411,36.37615],[-5.37851,36.37543],[-5.37974,36.37674],[-5.3798,36.37535],[-5.38311,36.37794],[-5.38796,36.37554],[-5.38882,36.37694],[-5.39414,36.37689],[-5.39462,36.37869],[-5.40414,36.38262],[-5.40602,36.38545],[-5.40938,36.38607],[-5.41161,36.38596],[-5.41617,36.3824],[-5.40772,36.37718],[-5.40818,36.37299],[-5.41419,36.3704],[-5.40797,36.35972],[-5.40622,36.34421],[-5.40628,36.34377]]]}},{"type":"Feature","properties":{"mun_code":"11023","mun_name":"Medina Sidonia","mun_name_local":null,"prov_code":"11","prov_name":"Cádiz","acom_code":"01","acom_name":"Andalucía","geo_point_2d":{"lon":-5.867386364108877,"lat":36.396721651748344}},"geometry":{"type":"Polygon","coordinates":[[[-6.07119,36.46856],[-6.07053,36.46447],[-6.07217,36.46141],[-6.05661,36.44841],[-6.04916,36.4357],[-6.03471,36.42279],[-6.02501,36.40423],[-5.99822,36.37598],[-5.9937,36.37284],[-5.99194,36.37445],[-5.98378,36.37595],[-5.97581,36.37403],[-5.93927,36.36024],[-5.92243,36.35555],[-5.91526,36.35495],[-5.88726,36.34204],[-5.86487,36.32528],[-5.85526,36.31299],[-5.84109,36.3014],[-5.80811,36.27024],[-5.79155,36.25205],[-5.76747,36.26477],[-5.74967,36.25716],[-5.73806,36.24586],[-5.70448,36.22245],[-5.69561,36.21478],[-5.69452,36.22195],[-5.69801,36.23504],[-5.70739,36.24749],[-5.6993,36.25458],[-5.69504,36.24995],[-5.6845,36.24639],[-5.67001,36.24943],[-5.65855,36.25042],[-5.6557,36.24949],[-5.65385,36.25335],[-5.64963,36.25474],[-5.65215,36.25547],[-5.64568,36.26881],[-5.64758,36.26942],[-5.65023,36.2746],[-5.64049,36.28555],[-5.63738,36.29119],[-5.62722,36.29655],[-5.62656,36.30157],[-5.61625,36.31748],[-5.62941,36.32282],[-5.63729,36.32434],[-5.64783,36.33193],[-5.66031,36.33132],[-5.66451,36.33276],[-5.68143,36.33119],[-5.68538,36.33391],[-5.70657,36.33942],[-5.70976,36.33548],[-5.70897,36.33029],[-5.71134,36.32389],[-5.70622,36.31571],[-5.70761,36.30802],[-5.7056,36.30722],[-5.70565,36.30415],[-5.7121,36.30276],[-5.71745,36.29957],[-5.71965,36.30043],[-5.7223,36.30623],[-5.72638,36.30667],[-5.72961,36.30913],[-5.73506,36.30588],[-5.74124,36.30416],[-5.74257,36.30179],[-5.74366,36.30411],[-5.74543,36.30413],[-5.75044,36.30024],[-5.75228,36.30248],[-5.75536,36.30314],[-5.75656,36.30182],[-5.75582,36.29926],[-5.75208,36.29759],[-5.75312,36.29582],[-5.75615,36.29662],[-5.75697,36.29475],[-5.75416,36.29407],[-5.7525,36.29287],[-5.75344,36.29254],[-5.7581,36.29377],[-5.75776,36.2966],[-5.76048,36.29607],[-5.7588,36.29742],[-5.76154,36.29813],[-5.76235,36.30059],[-5.76642,36.30196],[-5.77078,36.30136],[-5.77474,36.30486],[-5.77613,36.29949],[-5.78948,36.29806],[-5.79722,36.29468],[-5.79903,36.30177],[-5.79854,36.30889],[-5.80437,36.32129],[-5.8028,36.32935],[-5.80379,36.32985],[-5.81084,36.33225],[-5.81866,36.32685],[-5.83451,36.32481],[-5.83911,36.32767],[-5.84075,36.33297],[-5.83508,36.3368],[-5.84333,36.35163],[-5.83701,36.36889],[-5.82822,36.36699],[-5.81282,36.3673],[-5.8104,36.37251],[-5.80864,36.37114],[-5.80502,36.37225],[-5.80347,36.369],[-5.79844,36.36687],[-5.79982,36.36957],[-5.79321,36.37518],[-5.79607,36.38081],[-5.79284,36.38353],[-5.79291,36.38511],[-5.79111,36.38523],[-5.79438,36.38665],[-5.78967,36.38927],[-5.78974,36.39312],[-5.79359,36.39407],[-5.79433,36.39592],[-5.7921,36.39708],[-5.79365,36.39895],[-5.79186,36.40032],[-5.79453,36.40089],[-5.79553,36.4025],[-5.79612,36.40405],[-5.79472,36.40523],[-5.79827,36.41326],[-5.80226,36.41567],[-5.80302,36.41877],[-5.8053,36.41878],[-5.80893,36.42222],[-5.80579,36.42733],[-5.80829,36.44148],[-5.82039,36.48049],[-5.8242,36.48499],[-5.85191,36.50532],[-5.86563,36.51711],[-5.88375,36.5256],[-5.89619,36.53596],[-5.91783,36.52934],[-5.95048,36.52594],[-5.97698,36.52027],[-5.99369,36.51089],[-6.01942,36.49286],[-6.02495,36.49158],[-6.04487,36.47975],[-6.06369,36.47393],[-6.07119,36.46856]]]}}]}