{"type":"FeatureCollection","features":[{"type":"Feature","properties":{"mun_code":"20023","mun_name":"Berrobi","mun_name_local":null,"prov_code":"20","prov_name":"Gipuzkoa","acom_code":"16","acom_name":"País Vasco","geo_point_2d":{"lon":-2.0258154378855275,"lat":43.145844341091795}},"geometry":{"type":"Polygon","coordinates":[[[-2.03734,43.14456],[-2.03637,43.14211],[-2.03406,43.14202],[-2.03369,43.13849],[-2.03251,43.13933],[-2.02506,43.13393],[-2.01886,43.13526],[-2.02149,43.14641],[-2.01723,43.14859],[-2.01152,43.15699],[-2.02358,43.15506],[-2.03313,43.15166],[-2.03832,43.14841],[-2.03748,43.14617],[-2.03734,43.14456]]]}},{"type":"Feature","properties":{"mun_code":"20067","mun_name":"Errenteria","mun_name_local":null,"prov_code":"20","prov_name":"Gipuzkoa","acom_code":"16","acom_name":"País Vasco","geo_point_2d":{"lon":-1.8885107965989345,"lat":43.26438442381383}},"geometry":{"type":"Polygon","coordinates":[[[-1.92628,43.30157],[-1.93177,43.29762],[-1.91681,43.28763],[-1.91263,43.28141],[-1.91574,43.2746],[-1.91912,43.27355],[-1.91603,43.27182],[-1.91725,43.26827],[-1.91328,43.26806],[-1.91271,43.26335],[-1.90774,43.26548],[-1.89793,43.2665],[-1.89388,43.25859],[-1.89643,43.25337],[-1.89308,43.25006],[-1.89238,43.24431],[-1.89877,43.24187],[-1.9004,43.23659],[-1.89893,43.22937],[-1.89093,43.22625],[-1.89071,43.22279],[-1.88788,43.21998],[-1.89489,43.21784],[-1.89992,43.2208],[-1.90786,43.22168],[-1.90994,43.22302],[-1.91092,43.22178],[-1.90338,43.21892],[-1.9037,43.21774],[-1.90823,43.21682],[-1.9045,43.21471],[-1.90326,43.21131],[-1.89542,43.20957],[-1.89227,43.21031],[-1.89042,43.20727],[-1.88833,43.21165],[-1.88952,43.2139],[-1.88724,43.21462],[-1.88349,43.21107],[-1.88361,43.20846],[-1.88173,43.20682],[-1.88172,43.21214],[-1.87537,43.21026],[-1.87472,43.21218],[-1.87775,43.21381],[-1.87539,43.21589],[-1.87585,43.21743],[-1.87977,43.2147],[-1.87895,43.21725],[-1.88066,43.21826],[-1.875,43.2183],[-1.87387,43.22031],[-1.88055,43.22056],[-1.87747,43.22327],[-1.88001,43.22518],[-1.87785,43.22738],[-1.88093,43.22878],[-1.87667,43.2319],[-1.87212,43.23075],[-1.86595,43.23205],[-1.8605,43.23779],[-1.84925,43.24451],[-1.85085,43.24967],[-1.84932,43.26387],[-1.85676,43.26446],[-1.8596,43.26879],[-1.89203,43.28332],[-1.89214,43.28675],[-1.89563,43.28848],[-1.89454,43.28964],[-1.89729,43.29345],[-1.88757,43.30391],[-1.88531,43.3032],[-1.88617,43.30588],[-1.88249,43.30701],[-1.88216,43.31009],[-1.88931,43.31222],[-1.89045,43.31111],[-1.89784,43.31582],[-1.90339,43.31699],[-1.90159,43.31997],[-1.90322,43.323],[-1.90844,43.32223],[-1.90989,43.31996],[-1.91356,43.31994],[-1.91597,43.31637],[-1.91415,43.31386],[-1.91684,43.30532],[-1.91372,43.2971],[-1.91537,43.29381],[-1.92292,43.29937],[-1.92628,43.30157]]]}},{"type":"Feature","properties":{"mun_code":"20074","mun_name":"Bergara","mun_name_local":null,"prov_code":"20","prov_name":"Gipuzkoa","acom_code":"16","acom_name":"País Vasco","geo_point_2d":{"lon":-2.4288932557985285,"lat":43.124687123508124}},"geometry":{"type":"Polygon","coordinates":[[[-2.50181,43.095],[-2.49594,43.09224],[-2.48472,43.09497],[-2.47753,43.09435],[-2.47391,43.09259],[-2.47005,43.08556],[-2.46506,43.08041],[-2.46499,43.07805],[-2.46198,43.07556],[-2.46095,43.07702],[-2.45439,43.07827],[-2.45176,43.08028],[-2.44887,43.07992],[-2.44675,43.08223],[-2.44716,43.08038],[-2.43744,43.07902],[-2.43162,43.07575],[-2.42299,43.07671],[-2.41429,43.07305],[-2.40623,43.07749],[-2.40831,43.08927],[-2.40329,43.09832],[-2.40454,43.10075],[-2.40377,43.10691],[-2.40066,43.10873],[-2.40293,43.11222],[-2.39664,43.11822],[-2.39262,43.11883],[-2.3884,43.12493],[-2.37791,43.12757],[-2.36952,43.12695],[-2.36508,43.12413],[-2.35911,43.12346],[-2.35004,43.12679],[-2.35163,43.13291],[-2.3592,43.13284],[-2.35824,43.1384],[-2.36518,43.14217],[-2.36621,43.14865],[-2.36206,43.15213],[-2.36475,43.15795],[-2.36112,43.16549],[-2.36531,43.16993],[-2.36438,43.17355],[-2.36739,43.17668],[-2.37345,43.17585],[-2.3766,43.16968],[-2.38246,43.16688],[-2.39253,43.16445],[-2.39565,43.16198],[-2.39947,43.1618],[-2.40008,43.16337],[-2.40631,43.16201],[-2.41374,43.16502],[-2.4176,43.16329],[-2.42073,43.16379],[-2.42423,43.16726],[-2.42583,43.16613],[-2.43005,43.16743],[-2.43266,43.16557],[-2.43656,43.16619],[-2.43538,43.16812],[-2.45175,43.1704],[-2.46014,43.16298],[-2.45948,43.15704],[-2.45723,43.15569],[-2.45597,43.15128],[-2.46436,43.14116],[-2.46618,43.14082],[-2.46396,43.13507],[-2.47287,43.12193],[-2.49622,43.12341],[-2.50134,43.11874],[-2.50516,43.09707],[-2.50114,43.09654],[-2.50181,43.095]]]}},{"type":"Feature","properties":{"mun_code":"20006","mun_name":"Alkiza","mun_name_local":null,"prov_code":"20","prov_name":"Gipuzkoa","acom_code":"16","acom_name":"País Vasco","geo_point_2d":{"lon":-2.114150571586837,"lat":43.17035870261634}},"geometry":{"type":"Polygon","coordinates":[[[-2.14754,43.17351],[-2.14064,43.16372],[-2.13582,43.15953],[-2.13235,43.15746],[-2.11945,43.15551],[-2.11189,43.15844],[-2.10405,43.15801],[-2.09015,43.16139],[-2.08488,43.16912],[-2.08643,43.17216],[-2.08421,43.17765],[-2.08703,43.17845],[-2.08272,43.18398],[-2.08859,43.18621],[-2.0952,43.18169],[-2.10368,43.18082],[-2.11743,43.18279],[-2.12921,43.18154],[-2.14248,43.17769],[-2.14494,43.17537],[-2.14754,43.17351]]]}},{"type":"Feature","properties":{"mun_code":"20005","mun_name":"Alegia","mun_name_local":null,"prov_code":"20","prov_name":"Gipuzkoa","acom_code":"16","acom_name":"País Vasco","geo_point_2d":{"lon":-2.09920522858807,"lat":43.09917992653882}},"geometry":{"type":"Polygon","coordinates":[[[-2.11509,43.09532],[-2.11252,43.0932],[-2.1099,43.09305],[-2.10591,43.09611],[-2.10348,43.096],[-2.1062,43.09204],[-2.10425,43.0904],[-2.10141,43.09239],[-2.09465,43.08905],[-2.08967,43.08469],[-2.08913,43.08133],[-2.08608,43.08184],[-2.06801,43.07811],[-2.07118,43.0882],[-2.08181,43.09109],[-2.08311,43.08996],[-2.08754,43.09454],[-2.08834,43.09832],[-2.09528,43.10221],[-2.09396,43.1051],[-2.09576,43.1114],[-2.08961,43.11214],[-2.09554,43.11363],[-2.10185,43.11282],[-2.10534,43.11675],[-2.10853,43.11727],[-2.12328,43.11471],[-2.12297,43.10873],[-2.11718,43.10153],[-2.11836,43.10127],[-2.11743,43.09895],[-2.11317,43.09635],[-2.11509,43.09532]]]}},{"type":"Feature","properties":{"mun_code":"20076","mun_name":"Ordizia","mun_name_local":null,"prov_code":"20","prov_name":"Gipuzkoa","acom_code":"16","acom_name":"País Vasco","geo_point_2d":{"lon":-2.1812449984026974,"lat":43.059080103514816}},"geometry":{"type":"Polygon","coordinates":[[[-2.20611,43.08425],[-2.2044,43.08043],[-2.19319,43.07503],[-2.19097,43.07226],[-2.19053,43.06],[-2.18826,43.05807],[-2.1848,43.044],[-2.17791,43.0426],[-2.17439,43.03853],[-2.17139,43.03953],[-2.16714,43.04386],[-2.16598,43.04791],[-2.16168,43.05066],[-2.16297,43.05317],[-2.17105,43.05672],[-2.16963,43.05949],[-2.17229,43.06213],[-2.17533,43.0603],[-2.17855,43.06139],[-2.18193,43.06814],[-2.18246,43.07314],[-2.18859,43.07951],[-2.20552,43.08421],[-2.20611,43.08425]]]}},{"type":"Feature","properties":{"mun_code":"20020","mun_name":"Beizama","mun_name_local":null,"prov_code":"20","prov_name":"Gipuzkoa","acom_code":"16","acom_name":"País Vasco","geo_point_2d":{"lon":-2.2033770325446604,"lat":43.126360733133886}},"geometry":{"type":"Polygon","coordinates":[[[-2.22718,43.11448],[-2.22014,43.11321],[-2.20823,43.10576],[-2.19922,43.10231],[-2.19604,43.10592],[-2.18966,43.1031],[-2.18249,43.10421],[-2.18301,43.10754],[-2.17806,43.11206],[-2.17963,43.11324],[-2.1788,43.11751],[-2.17542,43.11951],[-2.18232,43.13192],[-2.18858,43.13659],[-2.18978,43.14021],[-2.18784,43.14396],[-2.19717,43.15121],[-2.20887,43.15068],[-2.22049,43.14404],[-2.22626,43.13895],[-2.23333,43.13663],[-2.2312,43.13114],[-2.22488,43.12694],[-2.22639,43.12386],[-2.22486,43.12325],[-2.22687,43.12247],[-2.22551,43.11856],[-2.22849,43.11578],[-2.22683,43.11501],[-2.22718,43.11448]]]}},{"type":"Feature","properties":{"mun_code":"20026","mun_name":"Zerain","mun_name_local":null,"prov_code":"20","prov_name":"Gipuzkoa","acom_code":"16","acom_name":"País Vasco","geo_point_2d":{"lon":-2.2923750974609516,"lat":43.0101048218562}},"geometry":{"type":"Polygon","coordinates":[[[-2.31515,43.02233],[-2.31891,43.01596],[-2.31366,42.99674],[-2.30302,42.99772],[-2.29063,42.99655],[-2.28619,42.99443],[-2.28233,42.9962],[-2.27904,43.0053],[-2.2706,43.00606],[-2.26614,43.00777],[-2.26291,43.00691],[-2.25785,43.01018],[-2.25961,43.01256],[-2.25724,43.016],[-2.25832,43.01771],[-2.27038,43.0191],[-2.28337,43.0172],[-2.28896,43.01887],[-2.29784,43.02431],[-2.30748,43.02203],[-2.31366,43.02262],[-2.31515,43.02233]]]}},{"type":"Feature","properties":{"mun_code":"20054","mun_name":"Lizartza","mun_name_local":null,"prov_code":"20","prov_name":"Gipuzkoa","acom_code":"16","acom_name":"País Vasco","geo_point_2d":{"lon":-2.0308680701377333,"lat":43.09389284704598}},"geometry":{"type":"MultiPolygon","coordinates":[[[[-1.98528,43.08919],[-1.98698,43.08556],[-1.993,43.08424],[-1.99325,43.08162],[-1.98845,43.07844],[-1.98371,43.08048],[-1.98431,43.08252],[-1.98133,43.08563],[-1.98232,43.08692],[-1.98528,43.08919]]],[[[-1.97314,43.08461],[-1.97095,43.087],[-1.97336,43.09157],[-1.97524,43.0913],[-1.97518,43.08681],[-1.97314,43.08461]]],[[[-2.05731,43.11456],[-2.05942,43.11279],[-2.05665,43.11079],[-2.05263,43.09494],[-2.04911,43.08783],[-2.04103,43.08062],[-2.0403,43.07636],[-2.0307,43.07338],[-2.02451,43.07609],[-2.02314,43.07539],[-2.02153,43.07784],[-2.02348,43.07868],[-2.02224,43.08089],[-2.01997,43.08087],[-2.01627,43.07498],[-2.01236,43.07309],[-2.00987,43.07346],[-2.01177,43.07915],[-2.00957,43.0815],[-2.00393,43.08282],[-2.01273,43.08513],[-2.01272,43.09026],[-2.0218,43.09813],[-2.01755,43.10225],[-2.01346,43.10364],[-2.0227,43.10462],[-2.02882,43.10986],[-2.03403,43.10913],[-2.03218,43.11201],[-2.03803,43.11469],[-2.04138,43.11384],[-2.04467,43.11582],[-2.05062,43.11445],[-2.05486,43.11606],[-2.05534,43.11416],[-2.05717,43.11432],[-2.05731,43.11456]]],[[[-2.00449,43.10426],[-2.01133,43.10399],[-2.00433,43.10152],[-2.00449,43.10426]]]]}},{"type":"Feature","properties":{"mun_code":"20903","mun_name":"Astigarraga","mun_name_local":null,"prov_code":"20","prov_name":"Gipuzkoa","acom_code":"16","acom_name":"País Vasco","geo_point_2d":{"lon":-1.9337208425205266,"lat":43.27772290947249}},"geometry":{"type":"Polygon","coordinates":[[[-1.95773,43.27699],[-1.95903,43.27366],[-1.95035,43.26709],[-1.94251,43.26796],[-1.94088,43.26665],[-1.93867,43.26235],[-1.93977,43.26013],[-1.93792,43.25285],[-1.93338,43.25365],[-1.93214,43.25552],[-1.92694,43.25677],[-1.92609,43.25847],[-1.92092,43.25902],[-1.91293,43.26351],[-1.91328,43.26806],[-1.91711,43.26811],[-1.91769,43.27006],[-1.91603,43.27182],[-1.91912,43.27355],[-1.91574,43.2746],[-1.91263,43.28141],[-1.91681,43.28763],[-1.93177,43.29762],[-1.92628,43.30157],[-1.93017,43.30333],[-1.93212,43.30333],[-1.93321,43.30163],[-1.94033,43.30306],[-1.94223,43.30199],[-1.94236,43.29969],[-1.94443,43.29846],[-1.94275,43.29441],[-1.94016,43.29256],[-1.94274,43.28992],[-1.94892,43.28783],[-1.94982,43.28608],[-1.95222,43.28615],[-1.95656,43.27852],[-1.95773,43.27699]]]}},{"type":"Feature","properties":{"mun_code":"20047","mun_name":"Itsasondo","mun_name_local":null,"prov_code":"20","prov_name":"Gipuzkoa","acom_code":"16","acom_name":"País Vasco","geo_point_2d":{"lon":-2.1809171707431743,"lat":43.082232385064984}},"geometry":{"type":"Polygon","coordinates":[[[-2.20611,43.08425],[-2.18859,43.07951],[-2.18246,43.07314],[-2.18193,43.06814],[-2.17731,43.06056],[-2.17414,43.0607],[-2.17235,43.06372],[-2.1671,43.06392],[-2.16504,43.06613],[-2.162,43.06511],[-2.15805,43.06785],[-2.15713,43.07645],[-2.15841,43.07748],[-2.16345,43.07685],[-2.16501,43.07825],[-2.16797,43.08405],[-2.1683,43.09025],[-2.18006,43.09752],[-2.19026,43.09876],[-2.19922,43.10231],[-2.20258,43.09051],[-2.207,43.08773],[-2.20638,43.08461],[-2.20611,43.08425]]]}},{"type":"Feature","properties":{"mun_code":"20036","mun_name":"Hondarribia","mun_name_local":null,"prov_code":"20","prov_name":"Gipuzkoa","acom_code":"16","acom_name":"País Vasco","geo_point_2d":{"lon":-1.8253340610400561,"lat":43.361583214116884}},"geometry":{"type":"Polygon","coordinates":[[[-1.78933,43.35334],[-1.78183,43.35927],[-1.77901,43.36341],[-1.78575,43.36624],[-1.79017,43.3698],[-1.79128,43.37382],[-1.78777,43.37919],[-1.78877,43.38055],[-1.7919,43.3781],[-1.79695,43.38249],[-1.79034,43.38858],[-1.78935,43.38542],[-1.7879,43.38619],[-1.78982,43.38884],[-1.78893,43.39096],[-1.79094,43.39167],[-1.789,43.39304],[-1.79224,43.39371],[-1.79106,43.39591],[-1.80176,43.39073],[-1.80319,43.38825],[-1.80402,43.38925],[-1.80537,43.38797],[-1.80554,43.38936],[-1.81408,43.38775],[-1.82184,43.38334],[-1.82234,43.38554],[-1.82481,43.38425],[-1.83191,43.38408],[-1.84001,43.3811],[-1.842,43.37927],[-1.84123,43.37843],[-1.84543,43.37636],[-1.84866,43.3779],[-1.84887,43.37969],[-1.85454,43.37458],[-1.85732,43.37561],[-1.85927,43.37467],[-1.86141,43.37015],[-1.86502,43.37232],[-1.87091,43.36882],[-1.84943,43.3301],[-1.83663,43.33094],[-1.8214,43.33993],[-1.80097,43.34559],[-1.79826,43.34904],[-1.79017,43.35329],[-1.78933,43.35334]]]}},{"type":"Feature","properties":{"mun_code":"20072","mun_name":"Urnieta","mun_name_local":null,"prov_code":"20","prov_name":"Gipuzkoa","acom_code":"16","acom_name":"País Vasco","geo_point_2d":{"lon":-1.9712764944134877,"lat":43.22692750523681}},"geometry":{"type":"Polygon","coordinates":[[[-2.00907,43.2438],[-1.99594,43.22728],[-1.97584,43.21322],[-1.97506,43.20595],[-1.97249,43.20318],[-1.96367,43.19855],[-1.96621,43.195],[-1.96235,43.1914],[-1.95876,43.18925],[-1.94583,43.19334],[-1.94296,43.20328],[-1.94091,43.20459],[-1.94229,43.21022],[-1.94955,43.21486],[-1.94838,43.2174],[-1.9389,43.21944],[-1.93313,43.2235],[-1.9268,43.22318],[-1.92972,43.22361],[-1.93289,43.22686],[-1.9414,43.22927],[-1.94231,43.2277],[-1.94619,43.22837],[-1.95072,43.23269],[-1.96323,43.2404],[-1.96222,43.24327],[-1.96446,43.24306],[-1.96738,43.24557],[-1.97401,43.24576],[-1.97709,43.25125],[-1.97792,43.25853],[-1.98416,43.25801],[-1.99038,43.26031],[-1.99995,43.26103],[-2.00001,43.25888],[-2.00427,43.2578],[-2.00295,43.25259],[-2.00881,43.24438],[-2.00907,43.2438]]]}},{"type":"Feature","properties":{"mun_code":"20002","mun_name":"Aduna","mun_name_local":null,"prov_code":"20","prov_name":"Gipuzkoa","acom_code":"16","acom_name":"País Vasco","geo_point_2d":{"lon":-2.056290340552321,"lat":43.212709177620724}},"geometry":{"type":"Polygon","coordinates":[[[-2.05548,43.23044],[-2.05832,43.22737],[-2.05848,43.21997],[-2.06008,43.21993],[-2.06774,43.22592],[-2.07416,43.22382],[-2.0774,43.2212],[-2.07798,43.21678],[-2.07311,43.21429],[-2.07132,43.21147],[-2.0679,43.21046],[-2.06475,43.20174],[-2.06146,43.20075],[-2.05609,43.19611],[-2.0518,43.19806],[-2.04826,43.19664],[-2.04279,43.19682],[-2.03796,43.20472],[-2.03536,43.20489],[-2.03553,43.20683],[-2.04039,43.2065],[-2.03941,43.20841],[-2.04355,43.20968],[-2.051,43.22074],[-2.04732,43.22226],[-2.04599,43.22611],[-2.03868,43.22712],[-2.04507,43.22908],[-2.0456,43.23177],[-2.04951,43.22902],[-2.05511,43.23013],[-2.05548,43.23044]]]}},{"type":"Feature","properties":{"mun_code":"20017","mun_name":"Azkoitia","mun_name_local":null,"prov_code":"20","prov_name":"Gipuzkoa","acom_code":"16","acom_name":"País Vasco","geo_point_2d":{"lon":-2.3290273330473417,"lat":43.17415955605049}},"geometry":{"type":"Polygon","coordinates":[[[-2.36739,43.17668],[-2.36438,43.17355],[-2.36531,43.16993],[-2.36112,43.16549],[-2.36475,43.15795],[-2.36206,43.15213],[-2.36621,43.14865],[-2.36518,43.14217],[-2.35824,43.1384],[-2.3592,43.13284],[-2.35163,43.13291],[-2.34984,43.12585],[-2.34211,43.11979],[-2.33683,43.12049],[-2.32901,43.13057],[-2.32023,43.13209],[-2.3167,43.1309],[-2.30656,43.13129],[-2.30354,43.13964],[-2.29788,43.14136],[-2.29768,43.1437],[-2.29277,43.14547],[-2.2918,43.15027],[-2.29398,43.15333],[-2.29148,43.15991],[-2.29474,43.16196],[-2.29375,43.16273],[-2.29762,43.17293],[-2.29975,43.17272],[-2.29835,43.17468],[-2.29183,43.1736],[-2.29187,43.18227],[-2.28965,43.18746],[-2.29414,43.19701],[-2.29213,43.20108],[-2.30081,43.21331],[-2.31969,43.22139],[-2.33244,43.23016],[-2.33474,43.22899],[-2.33763,43.22365],[-2.33766,43.21929],[-2.34163,43.216],[-2.3456,43.21713],[-2.35195,43.21276],[-2.35923,43.21282],[-2.35696,43.20787],[-2.36438,43.19829],[-2.36025,43.191],[-2.36248,43.18729],[-2.3666,43.18475],[-2.36544,43.18009],[-2.36704,43.17753],[-2.36739,43.17668]]]}},{"type":"Feature","properties":{"mun_code":"20069","mun_name":"Donostia","mun_name_local":"San Sebastián","prov_code":"20","prov_name":"Gipuzkoa","acom_code":"16","acom_name":"País Vasco","geo_point_2d":{"lon":-1.9880372181138783,"lat":43.295355570675895}},"geometry":{"type":"MultiPolygon","coordinates":[[[[-1.90047,43.23719],[-1.90968,43.23562],[-1.90866,43.23185],[-1.912,43.22871],[-1.9089,43.22547],[-1.9089,43.22201],[-1.89992,43.2208],[-1.89489,43.21784],[-1.88788,43.21998],[-1.89071,43.22279],[-1.89093,43.22625],[-1.89893,43.22937],[-1.9004,43.23659],[-1.90047,43.23719]]],[[[-2.02803,43.27299],[-2.03272,43.27464],[-2.03334,43.27153],[-2.03582,43.27431],[-2.03795,43.27348],[-2.0383,43.27228],[-2.03629,43.27273],[-2.03531,43.27136],[-2.03818,43.26862],[-2.0341,43.26586],[-2.03508,43.26392],[-2.03297,43.2618],[-2.03636,43.26021],[-2.04092,43.26347],[-2.04096,43.26604],[-2.04276,43.26634],[-2.0435,43.26491],[-2.04469,43.26578],[-2.0465,43.26397],[-2.04492,43.26339],[-2.05036,43.26217],[-2.05492,43.25214],[-2.06164,43.24831],[-2.0576,43.2478],[-2.05294,43.24386],[-2.04587,43.24573],[-2.04189,43.24106],[-2.04152,43.24637],[-2.02937,43.24176],[-2.02524,43.24405],[-2.02086,43.24898],[-2.01977,43.26159],[-2.02164,43.26609],[-2.02754,43.27269],[-2.02803,43.27299]],[[-2.03244,43.27076],[-2.03123,43.27132],[-2.0323,43.27055],[-2.03244,43.27076]],[[-2.02999,43.26811],[-2.03358,43.26988],[-2.03198,43.27021],[-2.02981,43.26802],[-2.02999,43.26811]]],[[[-1.89511,43.25081],[-1.89643,43.25337],[-1.89388,43.25859],[-1.89793,43.2665],[-1.90944,43.26497],[-1.91901,43.25984],[-1.91487,43.25396],[-1.90517,43.25665],[-1.90366,43.2512],[-1.9018,43.25021],[-1.90042,43.25213],[-1.89781,43.25118],[-1.89511,43.25081]]],[[[-2.08294,43.30786],[-2.08681,43.30092],[-2.08445,43.29478],[-2.0661,43.29793],[-2.05793,43.29655],[-2.05039,43.29862],[-2.04269,43.2953],[-2.03707,43.29645],[-2.03389,43.29395],[-2.02907,43.29398],[-2.02178,43.2806],[-2.00983,43.27753],[-1.9906,43.27836],[-1.98454,43.28353],[-1.97613,43.28188],[-1.97126,43.27842],[-1.96741,43.27745],[-1.96725,43.27616],[-1.96095,43.27489],[-1.95773,43.27699],[-1.95222,43.28615],[-1.94982,43.28608],[-1.94892,43.28783],[-1.94274,43.28992],[-1.94016,43.29256],[-1.94275,43.29441],[-1.94443,43.29846],[-1.94033,43.30306],[-1.93321,43.30163],[-1.93212,43.30333],[-1.93017,43.30333],[-1.91556,43.29373],[-1.91378,43.29616],[-1.91684,43.30532],[-1.91415,43.31386],[-1.91571,43.31635],[-1.91862,43.31283],[-1.92113,43.31263],[-1.91888,43.31419],[-1.91878,43.31705],[-1.91947,43.3197],[-1.92233,43.3212],[-1.92918,43.32165],[-1.93895,43.32028],[-1.93862,43.32213],[-1.93689,43.32243],[-1.93884,43.32782],[-1.93091,43.33043],[-1.93101,43.33557],[-1.94111,43.33549],[-1.94841,43.33203],[-1.95221,43.33565],[-1.96209,43.33813],[-1.96327,43.33592],[-1.96638,43.33596],[-1.96831,43.33404],[-1.97309,43.3358],[-1.97142,43.33257],[-1.97227,43.3288],[-1.97879,43.32662],[-1.98082,43.32741],[-1.98043,43.32873],[-1.9806,43.3236],[-1.98853,43.32749],[-1.99175,43.32653],[-1.9939,43.32477],[-1.99326,43.32337],[-1.99021,43.32229],[-1.98823,43.32341],[-1.98961,43.32275],[-1.98736,43.32205],[-1.98994,43.32241],[-1.9871,43.32164],[-1.9866,43.3202],[-1.98739,43.31793],[-1.99094,43.31587],[-1.99741,43.31562],[-2.00488,43.31852],[-2.00499,43.32166],[-2.00896,43.32423],[-2.01268,43.32354],[-2.0125,43.32198],[-2.0146,43.32088],[-2.02263,43.32236],[-2.02537,43.32049],[-2.03127,43.32073],[-2.03831,43.31748],[-2.04476,43.31725],[-2.04701,43.31464],[-2.05207,43.31306],[-2.06971,43.31126],[-2.07369,43.30755],[-2.08168,43.30816],[-2.08294,43.30786]]],[[[-1.99998,43.3206],[-1.99725,43.32184],[-1.9979,43.32286],[-2.00051,43.32193],[-2.00005,43.32066],[-1.99998,43.3206]]]]}},{"type":"Feature","properties":{"mun_code":"20904","mun_name":"Baliarrain","mun_name_local":null,"prov_code":"20","prov_name":"Gipuzkoa","acom_code":"16","acom_name":"País Vasco","geo_point_2d":{"lon":-2.1322094966608676,"lat":43.07247191128086}},"geometry":{"type":"Polygon","coordinates":[[[-2.1429,43.0739],[-2.14397,43.06968],[-2.14056,43.06272],[-2.13696,43.06478],[-2.12307,43.06764],[-2.11975,43.07039],[-2.12568,43.08262],[-2.12848,43.08279],[-2.13349,43.07851],[-2.13478,43.07938],[-2.1378,43.07853],[-2.14257,43.07544],[-2.1429,43.0739]]]}},{"type":"Feature","properties":{"mun_code":"20003","mun_name":"Aizarnazabal","mun_name_local":null,"prov_code":"20","prov_name":"Gipuzkoa","acom_code":"16","acom_name":"País Vasco","geo_point_2d":{"lon":-2.2329112418080936,"lat":43.264079636325235}},"geometry":{"type":"Polygon","coordinates":[[[-2.25365,43.26793],[-2.25521,43.26511],[-2.25201,43.2612],[-2.25242,43.25292],[-2.24632,43.25432],[-2.23767,43.25253],[-2.2327,43.25538],[-2.22567,43.25535],[-2.21585,43.26015],[-2.2087,43.2657],[-2.20557,43.27271],[-2.22208,43.2718],[-2.22596,43.27019],[-2.23378,43.27572],[-2.2422,43.27359],[-2.24682,43.26998],[-2.25262,43.26969],[-2.25365,43.26793]]]}},{"type":"Feature","properties":{"mun_code":"20053","mun_name":"Lezo","mun_name_local":null,"prov_code":"20","prov_name":"Gipuzkoa","acom_code":"16","acom_name":"País Vasco","geo_point_2d":{"lon":-1.8775943932381065,"lat":43.32766502081245}},"geometry":{"type":"Polygon","coordinates":[[[-1.90844,43.32223],[-1.90322,43.323],[-1.90159,43.31997],[-1.90339,43.31699],[-1.89784,43.31582],[-1.89045,43.31111],[-1.88922,43.31531],[-1.88397,43.31824],[-1.8587,43.32155],[-1.8542,43.32363],[-1.84943,43.3301],[-1.85646,43.34375],[-1.8787,43.33573],[-1.89914,43.33168],[-1.90167,43.32829],[-1.90953,43.32742],[-1.90934,43.32275],[-1.90844,43.32223]]]}},{"type":"Feature","properties":{"mun_code":"20043","mun_name":"Idiazabal","mun_name_local":null,"prov_code":"20","prov_name":"Gipuzkoa","acom_code":"16","acom_name":"País Vasco","geo_point_2d":{"lon":-2.232938214430205,"lat":42.98722801587654}},"geometry":{"type":"Polygon","coordinates":[[[-2.26269,42.96801],[-2.25901,42.95917],[-2.26199,42.9496],[-2.25835,42.94661],[-2.25231,42.9487],[-2.24057,42.94626],[-2.22973,42.94725],[-2.21225,42.95153],[-2.21635,42.96277],[-2.21941,42.96496],[-2.21763,42.9699],[-2.21786,42.9779],[-2.21034,42.98149],[-2.21342,42.98725],[-2.20766,42.98923],[-2.20482,42.99294],[-2.20317,42.99309],[-2.20194,42.99797],[-2.21548,43.00958],[-2.21686,43.02288],[-2.22154,43.02653],[-2.21964,43.03503],[-2.2335,43.03602],[-2.2399,43.03205],[-2.24048,43.03288],[-2.24597,43.03114],[-2.24903,43.01601],[-2.24627,43.01503],[-2.24467,43.01108],[-2.24735,42.99625],[-2.24473,42.99516],[-2.24386,42.9898],[-2.25295,42.98158],[-2.25681,42.97308],[-2.26176,42.96976],[-2.26269,42.96801]]]}},{"type":"Feature","properties":{"mun_code":"20027","mun_name":"Zestoa","mun_name_local":null,"prov_code":"20","prov_name":"Gipuzkoa","acom_code":"16","acom_name":"País Vasco","geo_point_2d":{"lon":-2.242376936954227,"lat":43.23627007381612}},"geometry":{"type":"Polygon","coordinates":[[[-2.28846,43.22342],[-2.28633,43.22092],[-2.2878,43.2173],[-2.27859,43.2157],[-2.2705,43.22101],[-2.26204,43.22257],[-2.25772,43.22495],[-2.25581,43.21933],[-2.25869,43.21432],[-2.25645,43.21321],[-2.25324,43.21382],[-2.25306,43.21738],[-2.24577,43.216],[-2.23221,43.20607],[-2.22825,43.19739],[-2.21517,43.20071],[-2.19861,43.19913],[-2.19447,43.19765],[-2.18579,43.20234],[-2.18133,43.20728],[-2.17773,43.20636],[-2.17255,43.20848],[-2.18883,43.21415],[-2.19399,43.22093],[-2.19923,43.22377],[-2.20368,43.23616],[-2.20982,43.24147],[-2.21092,43.24701],[-2.21346,43.24752],[-2.20749,43.25479],[-2.21585,43.26015],[-2.22567,43.25535],[-2.2327,43.25538],[-2.23767,43.25253],[-2.24632,43.25432],[-2.25242,43.25292],[-2.25201,43.2612],[-2.2551,43.26375],[-2.25365,43.26793],[-2.25543,43.26865],[-2.25661,43.27263],[-2.2554,43.2742],[-2.25259,43.27301],[-2.25266,43.27914],[-2.25521,43.2804],[-2.25548,43.28281],[-2.25937,43.27827],[-2.25879,43.27613],[-2.26104,43.27586],[-2.26667,43.28202],[-2.26583,43.28636],[-2.26341,43.28654],[-2.26448,43.28864],[-2.26865,43.28998],[-2.26656,43.28516],[-2.2725,43.28191],[-2.27472,43.28198],[-2.27542,43.27878],[-2.27944,43.2767],[-2.29604,43.25832],[-2.29519,43.24347],[-2.288,43.24404],[-2.2783,43.24281],[-2.27558,43.24148],[-2.27671,43.23686],[-2.27431,43.236],[-2.28829,43.22363],[-2.28846,43.22342]]]}},{"type":"Feature","properties":{"mun_code":"53048","mun_name":"Mancomunidad de Amezketa y Ordizia","mun_name_local":null,"prov_code":"20","prov_name":"Gipuzkoa","acom_code":"16","acom_name":"País Vasco","geo_point_2d":{"lon":-2.074395124569136,"lat":42.99830464621912}},"geometry":{"type":"Polygon","coordinates":[[[-2.12496,42.9847],[-2.11905,42.98255],[-2.11803,42.97496],[-2.1145,42.97094],[-2.09532,42.97227],[-2.08442,42.97573],[-2.05258,42.97632],[-2.05041,42.97969],[-2.04494,42.97856],[-2.03834,42.98099],[-2.03863,42.98325],[-2.03647,42.98576],[-2.03234,42.9879],[-2.02831,42.99884],[-2.03145,42.99819],[-2.03296,43.0001],[-2.03145,43.00647],[-2.03867,43.01571],[-2.03861,43.01912],[-2.04097,43.02136],[-2.04139,43.0297],[-2.05286,43.02716],[-2.05578,43.0252],[-2.08329,43.02217],[-2.08846,43.02267],[-2.10431,43.01292],[-2.11538,43.01092],[-2.114,42.98915],[-2.11842,42.98732],[-2.12496,42.9847]]]}},{"type":"Feature","properties":{"mun_code":"20055","mun_name":"Arrasate","mun_name_local":"Mondragón","prov_code":"20","prov_name":"Gipuzkoa","acom_code":"16","acom_name":"País Vasco","geo_point_2d":{"lon":-2.499508958605945,"lat":43.070141594537965}},"geometry":{"type":"Polygon","coordinates":[[[-2.54639,43.08801],[-2.54507,43.08704],[-2.54726,43.08468],[-2.54099,43.07669],[-2.54639,43.07655],[-2.54812,43.07508],[-2.54221,43.07051],[-2.54084,43.06319],[-2.5347,43.0591],[-2.5286,43.05191],[-2.51722,43.05307],[-2.5094,43.04976],[-2.49996,43.04839],[-2.49875,43.04709],[-2.49575,43.04951],[-2.4936,43.04806],[-2.49255,43.04248],[-2.49068,43.04248],[-2.4878,43.03889],[-2.47402,43.04009],[-2.46791,43.04476],[-2.46267,43.04578],[-2.45826,43.05157],[-2.4619,43.05537],[-2.46645,43.05623],[-2.46584,43.0581],[-2.46379,43.06164],[-2.46027,43.06369],[-2.45615,43.07208],[-2.44834,43.07657],[-2.44675,43.08223],[-2.44887,43.07992],[-2.45133,43.08041],[-2.46272,43.07579],[-2.47348,43.0923],[-2.47979,43.09469],[-2.48472,43.09497],[-2.49543,43.09221],[-2.50257,43.0954],[-2.51368,43.09002],[-2.52608,43.09565],[-2.54431,43.09163],[-2.54608,43.08913],[-2.54639,43.08801]]]}},{"type":"Feature","properties":{"mun_code":"20068","mun_name":"Leintz-Gatzaga","mun_name_local":null,"prov_code":"20","prov_name":"Gipuzkoa","acom_code":"16","acom_name":"País Vasco","geo_point_2d":{"lon":-2.5644906890901913,"lat":42.97532338511699}},"geometry":{"type":"Polygon","coordinates":[[[-2.60268,42.98223],[-2.59402,42.97308],[-2.58809,42.97237],[-2.58102,42.96426],[-2.57362,42.96358],[-2.57159,42.96112],[-2.56198,42.9614],[-2.55116,42.95862],[-2.54817,42.95313],[-2.54532,42.95046],[-2.5425,42.95016],[-2.53852,42.95724],[-2.54084,42.96511],[-2.53595,42.97039],[-2.5353,42.97345],[-2.53573,42.97746],[-2.54259,42.9842],[-2.56111,42.99336],[-2.57828,42.99236],[-2.58924,42.9866],[-2.59236,42.98561],[-2.59301,42.98706],[-2.59977,42.98497],[-2.60268,42.98223]]]}},{"type":"Feature","properties":{"mun_code":"20050","mun_name":"Leaburu","mun_name_local":null,"prov_code":"20","prov_name":"Gipuzkoa","acom_code":"16","acom_name":"País Vasco","geo_point_2d":{"lon":-2.054069208426639,"lat":43.1211476573526}},"geometry":{"type":"Polygon","coordinates":[[[-2.0744,43.11373],[-2.07287,43.114],[-2.0715,43.11142],[-2.06267,43.10913],[-2.0636,43.11188],[-2.05942,43.11279],[-2.05711,43.11576],[-2.04918,43.11935],[-2.03972,43.12066],[-2.03389,43.12504],[-2.03393,43.12967],[-2.04661,43.13189],[-2.04735,43.12918],[-2.0524,43.12747],[-2.05318,43.12849],[-2.05829,43.12578],[-2.05818,43.12222],[-2.06388,43.12127],[-2.06476,43.12232],[-2.06881,43.1185],[-2.07016,43.11921],[-2.07705,43.1179],[-2.0738,43.11673],[-2.07509,43.11362],[-2.0744,43.11373]]]}},{"type":"Feature","properties":{"mun_code":"20077","mun_name":"Urretxu","mun_name_local":null,"prov_code":"20","prov_name":"Gipuzkoa","acom_code":"16","acom_name":"País Vasco","geo_point_2d":{"lon":-2.331404958079049,"lat":43.096950305005336}},"geometry":{"type":"Polygon","coordinates":[[[-2.34987,43.08784],[-2.34483,43.08749],[-2.33591,43.08374],[-2.33312,43.08085],[-2.32474,43.07818],[-2.3214,43.08711],[-2.31608,43.08958],[-2.31201,43.0938],[-2.31771,43.09961],[-2.31612,43.10381],[-2.31758,43.10526],[-2.31682,43.10816],[-2.32027,43.10859],[-2.32427,43.11353],[-2.32655,43.11158],[-2.32752,43.11384],[-2.33169,43.11422],[-2.33311,43.11132],[-2.33784,43.1121],[-2.34662,43.1074],[-2.34661,43.10333],[-2.34349,43.10099],[-2.34576,43.09984],[-2.34989,43.0887],[-2.34987,43.08784]]]}},{"type":"Feature","properties":{"mun_code":"20071","mun_name":"Tolosa","mun_name_local":null,"prov_code":"20","prov_name":"Gipuzkoa","acom_code":"16","acom_name":"País Vasco","geo_point_2d":{"lon":-2.08104334459626,"lat":43.106288712254546}},"geometry":{"type":"MultiPolygon","coordinates":[[[[-2.0403,43.07636],[-2.04688,43.07339],[-2.05106,43.0742],[-2.06185,43.08496],[-2.07118,43.0882],[-2.06773,43.07556],[-2.07516,43.06349],[-2.07003,43.06167],[-2.04361,43.0598],[-2.04343,43.04576],[-2.0449,43.04258],[-2.04213,43.04013],[-2.04139,43.0297],[-2.03174,43.0317],[-2.03032,43.03758],[-2.02044,43.04673],[-2.01808,43.05343],[-2.02282,43.06519],[-2.03194,43.07252],[-2.03924,43.07554],[-2.0403,43.07636]]],[[[-2.12343,43.15642],[-2.12463,43.156],[-2.12245,43.14776],[-2.11102,43.13855],[-2.11511,43.13468],[-2.11286,43.12528],[-2.11733,43.12575],[-2.11782,43.12416],[-2.12097,43.12483],[-2.12638,43.12056],[-2.12609,43.11744],[-2.14382,43.11704],[-2.15066,43.11339],[-2.15752,43.11191],[-2.16125,43.10884],[-2.16131,43.10681],[-2.15691,43.10448],[-2.15489,43.1006],[-2.14278,43.0992],[-2.1366,43.09747],[-2.13299,43.09491],[-2.12482,43.09688],[-2.12042,43.09651],[-2.1176,43.09456],[-2.11317,43.09635],[-2.11743,43.09895],[-2.11836,43.10127],[-2.11718,43.10153],[-2.12297,43.10873],[-2.12328,43.11471],[-2.1198,43.11591],[-2.10853,43.11727],[-2.10534,43.11675],[-2.10185,43.11282],[-2.09554,43.11363],[-2.08961,43.11214],[-2.0862,43.11361],[-2.08121,43.11196],[-2.07872,43.11355],[-2.07464,43.11309],[-2.0738,43.11673],[-2.07705,43.1179],[-2.07016,43.11921],[-2.06881,43.1185],[-2.06615,43.12087],[-2.06873,43.12712],[-2.06716,43.13075],[-2.0708,43.13353],[-2.06648,43.14002],[-2.06571,43.13857],[-2.06407,43.13896],[-2.05502,43.14926],[-2.04942,43.15225],[-2.03073,43.15643],[-2.03143,43.1598],[-2.0627,43.15865],[-2.06583,43.15682],[-2.06656,43.15762],[-2.07201,43.14983],[-2.08524,43.14827],[-2.08883,43.14636],[-2.09505,43.14884],[-2.1147,43.14964],[-2.12094,43.15192],[-2.12082,43.15638],[-2.12343,43.15642]]],[[[-2.00924,43.16207],[-2.01353,43.16276],[-2.01926,43.15915],[-2.02501,43.16011],[-2.02546,43.15805],[-2.01067,43.15995],[-2.00942,43.16165],[-2.00924,43.16207]]]]}},{"type":"Feature","properties":{"mun_code":"20052","mun_name":"Legorreta","mun_name_local":null,"prov_code":"20","prov_name":"Gipuzkoa","acom_code":"16","acom_name":"País Vasco","geo_point_2d":{"lon":-2.1522056240877214,"lat":43.08924474879685}},"geometry":{"type":"Polygon","coordinates":[[[-2.18058,43.1008],[-2.17863,43.09624],[-2.16787,43.08968],[-2.16797,43.08405],[-2.16501,43.07825],[-2.16345,43.07685],[-2.15841,43.07748],[-2.15233,43.07266],[-2.14635,43.07567],[-2.1429,43.0739],[-2.13886,43.07813],[-2.13478,43.07938],[-2.13349,43.07851],[-2.13127,43.08133],[-2.12568,43.08262],[-2.12548,43.08417],[-2.12798,43.08432],[-2.1303,43.08794],[-2.12862,43.08908],[-2.13338,43.09161],[-2.13142,43.0929],[-2.1353,43.09366],[-2.13319,43.09501],[-2.13559,43.09699],[-2.14278,43.0992],[-2.15489,43.1006],[-2.15691,43.10448],[-2.16131,43.10681],[-2.16358,43.10669],[-2.16611,43.10398],[-2.16893,43.09757],[-2.18016,43.10076],[-2.18058,43.1008]]]}},{"type":"Feature","properties":{"mun_code":"20051","mun_name":"Legazpi","mun_name_local":null,"prov_code":"20","prov_name":"Gipuzkoa","acom_code":"16","acom_name":"País Vasco","geo_point_2d":{"lon":-2.342184458186888,"lat":43.02880973795881}},"geometry":{"type":"Polygon","coordinates":[[[-2.37812,43.06502],[-2.37097,43.05312],[-2.36007,43.04686],[-2.36649,43.04125],[-2.36822,43.03715],[-2.35942,43.03261],[-2.35679,43.02824],[-2.36154,43.02325],[-2.35926,43.02097],[-2.35938,43.01497],[-2.35625,43.01033],[-2.35163,43.00788],[-2.35506,43.00032],[-2.3686,42.99309],[-2.37263,42.98793],[-2.36713,42.98577],[-2.3668,42.98004],[-2.352,42.97476],[-2.34911,42.97526],[-2.34075,42.96832],[-2.34078,42.972],[-2.3349,42.9763],[-2.33198,42.98238],[-2.3282,42.98223],[-2.3186,42.99088],[-2.31328,42.99301],[-2.31891,43.01596],[-2.31166,43.03292],[-2.32058,43.04227],[-2.32068,43.05038],[-2.32777,43.05953],[-2.32647,43.06278],[-2.3213,43.06434],[-2.32183,43.06651],[-2.33027,43.07231],[-2.32474,43.07818],[-2.33312,43.08085],[-2.33591,43.08374],[-2.34483,43.08749],[-2.34987,43.08784],[-2.35394,43.07881],[-2.35353,43.07472],[-2.36719,43.07019],[-2.3734,43.06958],[-2.37641,43.06609],[-2.37812,43.06502]]]}},{"type":"Feature","properties":{"mun_code":"20065","mun_name":"Soraluze-Placencia de las Armas","mun_name_local":null,"prov_code":"20","prov_name":"Gipuzkoa","acom_code":"16","acom_name":"País Vasco","geo_point_2d":{"lon":-2.411417280747291,"lat":43.17761664477922}},"geometry":{"type":"Polygon","coordinates":[[[-2.44387,43.16997],[-2.4349,43.16791],[-2.43656,43.16619],[-2.43266,43.16557],[-2.43005,43.16743],[-2.42583,43.16613],[-2.42423,43.16726],[-2.42073,43.16379],[-2.4176,43.16329],[-2.41374,43.16502],[-2.40631,43.16201],[-2.40008,43.16337],[-2.39947,43.1618],[-2.39565,43.16198],[-2.39253,43.16445],[-2.38246,43.16688],[-2.3766,43.16968],[-2.37345,43.17585],[-2.38906,43.18444],[-2.40106,43.18816],[-2.40704,43.19154],[-2.41543,43.19268],[-2.42485,43.19687],[-2.43678,43.19281],[-2.43642,43.18921],[-2.44087,43.1839],[-2.43949,43.17738],[-2.44329,43.17072],[-2.44387,43.16997]]]}},{"type":"Feature","properties":{"mun_code":"20025","mun_name":"Zegama","mun_name_local":null,"prov_code":"20","prov_name":"Gipuzkoa","acom_code":"16","acom_name":"País Vasco","geo_point_2d":{"lon":-2.2961569632158385,"lat":42.965000829072395}},"geometry":{"type":"Polygon","coordinates":[[[-2.34075,42.96832],[-2.33824,42.96262],[-2.32949,42.95528],[-2.3265,42.94855],[-2.32363,42.94606],[-2.30397,42.93652],[-2.29011,42.93632],[-2.28035,42.93327],[-2.279,42.93139],[-2.27405,42.9314],[-2.2599,42.93918],[-2.2569,42.94222],[-2.25981,42.94896],[-2.26199,42.9496],[-2.25901,42.95917],[-2.26894,42.98151],[-2.27049,42.99002],[-2.27383,42.99468],[-2.28233,42.9962],[-2.28806,42.99453],[-2.29063,42.99655],[-2.30302,42.99772],[-2.31366,42.99674],[-2.31333,42.99265],[-2.3186,42.99088],[-2.3282,42.98223],[-2.33198,42.98238],[-2.3349,42.9763],[-2.34078,42.972],[-2.34068,42.96897],[-2.34075,42.96832]]]}},{"type":"Feature","properties":{"mun_code":"20075","mun_name":"Villabona","mun_name_local":null,"prov_code":"20","prov_name":"Gipuzkoa","acom_code":"16","acom_name":"País Vasco","geo_point_2d":{"lon":-2.0306334733858953,"lat":43.18020691801976}},"geometry":{"type":"Polygon","coordinates":[[[-2.07366,43.18059],[-2.06954,43.17758],[-2.06416,43.17901],[-2.05495,43.17584],[-2.04086,43.15936],[-2.03797,43.1589],[-2.03096,43.15989],[-2.02717,43.16205],[-2.02241,43.15899],[-2.01593,43.16044],[-2.01353,43.16276],[-2.00924,43.16207],[-2.00792,43.16485],[-2.00285,43.16767],[-2.00471,43.17475],[-1.99437,43.18095],[-1.99679,43.18391],[-1.99687,43.18682],[-2.00222,43.18576],[-2.00687,43.18874],[-2.00657,43.19153],[-2.01312,43.19817],[-2.01912,43.19533],[-2.02294,43.19656],[-2.02482,43.19924],[-2.02862,43.20099],[-2.03329,43.1998],[-2.0389,43.20256],[-2.04184,43.19705],[-2.04747,43.19654],[-2.0518,43.19806],[-2.0548,43.19591],[-2.05343,43.19149],[-2.05461,43.18678],[-2.06696,43.18674],[-2.07249,43.18148],[-2.07366,43.18059]]]}},{"type":"Feature","properties":{"mun_code":"20044","mun_name":"Ikaztegieta","mun_name_local":null,"prov_code":"20","prov_name":"Gipuzkoa","acom_code":"16","acom_name":"País Vasco","geo_point_2d":{"lon":-2.120934571050955,"lat":43.090899026588616}},"geometry":{"type":"Polygon","coordinates":[[[-2.13319,43.09501],[-2.1353,43.09366],[-2.13142,43.0929],[-2.13338,43.09161],[-2.12862,43.08908],[-2.1303,43.08794],[-2.12636,43.08388],[-2.11447,43.08663],[-2.1062,43.09204],[-2.10348,43.096],[-2.10591,43.09611],[-2.1099,43.09305],[-2.11252,43.0932],[-2.11509,43.09532],[-2.118,43.09466],[-2.12164,43.09666],[-2.13299,43.09491],[-2.13319,43.09501]]]}},{"type":"Feature","properties":{"mun_code":"20022","mun_name":"Berastegi","mun_name_local":null,"prov_code":"20","prov_name":"Gipuzkoa","acom_code":"16","acom_name":"País Vasco","geo_point_2d":{"lon":-1.960587719939622,"lat":43.13151893538002}},"geometry":{"type":"MultiPolygon","coordinates":[[[[-1.91834,43.15965],[-1.92535,43.15986],[-1.92864,43.16409],[-1.93199,43.16453],[-1.9395,43.1628],[-1.94273,43.16324],[-1.94403,43.16516],[-1.94879,43.16561],[-1.95122,43.16386],[-1.95213,43.16551],[-1.95379,43.16449],[-1.95732,43.16565],[-1.96051,43.1645],[-1.96236,43.16658],[-1.96433,43.16477],[-1.96938,43.16395],[-1.96485,43.16073],[-1.96555,43.15745],[-1.96871,43.15752],[-1.96271,43.15493],[-1.96474,43.15409],[-1.96353,43.14905],[-1.96728,43.14738],[-1.96957,43.14383],[-1.97578,43.14664],[-1.98176,43.14563],[-1.98792,43.14048],[-1.99316,43.13814],[-1.99577,43.13614],[-1.99892,43.12803],[-2.00456,43.12123],[-2.0055,43.11768],[-2.00142,43.11441],[-2.00029,43.10655],[-1.99819,43.10502],[-1.99599,43.09925],[-1.99063,43.09473],[-1.98679,43.09345],[-1.9806,43.09395],[-1.97926,43.09096],[-1.97336,43.09157],[-1.96499,43.09538],[-1.94913,43.09697],[-1.94753,43.09753],[-1.94862,43.0999],[-1.93825,43.1058],[-1.9394,43.1084],[-1.93365,43.11035],[-1.93127,43.1137],[-1.92367,43.11545],[-1.92061,43.11946],[-1.92128,43.12266],[-1.91634,43.128],[-1.90195,43.13585],[-1.90506,43.14433],[-1.9204,43.15009],[-1.91935,43.15896],[-1.91834,43.15965]]],[[[-2.01152,43.15699],[-2.01723,43.14859],[-2.02149,43.14641],[-2.01647,43.12897],[-2.01739,43.13354],[-2.01317,43.13578],[-2.01089,43.13951],[-2.0125,43.14822],[-2.00326,43.15435],[-2.00322,43.1599],[-1.99665,43.16754],[-1.99447,43.17353],[-1.99076,43.17719],[-1.98387,43.19011],[-1.99088,43.18666],[-1.99687,43.18682],[-1.99679,43.18391],[-1.99437,43.18095],[-2.00471,43.17475],[-2.00285,43.16767],[-2.00792,43.16485],[-2.01141,43.15764],[-2.01152,43.15699]]]]}},{"type":"Feature","properties":{"mun_code":"20039","mun_name":"Getaria","mun_name_local":null,"prov_code":"20","prov_name":"Gipuzkoa","acom_code":"16","acom_name":"País Vasco","geo_point_2d":{"lon":-2.213687962415981,"lat":43.29407009224709}},"geometry":{"type":"Polygon","coordinates":[[[-2.24558,43.30237],[-2.24068,43.29616],[-2.22747,43.29107],[-2.22178,43.28605],[-2.21881,43.28575],[-2.21254,43.28176],[-2.21321,43.27452],[-2.21175,43.27523],[-2.20761,43.27316],[-2.20231,43.27287],[-2.19365,43.27581],[-2.19374,43.28115],[-2.19642,43.28187],[-2.18947,43.28674],[-2.18949,43.29236],[-2.19198,43.29868],[-2.19785,43.29912],[-2.2016,43.30111],[-2.20177,43.30331],[-2.19913,43.30408],[-2.20036,43.30341],[-2.20135,43.30519],[-2.20268,43.305],[-2.20119,43.30669],[-2.20062,43.30541],[-2.19996,43.30631],[-2.19738,43.30536],[-2.19827,43.30395],[-2.19657,43.30547],[-2.19978,43.30696],[-2.19878,43.31001],[-2.20086,43.31162],[-2.20245,43.31173],[-2.20335,43.30694],[-2.20662,43.30433],[-2.21554,43.30902],[-2.22792,43.31103],[-2.23952,43.3084],[-2.23956,43.30469],[-2.24546,43.30262],[-2.24558,43.30237]]]}},{"type":"Feature","properties":{"mun_code":"20045","mun_name":"Irun","mun_name_local":null,"prov_code":"20","prov_name":"Gipuzkoa","acom_code":"16","acom_name":"País Vasco","geo_point_2d":{"lon":-1.7844843152030934,"lat":43.31877412766557}},"geometry":{"type":"Polygon","coordinates":[[[-1.85226,43.32516],[-1.8492,43.32459],[-1.83272,43.31219],[-1.82787,43.31144],[-1.81457,43.30604],[-1.80974,43.30154],[-1.79917,43.29618],[-1.79184,43.29474],[-1.78519,43.29041],[-1.78324,43.28682],[-1.77321,43.28909],[-1.7647,43.28642],[-1.76144,43.28796],[-1.76134,43.2897],[-1.75541,43.29073],[-1.75399,43.28953],[-1.75037,43.29303],[-1.74503,43.29364],[-1.74356,43.295],[-1.741,43.29402],[-1.74041,43.29532],[-1.73721,43.29544],[-1.73717,43.29453],[-1.73337,43.29504],[-1.72937,43.29382],[-1.73554,43.30972],[-1.74051,43.31145],[-1.7378,43.31345],[-1.74166,43.3164],[-1.73713,43.32337],[-1.73856,43.32573],[-1.73738,43.33016],[-1.74071,43.33149],[-1.75051,43.33179],[-1.75273,43.33347],[-1.75153,43.33653],[-1.75322,43.34117],[-1.75727,43.34369],[-1.77179,43.34241],[-1.77681,43.3447],[-1.77742,43.34777],[-1.78443,43.34904],[-1.78933,43.35334],[-1.79826,43.34904],[-1.80097,43.34559],[-1.8214,43.33993],[-1.83663,43.33094],[-1.84943,43.3301],[-1.8501,43.32843],[-1.85226,43.32516]]]}},{"type":"Feature","properties":{"mun_code":"20010","mun_name":"Anoeta","mun_name_local":null,"prov_code":"20","prov_name":"Gipuzkoa","acom_code":"16","acom_name":"País Vasco","geo_point_2d":{"lon":-2.0750595343838873,"lat":43.16833404513531}},"geometry":{"type":"Polygon","coordinates":[[[-2.0897,43.16199],[-2.07909,43.15913],[-2.07828,43.15699],[-2.07188,43.15315],[-2.07201,43.14983],[-2.06621,43.15807],[-2.068,43.16294],[-2.07104,43.16429],[-2.07092,43.16784],[-2.06296,43.17178],[-2.05745,43.1769],[-2.06416,43.17901],[-2.06954,43.17758],[-2.07366,43.18059],[-2.07461,43.17926],[-2.07778,43.17978],[-2.08421,43.17765],[-2.08643,43.17216],[-2.08488,43.16912],[-2.08769,43.16471],[-2.0897,43.16199]]]}},{"type":"Feature","properties":{"mun_code":"20018","mun_name":"Azpeitia","mun_name_local":null,"prov_code":"20","prov_name":"Gipuzkoa","acom_code":"16","acom_name":"País Vasco","geo_point_2d":{"lon":-2.2597505850144417,"lat":43.16255471419327}},"geometry":{"type":"Polygon","coordinates":[[[-2.30656,43.13129],[-2.30479,43.1308],[-2.30406,43.12792],[-2.28927,43.11759],[-2.28762,43.11116],[-2.28362,43.10712],[-2.27575,43.10673],[-2.27121,43.11124],[-2.26659,43.11275],[-2.25473,43.10577],[-2.24314,43.10697],[-2.23782,43.11106],[-2.22786,43.11388],[-2.22691,43.1154],[-2.22835,43.11623],[-2.22551,43.11856],[-2.22687,43.12247],[-2.22486,43.12325],[-2.22639,43.12386],[-2.22488,43.12694],[-2.2312,43.13114],[-2.23333,43.13663],[-2.22626,43.13895],[-2.20425,43.15435],[-2.2148,43.16224],[-2.21949,43.16359],[-2.22657,43.17118],[-2.22148,43.17396],[-2.22404,43.17772],[-2.22655,43.17878],[-2.21847,43.1873],[-2.22737,43.19488],[-2.23102,43.19534],[-2.22825,43.19739],[-2.23221,43.20607],[-2.23872,43.21177],[-2.2499,43.21732],[-2.25306,43.21738],[-2.25324,43.21382],[-2.25645,43.21321],[-2.25869,43.21432],[-2.25581,43.21933],[-2.25772,43.22495],[-2.26204,43.22257],[-2.2705,43.22101],[-2.27859,43.2157],[-2.2878,43.2173],[-2.28633,43.22092],[-2.28846,43.22342],[-2.29533,43.21629],[-2.30081,43.21331],[-2.29213,43.20108],[-2.29414,43.19701],[-2.28965,43.18746],[-2.29187,43.18227],[-2.29183,43.1736],[-2.29835,43.17468],[-2.29975,43.17272],[-2.29762,43.17293],[-2.29375,43.16273],[-2.29474,43.16196],[-2.29148,43.15991],[-2.29398,43.15333],[-2.2918,43.15027],[-2.29232,43.14605],[-2.29768,43.1437],[-2.29788,43.14136],[-2.30354,43.13964],[-2.3046,43.13416],[-2.30656,43.13129]]]}},{"type":"Feature","properties":{"mun_code":"20009","mun_name":"Andoain","mun_name_local":null,"prov_code":"20","prov_name":"Gipuzkoa","acom_code":"16","acom_name":"País Vasco","geo_point_2d":{"lon":-2.0132194007793327,"lat":43.21621446584266}},"geometry":{"type":"Polygon","coordinates":[[[-2.05548,43.23044],[-2.04951,43.22902],[-2.0456,43.23177],[-2.04507,43.22908],[-2.03868,43.22712],[-2.04599,43.22611],[-2.04732,43.22226],[-2.051,43.22074],[-2.04355,43.20968],[-2.03941,43.20841],[-2.04039,43.2065],[-2.03553,43.20683],[-2.03536,43.20489],[-2.03796,43.20472],[-2.0389,43.20256],[-2.03329,43.1998],[-2.02862,43.20099],[-2.02482,43.19924],[-2.02294,43.19656],[-2.01912,43.19533],[-2.01312,43.19817],[-2.00657,43.19153],[-2.00687,43.18874],[-2.0031,43.18601],[-1.99088,43.18666],[-1.97867,43.19426],[-1.96638,43.19484],[-1.96367,43.19855],[-1.97304,43.20364],[-1.97588,43.20738],[-1.97584,43.21322],[-1.99594,43.22728],[-2.00907,43.2438],[-2.02093,43.23902],[-2.02479,43.24445],[-2.02937,43.24176],[-2.04152,43.24637],[-2.04189,43.24106],[-2.04587,43.24573],[-2.04851,43.24511],[-2.05563,43.23989],[-2.05536,43.23716],[-2.05685,43.2362],[-2.05519,43.23193],[-2.05548,43.23044]]]}},{"type":"Feature","properties":{"mun_code":"20001","mun_name":"Abaltzisketa","mun_name_local":null,"prov_code":"20","prov_name":"Gipuzkoa","acom_code":"16","acom_name":"País Vasco","geo_point_2d":{"lon":-2.1056715749917445,"lat":43.038707848673255}},"geometry":{"type":"Polygon","coordinates":[[[-2.12161,43.04044],[-2.11364,43.032],[-2.11839,43.03041],[-2.11538,43.01092],[-2.10431,43.01292],[-2.08846,43.02267],[-2.0951,43.04237],[-2.0932,43.04974],[-2.09866,43.06532],[-2.10561,43.06602],[-2.11803,43.065],[-2.11914,43.06077],[-2.11379,43.05203],[-2.11887,43.04681],[-2.11976,43.04075],[-2.12161,43.04044]]]}},{"type":"Feature","properties":{"mun_code":"20057","mun_name":"Mutiloa","mun_name_local":null,"prov_code":"20","prov_name":"Gipuzkoa","acom_code":"16","acom_name":"País Vasco","geo_point_2d":{"lon":-2.281158914481459,"lat":43.0278866293821}},"geometry":{"type":"Polygon","coordinates":[[[-2.31515,43.02233],[-2.30748,43.02203],[-2.29784,43.02431],[-2.28896,43.01887],[-2.28337,43.0172],[-2.27038,43.0191],[-2.26165,43.01802],[-2.25901,43.02042],[-2.24774,43.02072],[-2.24777,43.02543],[-2.26074,43.03078],[-2.26249,43.03479],[-2.26796,43.03766],[-2.28592,43.0398],[-2.29405,43.0347],[-2.29774,43.03627],[-2.31166,43.03292],[-2.31478,43.02359],[-2.31515,43.02233]]]}},{"type":"Feature","properties":{"mun_code":"20048","mun_name":"Larraul","mun_name_local":null,"prov_code":"20","prov_name":"Gipuzkoa","acom_code":"16","acom_name":"País Vasco","geo_point_2d":{"lon":-2.1222379138979224,"lat":43.185982612849436}},"geometry":{"type":"Polygon","coordinates":[[[-2.15036,43.18149],[-2.15357,43.17894],[-2.14754,43.17351],[-2.14248,43.17769],[-2.12921,43.18154],[-2.11743,43.18279],[-2.10368,43.18082],[-2.0952,43.18169],[-2.08859,43.18621],[-2.09877,43.19167],[-2.11,43.19467],[-2.12099,43.1916],[-2.13517,43.19407],[-2.14205,43.18966],[-2.14483,43.18495],[-2.15036,43.18149]]]}},{"type":"Feature","properties":{"mun_code":"20901","mun_name":"Mendaro","mun_name_local":null,"prov_code":"20","prov_name":"Gipuzkoa","acom_code":"16","acom_name":"País Vasco","geo_point_2d":{"lon":-2.381484748810883,"lat":43.24645911893443}},"geometry":{"type":"Polygon","coordinates":[[[-2.43901,43.25183],[-2.43937,43.24838],[-2.43679,43.2435],[-2.43446,43.24264],[-2.41541,43.24446],[-2.40835,43.24247],[-2.40028,43.2438],[-2.39438,43.24118],[-2.39227,43.23839],[-2.38241,43.23777],[-2.37541,43.23063],[-2.36547,43.22817],[-2.36191,43.21931],[-2.35784,43.21761],[-2.35923,43.21282],[-2.35195,43.21276],[-2.3456,43.21713],[-2.34163,43.216],[-2.33766,43.21929],[-2.33763,43.22365],[-2.33249,43.231],[-2.33616,43.23511],[-2.33924,43.23491],[-2.34744,43.23938],[-2.34724,43.24235],[-2.34981,43.24392],[-2.34958,43.24843],[-2.36321,43.26305],[-2.37585,43.27049],[-2.3864,43.26777],[-2.39115,43.26793],[-2.39467,43.27015],[-2.40191,43.26936],[-2.40526,43.26755],[-2.41108,43.2684],[-2.41806,43.2676],[-2.42508,43.25895],[-2.43115,43.25703],[-2.43288,43.25462],[-2.43855,43.25191],[-2.43901,43.25183]]]}},{"type":"Feature","properties":{"mun_code":"20063","mun_name":"Oiartzun","mun_name_local":null,"prov_code":"20","prov_name":"Gipuzkoa","acom_code":"16","acom_name":"País Vasco","geo_point_2d":{"lon":-1.8390789148607654,"lat":43.27643593183344}},"geometry":{"type":"Polygon","coordinates":[[[-1.88931,43.31222],[-1.88222,43.31029],[-1.88224,43.30763],[-1.8858,43.30629],[-1.88531,43.3032],[-1.88757,43.30391],[-1.89729,43.29345],[-1.89454,43.28964],[-1.89563,43.28848],[-1.89214,43.28675],[-1.89203,43.28332],[-1.8596,43.26879],[-1.85676,43.26446],[-1.84932,43.26387],[-1.85085,43.24967],[-1.84925,43.24451],[-1.8605,43.23779],[-1.86595,43.23205],[-1.87594,43.23103],[-1.8734,43.22966],[-1.87362,43.22617],[-1.86764,43.23048],[-1.86722,43.22623],[-1.86463,43.22434],[-1.86622,43.22432],[-1.86445,43.22205],[-1.86672,43.21799],[-1.86328,43.21585],[-1.86334,43.21279],[-1.86171,43.21209],[-1.86036,43.21772],[-1.85788,43.21798],[-1.85935,43.2167],[-1.85633,43.21561],[-1.85427,43.21606],[-1.85743,43.21874],[-1.85294,43.21913],[-1.85339,43.22107],[-1.85051,43.22307],[-1.85275,43.22597],[-1.85,43.22848],[-1.84854,43.22757],[-1.84977,43.22478],[-1.84749,43.22371],[-1.845,43.22545],[-1.84115,43.22397],[-1.83604,43.22607],[-1.83461,43.22418],[-1.83516,43.2286],[-1.83235,43.22746],[-1.83017,43.22916],[-1.82565,43.22829],[-1.82255,43.23135],[-1.82246,43.23586],[-1.81918,43.23897],[-1.81695,43.23801],[-1.8161,43.23912],[-1.80752,43.23944],[-1.80544,43.24055],[-1.80406,43.24435],[-1.79525,43.24632],[-1.79586,43.25348],[-1.79294,43.25656],[-1.7952,43.26418],[-1.79138,43.26992],[-1.79391,43.27646],[-1.78654,43.27973],[-1.78324,43.28682],[-1.78519,43.29041],[-1.79184,43.29474],[-1.79917,43.29618],[-1.80974,43.30154],[-1.81457,43.30604],[-1.82787,43.31144],[-1.83272,43.31219],[-1.84974,43.32482],[-1.85226,43.32516],[-1.8587,43.32155],[-1.88397,43.31824],[-1.88922,43.31531],[-1.88945,43.31238],[-1.88931,43.31222]]]}},{"type":"Feature","properties":{"mun_code":"20028","mun_name":"Zizurkil","mun_name_local":null,"prov_code":"20","prov_name":"Gipuzkoa","acom_code":"16","acom_name":"País Vasco","geo_point_2d":{"lon":-2.0771266136747624,"lat":43.21676826791337}},"geometry":{"type":"Polygon","coordinates":[[[-2.10888,43.22839],[-2.10817,43.22637],[-2.10291,43.22402],[-2.09923,43.22034],[-2.09398,43.21181],[-2.09034,43.2094],[-2.09018,43.20749],[-2.09322,43.2047],[-2.08458,43.19225],[-2.08179,43.19028],[-2.07982,43.19138],[-2.07421,43.19063],[-2.07366,43.18059],[-2.06696,43.18674],[-2.05461,43.18678],[-2.05343,43.19149],[-2.0548,43.19591],[-2.06475,43.20174],[-2.0679,43.21046],[-2.07132,43.21147],[-2.07311,43.21429],[-2.07773,43.21652],[-2.07805,43.22036],[-2.07416,43.22382],[-2.06774,43.22592],[-2.06008,43.21993],[-2.05848,43.21997],[-2.05832,43.22737],[-2.05519,43.23193],[-2.05685,43.2362],[-2.05536,43.23716],[-2.05592,43.23927],[-2.05066,43.24388],[-2.05294,43.24386],[-2.05577,43.24589],[-2.05991,43.24346],[-2.06348,43.24346],[-2.06648,43.23941],[-2.07309,43.24005],[-2.07799,43.24266],[-2.08681,43.24187],[-2.0998,43.23047],[-2.10878,43.22984],[-2.10866,43.22889],[-2.10888,43.22839]]]}},{"type":"Feature","properties":{"mun_code":"20019","mun_name":"Beasain","mun_name_local":null,"prov_code":"20","prov_name":"Gipuzkoa","acom_code":"16","acom_name":"País Vasco","geo_point_2d":{"lon":-2.2193819399891175,"lat":43.07229930179391}},"geometry":{"type":"Polygon","coordinates":[[[-2.2466,43.05833],[-2.24048,43.04577],[-2.23624,43.04509],[-2.23531,43.04277],[-2.23018,43.04014],[-2.23069,43.0359],[-2.21964,43.03503],[-2.2186,43.04032],[-2.21576,43.04319],[-2.20964,43.04112],[-2.20843,43.03891],[-2.20025,43.03742],[-2.19829,43.0395],[-2.19053,43.04122],[-2.19238,43.04223],[-2.1911,43.04859],[-2.1875,43.04766],[-2.1858,43.04854],[-2.18826,43.05807],[-2.19053,43.06],[-2.19097,43.07226],[-2.19319,43.07503],[-2.2044,43.08043],[-2.20721,43.08692],[-2.20584,43.08934],[-2.20258,43.09051],[-2.19922,43.10231],[-2.20823,43.10576],[-2.22014,43.11321],[-2.22718,43.11448],[-2.23782,43.11106],[-2.24215,43.10748],[-2.24245,43.10241],[-2.2447,43.09951],[-2.23808,43.09694],[-2.23512,43.09381],[-2.24032,43.09154],[-2.23916,43.0893],[-2.24445,43.08676],[-2.24439,43.08202],[-2.23994,43.07653],[-2.24219,43.07384],[-2.24889,43.07329],[-2.24693,43.05967],[-2.2466,43.05833]]]}},{"type":"Feature","properties":{"mun_code":"20032","mun_name":"Elgoibar","mun_name_local":null,"prov_code":"20","prov_name":"Gipuzkoa","acom_code":"16","acom_name":"País Vasco","geo_point_2d":{"lon":-2.403390049628763,"lat":43.214488921726335}},"geometry":{"type":"Polygon","coordinates":[[[-2.46325,43.22347],[-2.45866,43.21963],[-2.45131,43.21797],[-2.444,43.21356],[-2.43746,43.20662],[-2.43272,43.20019],[-2.43678,43.19281],[-2.42432,43.1968],[-2.41543,43.19268],[-2.40704,43.19154],[-2.40106,43.18816],[-2.38906,43.18444],[-2.37345,43.17585],[-2.36739,43.17668],[-2.36544,43.18009],[-2.3666,43.18475],[-2.36052,43.18981],[-2.36438,43.19829],[-2.35696,43.20787],[-2.35947,43.21152],[-2.35784,43.21761],[-2.36191,43.21931],[-2.36547,43.22817],[-2.37541,43.23063],[-2.38241,43.23777],[-2.39227,43.23839],[-2.39438,43.24118],[-2.40028,43.2438],[-2.40835,43.24247],[-2.41391,43.24442],[-2.43165,43.24248],[-2.43679,43.2435],[-2.44292,43.24104],[-2.44842,43.23375],[-2.46244,43.22471],[-2.46325,43.22347]]]}},{"type":"Feature","properties":{"mun_code":"20029","mun_name":"Deba","mun_name_local":null,"prov_code":"20","prov_name":"Gipuzkoa","acom_code":"16","acom_name":"País Vasco","geo_point_2d":{"lon":-2.320175928342233,"lat":43.263767817697506}},"geometry":{"type":"Polygon","coordinates":[[[-2.37288,43.2681],[-2.36321,43.26305],[-2.34958,43.24843],[-2.34981,43.24392],[-2.34724,43.24235],[-2.34744,43.23938],[-2.33924,43.23491],[-2.33616,43.23511],[-2.33244,43.23016],[-2.31969,43.22139],[-2.30081,43.21331],[-2.29533,43.21629],[-2.28446,43.22793],[-2.27431,43.236],[-2.27671,43.23686],[-2.27558,43.24148],[-2.2783,43.24281],[-2.288,43.24404],[-2.29519,43.24347],[-2.29604,43.25832],[-2.27944,43.2767],[-2.27542,43.27878],[-2.27472,43.28198],[-2.26746,43.2845],[-2.26626,43.28646],[-2.26865,43.28998],[-2.28618,43.29557],[-2.29516,43.29542],[-2.30351,43.29822],[-2.30417,43.29698],[-2.31117,43.29987],[-2.31318,43.29748],[-2.31637,43.29852],[-2.31778,43.29678],[-2.32017,43.2985],[-2.3213,43.29706],[-2.3237,43.29699],[-2.33333,43.30083],[-2.33862,43.30138],[-2.34058,43.30314],[-2.3412,43.30236],[-2.34537,43.3034],[-2.34625,43.30022],[-2.34889,43.29935],[-2.3531,43.29874],[-2.35523,43.30111],[-2.35892,43.28893],[-2.36076,43.28922],[-2.36369,43.29319],[-2.36734,43.29243],[-2.36834,43.28171],[-2.36489,43.27951],[-2.3666,43.2776],[-2.37063,43.27958],[-2.37396,43.27872],[-2.37506,43.27542],[-2.37157,43.27213],[-2.37299,43.26838],[-2.37288,43.2681]]]}},{"type":"Feature","properties":{"mun_code":"20021","mun_name":"Belauntza","mun_name_local":null,"prov_code":"20","prov_name":"Gipuzkoa","acom_code":"16","acom_name":"País Vasco","geo_point_2d":{"lon":-2.039149861673775,"lat":43.13573541235175}},"geometry":{"type":"Polygon","coordinates":[[[-2.04952,43.12891],[-2.04735,43.12918],[-2.04661,43.13189],[-2.03393,43.12967],[-2.02985,43.13141],[-2.02418,43.12803],[-2.01647,43.12897],[-2.01886,43.13526],[-2.02506,43.13393],[-2.03251,43.13933],[-2.03369,43.13849],[-2.03406,43.14202],[-2.03637,43.14211],[-2.03734,43.14456],[-2.05319,43.14294],[-2.05308,43.13958],[-2.05528,43.13904],[-2.05821,43.13397],[-2.05609,43.13439],[-2.05057,43.12956],[-2.04952,43.12891]]]}},{"type":"Feature","properties":{"mun_code":"20034","mun_name":"Eskoriatza","mun_name_local":null,"prov_code":"20","prov_name":"Gipuzkoa","acom_code":"16","acom_name":"País Vasco","geo_point_2d":{"lon":-2.533252411620804,"lat":42.99957346778005}},"geometry":{"type":"Polygon","coordinates":[[[-2.59301,42.98706],[-2.59236,42.98561],[-2.58924,42.9866],[-2.57828,42.99236],[-2.56068,42.99328],[-2.53909,42.98179],[-2.53573,42.97746],[-2.5353,42.97345],[-2.51124,42.96402],[-2.50507,42.96019],[-2.50014,42.9596],[-2.48727,42.96469],[-2.48335,42.96489],[-2.50165,43.00639],[-2.49813,43.00847],[-2.49928,43.01188],[-2.49723,43.012],[-2.4998,43.01639],[-2.49795,43.02047],[-2.50109,43.02318],[-2.50096,43.02033],[-2.50569,43.01765],[-2.50851,43.01678],[-2.51065,43.01813],[-2.50926,43.01954],[-2.50969,43.02458],[-2.51555,43.02954],[-2.51449,43.03213],[-2.52152,43.03765],[-2.52485,43.04533],[-2.53023,43.04484],[-2.53609,43.03612],[-2.54096,43.0328],[-2.54082,43.02493],[-2.54958,43.01979],[-2.55515,43.02102],[-2.56342,43.01866],[-2.58112,43.00823],[-2.58457,43.00882],[-2.59043,43.00745],[-2.59653,43.00925],[-2.60094,43.00137],[-2.59866,42.99417],[-2.59277,42.9876],[-2.59301,42.98706]]]}},{"type":"Feature","properties":{"mun_code":"20031","mun_name":"Elduain","mun_name_local":null,"prov_code":"20","prov_name":"Gipuzkoa","acom_code":"16","acom_name":"País Vasco","geo_point_2d":{"lon":-1.9746863232553864,"lat":43.16288708152895}},"geometry":{"type":"Polygon","coordinates":[[[-2.01647,43.12897],[-2.01791,43.12693],[-2.0055,43.11768],[-1.99577,43.13614],[-1.99316,43.13814],[-1.97857,43.1466],[-1.9691,43.14402],[-1.96862,43.1462],[-1.96353,43.14905],[-1.96474,43.15409],[-1.96267,43.15471],[-1.96567,43.15681],[-1.96835,43.15687],[-1.96817,43.15819],[-1.96555,43.15745],[-1.96485,43.16073],[-1.96903,43.16421],[-1.96433,43.16477],[-1.96236,43.16658],[-1.96051,43.1645],[-1.95732,43.16565],[-1.95379,43.16449],[-1.95213,43.16551],[-1.95122,43.16386],[-1.94879,43.16561],[-1.94403,43.16516],[-1.94273,43.16324],[-1.9395,43.1628],[-1.93199,43.16453],[-1.92864,43.16409],[-1.92535,43.15986],[-1.91834,43.15965],[-1.91595,43.16387],[-1.91686,43.16919],[-1.92092,43.17256],[-1.93074,43.17482],[-1.93817,43.18023],[-1.94413,43.18064],[-1.94886,43.18253],[-1.96621,43.195],[-1.97971,43.1939],[-1.98277,43.19215],[-1.99076,43.17719],[-1.99447,43.17353],[-1.99665,43.16754],[-2.00322,43.1599],[-2.00326,43.15435],[-2.0125,43.14822],[-2.01089,43.13951],[-2.01317,43.13578],[-2.01739,43.13354],[-2.01647,43.12897]]]}},{"type":"Feature","properties":{"mun_code":"20046","mun_name":"Irura","mun_name_local":null,"prov_code":"20","prov_name":"Gipuzkoa","acom_code":"16","acom_name":"País Vasco","geo_point_2d":{"lon":-2.0572014377457664,"lat":43.16558593340381}},"geometry":{"type":"Polygon","coordinates":[[[-2.06656,43.15762],[-2.06583,43.15682],[-2.06055,43.15901],[-2.05772,43.15825],[-2.04086,43.15936],[-2.05467,43.17564],[-2.05745,43.1769],[-2.06296,43.17178],[-2.07092,43.16784],[-2.07104,43.16429],[-2.068,43.16294],[-2.06621,43.15807],[-2.06656,43.15762]]]}},{"type":"Feature","properties":{"mun_code":"20041","mun_name":"Hernialde","mun_name_local":null,"prov_code":"20","prov_name":"Gipuzkoa","acom_code":"16","acom_name":"País Vasco","geo_point_2d":{"lon":-2.0949623730181286,"lat":43.15383965241287}},"geometry":{"type":"Polygon","coordinates":[[[-2.12082,43.15638],[-2.12094,43.15192],[-2.1147,43.14964],[-2.09505,43.14884],[-2.08883,43.14636],[-2.08524,43.14827],[-2.07201,43.14983],[-2.07188,43.15315],[-2.07828,43.15699],[-2.07909,43.15913],[-2.0897,43.16199],[-2.09826,43.15908],[-2.10898,43.15752],[-2.11189,43.15844],[-2.11444,43.15677],[-2.11945,43.15551],[-2.12046,43.15627],[-2.12082,43.15638]]]}},{"type":"Feature","properties":{"mun_code":"20078","mun_name":"Zaldibia","mun_name_local":null,"prov_code":"20","prov_name":"Gipuzkoa","acom_code":"16","acom_name":"País Vasco","geo_point_2d":{"lon":-2.1377619051059518,"lat":43.02520952434578}},"geometry":{"type":"MultiPolygon","coordinates":[[[[-2.12403,42.99573],[-2.12512,43.00014],[-2.14076,43.00461],[-2.14066,42.99946],[-2.13435,42.99708],[-2.12458,42.99562],[-2.12403,42.99573]]],[[[-2.12866,42.98602],[-2.1283,42.9907],[-2.13371,42.99341],[-2.13142,42.99117],[-2.13316,42.98684],[-2.13108,42.98623],[-2.12866,42.98602]]],[[[-2.16289,43.05289],[-2.16168,43.05066],[-2.16598,43.04791],[-2.16861,43.0406],[-2.1624,43.03828],[-2.15898,43.03278],[-2.16044,43.03247],[-2.15958,43.03028],[-2.15485,43.02964],[-2.15599,43.02414],[-2.15433,43.02174],[-2.16088,43.0202],[-2.16161,43.01901],[-2.15391,43.01578],[-2.1537,43.01773],[-2.15002,43.0191],[-2.14772,43.01537],[-2.14695,43.01598],[-2.1432,43.01292],[-2.14152,43.01327],[-2.14507,43.00607],[-2.14076,43.00461],[-2.13617,43.00894],[-2.13644,43.00677],[-2.13257,43.00608],[-2.13181,43.00453],[-2.12472,43.00388],[-2.12637,43.00199],[-2.12503,43.00038],[-2.11953,43.00054],[-2.11617,42.99486],[-2.12246,42.99331],[-2.1208,42.98991],[-2.11497,42.99087],[-2.11431,43.00006],[-2.11839,43.03041],[-2.11364,43.032],[-2.12268,43.04202],[-2.13424,43.04326],[-2.14054,43.04105],[-2.14893,43.05261],[-2.15089,43.05215],[-2.14998,43.05378],[-2.15158,43.05544],[-2.16269,43.05291],[-2.16289,43.05289]]]]}},{"type":"Feature","properties":{"mun_code":"20040","mun_name":"Hernani","mun_name_local":null,"prov_code":"20","prov_name":"Gipuzkoa","acom_code":"16","acom_name":"País Vasco","geo_point_2d":{"lon":-1.9429778548713197,"lat":43.23603615976658}},"geometry":{"type":"Polygon","coordinates":[[[-2.00558,43.27747],[-2.00418,43.2697],[-1.99999,43.26687],[-1.99995,43.26103],[-1.99038,43.26031],[-1.98416,43.25801],[-1.97792,43.25853],[-1.97709,43.25125],[-1.97401,43.24576],[-1.96738,43.24557],[-1.96446,43.24306],[-1.96222,43.24327],[-1.96323,43.2404],[-1.95072,43.23269],[-1.94619,43.22837],[-1.94231,43.2277],[-1.9414,43.22927],[-1.93289,43.22686],[-1.93017,43.22388],[-1.92643,43.22277],[-1.93313,43.2235],[-1.9389,43.21944],[-1.94816,43.21764],[-1.94955,43.21486],[-1.94149,43.20847],[-1.94091,43.20459],[-1.94346,43.20207],[-1.94458,43.19453],[-1.94695,43.19267],[-1.95876,43.18925],[-1.94788,43.18206],[-1.93817,43.18023],[-1.93074,43.17482],[-1.92092,43.17256],[-1.92288,43.17899],[-1.92205,43.18672],[-1.91574,43.19245],[-1.91098,43.20435],[-1.91334,43.20988],[-1.91301,43.22132],[-1.91596,43.22299],[-1.91088,43.22723],[-1.912,43.22931],[-1.90843,43.23281],[-1.90968,43.23562],[-1.90144,43.23667],[-1.89883,43.23936],[-1.89877,43.24187],[-1.89238,43.24431],[-1.89308,43.25006],[-1.90042,43.25213],[-1.902,43.25026],[-1.90366,43.2512],[-1.90517,43.25665],[-1.91487,43.25396],[-1.91901,43.25984],[-1.92494,43.25895],[-1.92694,43.25677],[-1.93214,43.25552],[-1.93338,43.25365],[-1.93792,43.25285],[-1.93977,43.26013],[-1.93867,43.26235],[-1.94251,43.26796],[-1.95035,43.26709],[-1.95903,43.27366],[-1.95773,43.27699],[-1.96003,43.2751],[-1.96401,43.27527],[-1.97742,43.28224],[-1.98454,43.28353],[-1.9906,43.27836],[-2.00091,43.27859],[-2.00404,43.27729],[-2.00558,43.27747]]]}},{"type":"Feature","properties":{"mun_code":"20058","mun_name":"Olaberria","mun_name_local":null,"prov_code":"20","prov_name":"Gipuzkoa","acom_code":"16","acom_name":"País Vasco","geo_point_2d":{"lon":-2.206720304471251,"lat":43.0242473049403}},"geometry":{"type":"Polygon","coordinates":[[[-2.21964,43.03503],[-2.22154,43.02653],[-2.21686,43.02288],[-2.21548,43.00958],[-2.20579,43.00142],[-2.19984,43.0081],[-2.20261,43.0126],[-2.19305,43.01738],[-2.19027,43.02892],[-2.19868,43.03812],[-2.20025,43.03742],[-2.20843,43.03891],[-2.21204,43.04232],[-2.21576,43.04319],[-2.21746,43.04185],[-2.21969,43.03601],[-2.21964,43.03503]]]}},{"type":"Feature","properties":{"mun_code":"20008","mun_name":"Amezketa","mun_name_local":null,"prov_code":"20","prov_name":"Gipuzkoa","acom_code":"16","acom_name":"País Vasco","geo_point_2d":{"lon":-2.0718810467907405,"lat":43.04844555188856}},"geometry":{"type":"Polygon","coordinates":[[[-2.09866,43.06532],[-2.0932,43.04974],[-2.0951,43.04237],[-2.08846,43.02267],[-2.08329,43.02217],[-2.05578,43.0252],[-2.05286,43.02716],[-2.04139,43.0297],[-2.04213,43.04013],[-2.0449,43.04258],[-2.04343,43.04576],[-2.04361,43.0598],[-2.07003,43.06167],[-2.07516,43.06349],[-2.06773,43.07556],[-2.06801,43.07811],[-2.08608,43.08184],[-2.08913,43.08133],[-2.08685,43.0756],[-2.09774,43.07081],[-2.09876,43.06593],[-2.09866,43.06532]]]}},{"type":"Feature","properties":{"mun_code":"20030","mun_name":"Eibar","mun_name_local":null,"prov_code":"20","prov_name":"Gipuzkoa","acom_code":"16","acom_name":"País Vasco","geo_point_2d":{"lon":-2.466228247326758,"lat":43.196334191004254}},"geometry":{"type":"Polygon","coordinates":[[[-2.49899,43.21209],[-2.49948,43.20976],[-2.49489,43.20475],[-2.49106,43.20187],[-2.48688,43.20144],[-2.48818,43.1991],[-2.48663,43.19675],[-2.4892,43.19347],[-2.48899,43.18706],[-2.49248,43.18088],[-2.49004,43.17984],[-2.48487,43.17161],[-2.48131,43.17532],[-2.4777,43.17434],[-2.47438,43.17192],[-2.4738,43.16871],[-2.46014,43.16298],[-2.45175,43.1704],[-2.44387,43.16997],[-2.43949,43.17738],[-2.44036,43.18566],[-2.43669,43.18866],[-2.4374,43.19364],[-2.43388,43.19663],[-2.43272,43.20019],[-2.444,43.21356],[-2.45131,43.21797],[-2.45866,43.21963],[-2.46325,43.22347],[-2.47328,43.22183],[-2.48322,43.2244],[-2.49,43.22383],[-2.49412,43.2257],[-2.49777,43.22034],[-2.49977,43.21309],[-2.49899,43.21209]]]}},{"type":"Feature","properties":{"mun_code":"20070","mun_name":"Segura","mun_name_local":null,"prov_code":"20","prov_name":"Gipuzkoa","acom_code":"16","acom_name":"País Vasco","geo_point_2d":{"lon":-2.2596385100102307,"lat":42.99621019402805}},"geometry":{"type":"Polygon","coordinates":[[[-2.28233,42.9962],[-2.27271,42.99403],[-2.26269,42.96801],[-2.2545,42.97609],[-2.25295,42.98158],[-2.24386,42.9898],[-2.24473,42.99516],[-2.24735,42.99625],[-2.24453,43.00718],[-2.24627,43.01503],[-2.24903,43.01601],[-2.24774,43.02072],[-2.25901,43.02042],[-2.26165,43.01802],[-2.25832,43.01771],[-2.25724,43.016],[-2.25961,43.01256],[-2.25798,43.00992],[-2.26291,43.00691],[-2.26614,43.00777],[-2.2706,43.00606],[-2.27904,43.0053],[-2.28161,42.99753],[-2.28233,42.9962]]]}},{"type":"Feature","properties":{"mun_code":"20035","mun_name":"Ezkio-Itsaso","mun_name_local":null,"prov_code":"20","prov_name":"Gipuzkoa","acom_code":"16","acom_name":"País Vasco","geo_point_2d":{"lon":-2.267423955830524,"lat":43.0839240507416}},"geometry":{"type":"Polygon","coordinates":[[[-2.30393,43.07077],[-2.30114,43.06758],[-2.29927,43.06945],[-2.29422,43.06756],[-2.28733,43.06974],[-2.28325,43.06665],[-2.27841,43.06584],[-2.27618,43.06194],[-2.26588,43.05718],[-2.26344,43.05368],[-2.25912,43.0571],[-2.2466,43.05833],[-2.2484,43.06228],[-2.24749,43.06717],[-2.24889,43.07329],[-2.24018,43.07479],[-2.24005,43.0769],[-2.24439,43.08202],[-2.24445,43.08676],[-2.23916,43.0893],[-2.24032,43.09154],[-2.23512,43.09381],[-2.23808,43.09694],[-2.2447,43.09951],[-2.24245,43.10241],[-2.24215,43.10748],[-2.25473,43.10577],[-2.26659,43.11275],[-2.27121,43.11124],[-2.27575,43.10673],[-2.28049,43.10676],[-2.28801,43.09951],[-2.29074,43.09037],[-2.29677,43.08574],[-2.29669,43.08086],[-2.30009,43.0764],[-2.30393,43.07077]]]}},{"type":"Feature","properties":{"mun_code":"20066","mun_name":"Errezil","mun_name_local":null,"prov_code":"20","prov_name":"Gipuzkoa","acom_code":"16","acom_name":"País Vasco","geo_point_2d":{"lon":-2.185320221429589,"lat":43.17574282502121}},"geometry":{"type":"MultiPolygon","coordinates":[[[[-2.17237,43.098],[-2.17196,43.10209],[-2.18301,43.10754],[-2.18058,43.1008],[-2.17282,43.09811],[-2.17237,43.098]]],[[[-2.17255,43.20848],[-2.17773,43.20636],[-2.18133,43.20728],[-2.18579,43.20234],[-2.19447,43.19765],[-2.19861,43.19913],[-2.21517,43.20071],[-2.22825,43.19739],[-2.23102,43.19534],[-2.22737,43.19488],[-2.21847,43.1873],[-2.22655,43.17878],[-2.22404,43.17772],[-2.22148,43.17396],[-2.22657,43.17118],[-2.21949,43.16359],[-2.2148,43.16224],[-2.20425,43.15435],[-2.20887,43.15068],[-2.19717,43.15121],[-2.19333,43.14804],[-2.1906,43.14802],[-2.18787,43.15011],[-2.17845,43.14627],[-2.1725,43.14801],[-2.16721,43.14776],[-2.16453,43.15093],[-2.15676,43.15154],[-2.15239,43.15577],[-2.14772,43.16778],[-2.15275,43.17053],[-2.14754,43.17351],[-2.15358,43.17912],[-2.15036,43.18149],[-2.1494,43.18531],[-2.15145,43.18739],[-2.14836,43.194],[-2.15207,43.19355],[-2.15869,43.19506],[-2.1652,43.20445],[-2.17144,43.20786],[-2.17255,43.20848]]]]}},{"type":"Feature","properties":{"mun_code":"20906","mun_name":"Altzaga","mun_name_local":null,"prov_code":"20","prov_name":"Gipuzkoa","acom_code":"16","acom_name":"País Vasco","geo_point_2d":{"lon":-2.15075031469222,"lat":43.065517554885155}},"geometry":{"type":"Polygon","coordinates":[[[-2.162,43.06511],[-2.15727,43.06183],[-2.15505,43.05513],[-2.15158,43.05544],[-2.14998,43.05378],[-2.15089,43.05215],[-2.14893,43.05261],[-2.14552,43.0595],[-2.14056,43.06272],[-2.14397,43.06968],[-2.1429,43.0739],[-2.14635,43.07567],[-2.15233,43.07266],[-2.15713,43.07645],[-2.15724,43.0696],[-2.16126,43.06577],[-2.162,43.06511]]]}},{"type":"Feature","properties":{"mun_code":"20079","mun_name":"Zarautz","mun_name_local":null,"prov_code":"20","prov_name":"Gipuzkoa","acom_code":"16","acom_name":"País Vasco","geo_point_2d":{"lon":-2.169211551205457,"lat":43.27407256890285}},"geometry":{"type":"MultiPolygon","coordinates":[[[[-2.20173,43.2657],[-2.20708,43.26248],[-2.20369,43.25754],[-2.19829,43.25773],[-2.19895,43.26173],[-2.20173,43.2657]]],[[[-2.18949,43.29236],[-2.18947,43.28674],[-2.19627,43.28141],[-2.19374,43.28115],[-2.19459,43.27861],[-2.19365,43.27581],[-2.19062,43.27441],[-2.1909,43.27191],[-2.18609,43.27167],[-2.18662,43.27045],[-2.18316,43.27248],[-2.18128,43.27149],[-2.17894,43.26101],[-2.18549,43.25066],[-2.18188,43.24753],[-2.18589,43.24503],[-2.1895,43.24459],[-2.18615,43.24278],[-2.17871,43.24418],[-2.16817,43.25645],[-2.16037,43.26029],[-2.16022,43.26322],[-2.14735,43.26346],[-2.14417,43.26629],[-2.14175,43.27412],[-2.14452,43.2787],[-2.14054,43.28053],[-2.14357,43.2818],[-2.14227,43.28278],[-2.14299,43.29025],[-2.14086,43.29176],[-2.14231,43.29347],[-2.14401,43.29254],[-2.14705,43.29353],[-2.14959,43.29596],[-2.14989,43.29398],[-2.1563,43.29184],[-2.17429,43.28846],[-2.17784,43.28907],[-2.17885,43.29146],[-2.18373,43.29468],[-2.18925,43.29237],[-2.18949,43.29236]]],[[[-2.19078,43.27092],[-2.19309,43.27058],[-2.19542,43.27194],[-2.19835,43.27102],[-2.19867,43.26962],[-2.19162,43.26892],[-2.18877,43.27014],[-2.19021,43.26998],[-2.19078,43.27092]]],[[[-2.20557,43.27271],[-2.20677,43.26948],[-2.20459,43.26874],[-2.19879,43.27341],[-2.20231,43.27287],[-2.20557,43.27271]]]]}},{"type":"Feature","properties":{"mun_code":"20013","mun_name":"Aretxabaleta","mun_name_local":null,"prov_code":"20","prov_name":"Gipuzkoa","acom_code":"16","acom_name":"País Vasco","geo_point_2d":{"lon":-2.485627593984883,"lat":43.01894748084869}},"geometry":{"type":"Polygon","coordinates":[[[-2.5286,43.05191],[-2.52152,43.03765],[-2.51449,43.03213],[-2.51555,43.02954],[-2.50969,43.02458],[-2.50926,43.01954],[-2.51065,43.01813],[-2.50851,43.01678],[-2.50569,43.01765],[-2.50096,43.02033],[-2.50109,43.02318],[-2.49795,43.02047],[-2.4998,43.01639],[-2.49723,43.012],[-2.49928,43.01188],[-2.49813,43.00847],[-2.50165,43.00639],[-2.48278,42.96486],[-2.47896,42.96593],[-2.47961,42.97429],[-2.47197,42.98645],[-2.47101,42.99724],[-2.46187,43.00744],[-2.45158,43.02443],[-2.45339,43.03436],[-2.45724,43.03823],[-2.45866,43.0442],[-2.46267,43.04578],[-2.46791,43.04476],[-2.47402,43.04009],[-2.4878,43.03889],[-2.49068,43.04248],[-2.49255,43.04248],[-2.4936,43.04806],[-2.49575,43.04951],[-2.49875,43.04709],[-2.49996,43.04839],[-2.5094,43.04976],[-2.51722,43.05307],[-2.52007,43.05278],[-2.5286,43.05191]]]}},{"type":"Feature","properties":{"mun_code":"20007","mun_name":"Altzo","mun_name_local":null,"prov_code":"20","prov_name":"Gipuzkoa","acom_code":"16","acom_name":"País Vasco","geo_point_2d":{"lon":-2.068121683099362,"lat":43.09686785627894}},"geometry":{"type":"Polygon","coordinates":[[[-2.08961,43.11214],[-2.09576,43.1114],[-2.09396,43.1051],[-2.09528,43.10221],[-2.08834,43.09832],[-2.08445,43.0908],[-2.07484,43.08988],[-2.06185,43.08496],[-2.05004,43.07382],[-2.04688,43.07339],[-2.04102,43.0755],[-2.04103,43.08062],[-2.04911,43.08783],[-2.05263,43.09494],[-2.05777,43.11231],[-2.06335,43.11203],[-2.06348,43.10899],[-2.0715,43.11142],[-2.07331,43.11426],[-2.08121,43.11196],[-2.0862,43.11361],[-2.08936,43.11277],[-2.08961,43.11214]]]}},{"type":"Feature","properties":{"mun_code":"20080","mun_name":"Zumarraga","mun_name_local":null,"prov_code":"20","prov_name":"Gipuzkoa","acom_code":"16","acom_name":"País Vasco","geo_point_2d":{"lon":-2.3099092823763048,"lat":43.10218341444949}},"geometry":{"type":"Polygon","coordinates":[[[-2.34211,43.11979],[-2.34327,43.11811],[-2.34165,43.11713],[-2.34203,43.11439],[-2.33857,43.11395],[-2.33735,43.11187],[-2.33339,43.1112],[-2.33052,43.1144],[-2.3273,43.11372],[-2.32584,43.11166],[-2.32462,43.11361],[-2.32027,43.10859],[-2.31695,43.10837],[-2.31758,43.10526],[-2.31612,43.10381],[-2.31771,43.09961],[-2.31202,43.09407],[-2.31608,43.08958],[-2.3214,43.08711],[-2.32431,43.07879],[-2.33027,43.07231],[-2.32126,43.06578],[-2.30672,43.06678],[-2.29729,43.07941],[-2.29677,43.08574],[-2.29099,43.08993],[-2.28801,43.09951],[-2.28049,43.10676],[-2.28362,43.10712],[-2.28762,43.11116],[-2.28769,43.11525],[-2.2908,43.11919],[-2.30406,43.12792],[-2.30479,43.1308],[-2.30656,43.13129],[-2.3167,43.1309],[-2.32023,43.13209],[-2.32957,43.13038],[-2.33683,43.12049],[-2.34211,43.11979]]]}},{"type":"Feature","properties":{"mun_code":"20907","mun_name":"Gaztelu","mun_name_local":null,"prov_code":"20","prov_name":"Gipuzkoa","acom_code":"16","acom_name":"País Vasco","geo_point_2d":{"lon":-2.018789616278584,"lat":43.10695217106648}},"geometry":{"type":"MultiPolygon","coordinates":[[[[-2.01236,43.07309],[-2.01665,43.07527],[-2.01997,43.08087],[-2.02224,43.08089],[-2.02348,43.07868],[-2.02153,43.07784],[-2.02314,43.07539],[-2.02451,43.07609],[-2.02933,43.07377],[-2.03354,43.07351],[-2.02282,43.06519],[-2.01505,43.06604],[-2.01445,43.071],[-2.01236,43.07309]]],[[[-1.97524,43.0913],[-1.97926,43.09096],[-1.9806,43.09395],[-1.99162,43.09394],[-1.9902,43.09168],[-1.98085,43.09285],[-1.98,43.09018],[-1.98172,43.09006],[-1.98168,43.09215],[-1.98528,43.08919],[-1.9788,43.08171],[-1.97314,43.08461],[-1.97543,43.08941],[-1.97524,43.0913]]],[[[-2.0559,43.11598],[-2.05717,43.11432],[-2.05534,43.11416],[-2.05545,43.11507],[-2.0559,43.11598]]],[[[-2.03393,43.12967],[-2.03389,43.12504],[-2.03972,43.12066],[-2.04918,43.11935],[-2.05486,43.11606],[-2.05062,43.11445],[-2.04467,43.11582],[-2.04138,43.11384],[-2.03803,43.11469],[-2.03218,43.11201],[-2.03403,43.10913],[-2.02882,43.10986],[-2.02085,43.10401],[-2.00449,43.10426],[-1.99705,43.10096],[-1.99819,43.10502],[-2.00029,43.10655],[-2.00142,43.11441],[-2.01791,43.12693],[-2.01647,43.12897],[-2.02418,43.12803],[-2.02985,43.13141],[-2.03308,43.13074],[-2.03393,43.12967]]]]}},{"type":"Feature","properties":{"mun_code":"20049","mun_name":"Lazkao","mun_name_local":null,"prov_code":"20","prov_name":"Gipuzkoa","acom_code":"16","acom_name":"País Vasco","geo_point_2d":{"lon":-2.1719496813097248,"lat":43.02102609048938}},"geometry":{"type":"MultiPolygon","coordinates":[[[[-2.15984,43.01815],[-2.16126,43.01747],[-2.15936,43.01765],[-2.15984,43.01815]]],[[[-2.14076,43.00461],[-2.14507,43.00607],[-2.14152,43.01327],[-2.1432,43.01292],[-2.14695,43.01598],[-2.15214,43.01128],[-2.15555,43.01295],[-2.14429,43.00149],[-2.14157,42.99561],[-2.13934,42.99385],[-2.13371,42.99341],[-2.1283,42.9907],[-2.12866,42.98602],[-2.12496,42.9847],[-2.114,42.98915],[-2.11497,42.99087],[-2.1208,42.98991],[-2.12403,42.99573],[-2.13435,42.99708],[-2.14066,42.99946],[-2.1415,43.00354],[-2.14076,43.00461]]],[[[-2.19868,43.03812],[-2.19027,43.02892],[-2.19305,43.01738],[-2.20261,43.0126],[-2.19984,43.0081],[-2.20579,43.00142],[-2.20227,42.99917],[-2.19335,43.00253],[-2.192,43.00807],[-2.18622,43.01271],[-2.18452,43.01807],[-2.17448,43.01996],[-2.16584,43.02024],[-2.16544,43.01898],[-2.16161,43.01901],[-2.16088,43.0202],[-2.15433,43.02174],[-2.15599,43.02414],[-2.15485,43.02964],[-2.15958,43.03028],[-2.16044,43.03247],[-2.15898,43.03278],[-2.1624,43.03828],[-2.16641,43.04019],[-2.16819,43.03978],[-2.16869,43.04225],[-2.17439,43.03853],[-2.17791,43.0426],[-2.1848,43.044],[-2.18618,43.04786],[-2.1911,43.04859],[-2.19238,43.04223],[-2.19053,43.04122],[-2.19829,43.0395],[-2.19868,43.03812]]]]}},{"type":"Feature","properties":{"mun_code":"20042","mun_name":"Ibarra","mun_name_local":null,"prov_code":"20","prov_name":"Gipuzkoa","acom_code":"16","acom_name":"País Vasco","geo_point_2d":{"lon":-2.04910368769408,"lat":43.14237641440053}},"geometry":{"type":"Polygon","coordinates":[[[-2.06582,43.12207],[-2.06388,43.12127],[-2.05818,43.12222],[-2.05829,43.12578],[-2.04952,43.12891],[-2.05609,43.13439],[-2.05821,43.13397],[-2.05528,43.13904],[-2.05308,43.13958],[-2.05319,43.14294],[-2.03734,43.14456],[-2.03832,43.14841],[-2.03313,43.15166],[-2.02358,43.15506],[-2.01152,43.15699],[-2.01067,43.15995],[-2.02546,43.15805],[-2.02501,43.16011],[-2.02717,43.16205],[-2.03143,43.1598],[-2.03073,43.15643],[-2.04942,43.15225],[-2.05502,43.14926],[-2.06407,43.13896],[-2.06571,43.13857],[-2.06648,43.14002],[-2.07066,43.13389],[-2.06716,43.13075],[-2.06873,43.12712],[-2.06619,43.12247],[-2.06582,43.12207]]]}},{"type":"Feature","properties":{"mun_code":"20014","mun_name":"Asteasu","mun_name_local":null,"prov_code":"20","prov_name":"Gipuzkoa","acom_code":"16","acom_name":"País Vasco","geo_point_2d":{"lon":-2.1152713012503996,"lat":43.20408176347551}},"geometry":{"type":"Polygon","coordinates":[[[-2.15036,43.18149],[-2.14483,43.18495],[-2.14154,43.19013],[-2.13517,43.19407],[-2.12099,43.1916],[-2.11,43.19467],[-2.09877,43.19167],[-2.09114,43.18684],[-2.08272,43.18398],[-2.08691,43.17896],[-2.08421,43.17765],[-2.07778,43.17978],[-2.07461,43.17926],[-2.07421,43.19063],[-2.07982,43.19138],[-2.08179,43.19028],[-2.08458,43.19225],[-2.09322,43.2047],[-2.09018,43.20749],[-2.09034,43.2094],[-2.09398,43.21181],[-2.10291,43.22402],[-2.10817,43.22637],[-2.10888,43.22839],[-2.11085,43.22835],[-2.12828,43.22362],[-2.13126,43.22163],[-2.13143,43.21911],[-2.13443,43.21772],[-2.13684,43.21195],[-2.14512,43.21059],[-2.14872,43.20708],[-2.14767,43.20516],[-2.15079,43.19972],[-2.14836,43.194],[-2.15145,43.18739],[-2.1494,43.18531],[-2.15035,43.18187],[-2.15036,43.18149]]]}},{"type":"Feature","properties":{"mun_code":"20011","mun_name":"Antzuola","mun_name_local":null,"prov_code":"20","prov_name":"Gipuzkoa","acom_code":"16","acom_name":"País Vasco","geo_point_2d":{"lon":-2.3753600966559754,"lat":43.09779274295999}},"geometry":{"type":"Polygon","coordinates":[[[-2.41251,43.07398],[-2.40209,43.07628],[-2.39566,43.07203],[-2.39311,43.06796],[-2.38202,43.06672],[-2.37812,43.06502],[-2.3734,43.06958],[-2.36719,43.07019],[-2.35353,43.07472],[-2.35394,43.07881],[-2.34981,43.09147],[-2.34576,43.09984],[-2.34349,43.10099],[-2.34661,43.10333],[-2.34662,43.1074],[-2.33784,43.1121],[-2.33857,43.11395],[-2.34203,43.11439],[-2.34165,43.11713],[-2.34327,43.11811],[-2.34216,43.11994],[-2.35004,43.12679],[-2.35911,43.12346],[-2.36508,43.12413],[-2.36952,43.12695],[-2.37791,43.12757],[-2.3884,43.12493],[-2.39262,43.11883],[-2.39664,43.11822],[-2.40293,43.11222],[-2.40066,43.10873],[-2.40377,43.10691],[-2.40454,43.10075],[-2.40329,43.09832],[-2.40831,43.08927],[-2.40623,43.07749],[-2.41093,43.07483],[-2.41251,43.07398]]]}},{"type":"Feature","properties":{"mun_code":"20081","mun_name":"Zumaia","mun_name_local":null,"prov_code":"20","prov_name":"Gipuzkoa","acom_code":"16","acom_name":"País Vasco","geo_point_2d":{"lon":-2.2449617475151125,"lat":43.286037953492176}},"geometry":{"type":"Polygon","coordinates":[[[-2.24558,43.30237],[-2.24815,43.30212],[-2.24605,43.306],[-2.24943,43.30292],[-2.2595,43.30374],[-2.26239,43.29945],[-2.26832,43.30055],[-2.2793,43.2957],[-2.28575,43.29499],[-2.26448,43.28864],[-2.26341,43.28654],[-2.26583,43.28636],[-2.26667,43.28202],[-2.26104,43.27586],[-2.25879,43.27613],[-2.25785,43.28123],[-2.25482,43.28237],[-2.25521,43.2804],[-2.25266,43.27914],[-2.25171,43.27587],[-2.25259,43.27301],[-2.2554,43.2742],[-2.25661,43.27263],[-2.25543,43.26865],[-2.25365,43.26793],[-2.25262,43.26969],[-2.24682,43.26998],[-2.2422,43.27359],[-2.23378,43.27572],[-2.22596,43.27019],[-2.22208,43.2718],[-2.20725,43.27309],[-2.2137,43.27497],[-2.21254,43.28176],[-2.21881,43.28575],[-2.22178,43.28605],[-2.22747,43.29107],[-2.24068,43.29616],[-2.24491,43.3015],[-2.24558,43.30237]]]}},{"type":"Feature","properties":{"mun_code":"20004","mun_name":"Albiztur","mun_name_local":null,"prov_code":"20","prov_name":"Gipuzkoa","acom_code":"16","acom_name":"País Vasco","geo_point_2d":{"lon":-2.1395838583068856,"lat":43.13145304483063}},"geometry":{"type":"Polygon","coordinates":[[[-2.18301,43.10754],[-2.17196,43.10209],[-2.17237,43.098],[-2.16893,43.09757],[-2.16611,43.10398],[-2.16358,43.10669],[-2.16131,43.10681],[-2.16125,43.10884],[-2.15752,43.11191],[-2.15066,43.11339],[-2.14382,43.11704],[-2.12609,43.11744],[-2.12638,43.12056],[-2.12097,43.12483],[-2.11782,43.12416],[-2.11733,43.12575],[-2.11286,43.12528],[-2.11511,43.13468],[-2.11102,43.13855],[-2.12245,43.14776],[-2.12463,43.156],[-2.12343,43.15642],[-2.13235,43.15746],[-2.13582,43.15953],[-2.14064,43.16372],[-2.14754,43.17351],[-2.1528,43.17027],[-2.14419,43.16532],[-2.13714,43.15159],[-2.14087,43.14704],[-2.14241,43.143],[-2.14151,43.14018],[-2.14992,43.13541],[-2.15311,43.13103],[-2.15652,43.11857],[-2.165,43.11072],[-2.1693,43.11091],[-2.17187,43.11288],[-2.17963,43.11324],[-2.17806,43.11206],[-2.18054,43.1095],[-2.17784,43.10808],[-2.17918,43.10713],[-2.18111,43.10907],[-2.18301,43.10754]]]}},{"type":"Feature","properties":{"mun_code":"20902","mun_name":"Lasarte-Oria","mun_name_local":null,"prov_code":"20","prov_name":"Gipuzkoa","acom_code":"16","acom_name":"País Vasco","geo_point_2d":{"lon":-2.0128648830952223,"lat":43.26021844194876}},"geometry":{"type":"Polygon","coordinates":[[[-2.02803,43.27299],[-2.02164,43.26609],[-2.01977,43.26159],[-2.02086,43.24898],[-2.02479,43.24445],[-2.02093,43.23902],[-2.00907,43.2438],[-2.00617,43.24686],[-2.00295,43.25259],[-2.00427,43.2578],[-2.00001,43.25888],[-1.99999,43.26687],[-2.00418,43.2697],[-2.00362,43.27267],[-2.00688,43.27789],[-2.01023,43.27756],[-2.01723,43.27951],[-2.01887,43.27539],[-2.02282,43.27465],[-2.02456,43.27251],[-2.02803,43.27299]]]}},{"type":"Feature","properties":{"mun_code":"53000","mun_name":"Parzonería general de Guipúzcoa y Álava","mun_name_local":null,"prov_code":"20","prov_name":"Gipuzkoa","acom_code":"16","acom_name":"País Vasco","geo_point_2d":{"lon":-2.2843777362190263,"lat":42.93208510230326}},"geometry":{"type":"Polygon","coordinates":[[[-2.3668,42.98004],[-2.36914,42.97036],[-2.36215,42.96691],[-2.36288,42.96298],[-2.35555,42.95706],[-2.35371,42.95171],[-2.3548,42.95003],[-2.35192,42.94721],[-2.3509,42.94261],[-2.33635,42.9349],[-2.31644,42.92906],[-2.31426,42.9267],[-2.30961,42.92606],[-2.30495,42.92744],[-2.30232,42.92595],[-2.29772,42.91505],[-2.29119,42.90805],[-2.29281,42.90612],[-2.28954,42.90231],[-2.27317,42.90168],[-2.25545,42.89855],[-2.25078,42.89573],[-2.24842,42.89742],[-2.23992,42.89525],[-2.23776,42.896],[-2.23782,42.92145],[-2.23557,42.92661],[-2.23216,42.93179],[-2.22032,42.93319],[-2.21551,42.93689],[-2.21623,42.94199],[-2.21093,42.94535],[-2.21137,42.95103],[-2.2266,42.94761],[-2.24057,42.94626],[-2.25231,42.9487],[-2.25586,42.94802],[-2.25835,42.94661],[-2.25674,42.94279],[-2.25917,42.93968],[-2.27405,42.9314],[-2.279,42.93139],[-2.28035,42.93327],[-2.29011,42.93632],[-2.30397,42.93652],[-2.32363,42.94606],[-2.3265,42.94855],[-2.32949,42.95528],[-2.33824,42.96262],[-2.34179,42.96958],[-2.34911,42.97526],[-2.352,42.97476],[-2.36268,42.97882],[-2.3668,42.98004]]]}},{"type":"Feature","properties":{"mun_code":"20062","mun_name":"Ormaiztegi","mun_name_local":null,"prov_code":"20","prov_name":"Gipuzkoa","acom_code":"16","acom_name":"País Vasco","geo_point_2d":{"lon":-2.2514329607501744,"lat":43.042223747213434}},"geometry":{"type":"Polygon","coordinates":[[[-2.2707,43.03861],[-2.26249,43.03479],[-2.26074,43.03078],[-2.24777,43.02543],[-2.24567,43.03146],[-2.24048,43.03288],[-2.2399,43.03205],[-2.23595,43.03527],[-2.23069,43.0359],[-2.22989,43.03839],[-2.23059,43.04064],[-2.23531,43.04277],[-2.23624,43.04509],[-2.24048,43.04577],[-2.2466,43.05833],[-2.26021,43.05652],[-2.26203,43.05384],[-2.26138,43.05176],[-2.26416,43.05171],[-2.26314,43.04843],[-2.26647,43.04678],[-2.27122,43.03885],[-2.2707,43.03861]]]}},{"type":"Feature","properties":{"mun_code":"20059","mun_name":"Oñati","mun_name_local":null,"prov_code":"20","prov_name":"Gipuzkoa","acom_code":"16","acom_name":"País Vasco","geo_point_2d":{"lon":-2.413792531346027,"lat":43.01122266495795}},"geometry":{"type":"Polygon","coordinates":[[[-2.47896,42.96593],[-2.46611,42.96269],[-2.4612,42.95938],[-2.45094,42.95645],[-2.44213,42.95909],[-2.42248,42.95559],[-2.41515,42.9588],[-2.4099,42.9595],[-2.39992,42.95657],[-2.39423,42.95213],[-2.38981,42.95265],[-2.37668,42.94804],[-2.37113,42.9489],[-2.36236,42.94678],[-2.3548,42.95003],[-2.35468,42.95547],[-2.36288,42.96298],[-2.36215,42.96691],[-2.36914,42.97036],[-2.36651,42.98049],[-2.36713,42.98577],[-2.37263,42.98793],[-2.3686,42.99309],[-2.35506,43.00032],[-2.35163,43.00788],[-2.35625,43.01033],[-2.35938,43.01497],[-2.35926,43.02097],[-2.36154,43.02325],[-2.35679,43.02824],[-2.35942,43.03261],[-2.36822,43.03715],[-2.36649,43.04125],[-2.36007,43.04686],[-2.37097,43.05312],[-2.37812,43.06502],[-2.38202,43.06672],[-2.39311,43.06796],[-2.39566,43.07203],[-2.40209,43.07628],[-2.41429,43.07305],[-2.42299,43.07671],[-2.43162,43.07575],[-2.43744,43.07902],[-2.44716,43.08038],[-2.44675,43.08223],[-2.44834,43.07657],[-2.45615,43.07208],[-2.45824,43.0668],[-2.46379,43.06164],[-2.46645,43.05623],[-2.4619,43.05537],[-2.45826,43.05157],[-2.46267,43.04578],[-2.45744,43.04247],[-2.45724,43.03823],[-2.45339,43.03436],[-2.45132,43.02842],[-2.45158,43.02443],[-2.46187,43.00744],[-2.47101,42.99724],[-2.47197,42.98645],[-2.47961,42.97429],[-2.47899,42.97073],[-2.47896,42.96593]]]}},{"type":"Feature","properties":{"mun_code":"20016","mun_name":"Aia","mun_name_local":null,"prov_code":"20","prov_name":"Gipuzkoa","acom_code":"16","acom_name":"País Vasco","geo_point_2d":{"lon":-2.149386458161042,"lat":43.24305613151661}},"geometry":{"type":"Polygon","coordinates":[[[-2.21585,43.26015],[-2.20749,43.25479],[-2.21346,43.24752],[-2.21092,43.24701],[-2.20982,43.24147],[-2.20368,43.23616],[-2.19923,43.22377],[-2.19399,43.22093],[-2.18883,43.21415],[-2.17354,43.20905],[-2.1652,43.20445],[-2.15869,43.19506],[-2.15207,43.19355],[-2.14836,43.194],[-2.15079,43.19972],[-2.14767,43.20516],[-2.14872,43.20708],[-2.14512,43.21059],[-2.13684,43.21195],[-2.13443,43.21772],[-2.131,43.21958],[-2.13126,43.22163],[-2.11531,43.22783],[-2.10888,43.22839],[-2.10878,43.22984],[-2.0998,43.23047],[-2.08902,43.23872],[-2.08843,43.2409],[-2.08216,43.24208],[-2.08199,43.24417],[-2.08575,43.24834],[-2.08499,43.25121],[-2.09235,43.25853],[-2.09336,43.26392],[-2.09207,43.26735],[-2.09356,43.26987],[-2.09829,43.27008],[-2.10442,43.27332],[-2.11258,43.27187],[-2.11784,43.27506],[-2.12992,43.27418],[-2.132,43.2751],[-2.13353,43.2771],[-2.13317,43.28134],[-2.13101,43.28392],[-2.13203,43.2852],[-2.12926,43.28621],[-2.13327,43.29071],[-2.132,43.29354],[-2.13435,43.29144],[-2.14128,43.29305],[-2.14086,43.29176],[-2.14299,43.29025],[-2.14227,43.28278],[-2.14357,43.2818],[-2.14054,43.28053],[-2.14452,43.2787],[-2.14175,43.27412],[-2.14417,43.26629],[-2.14735,43.26346],[-2.16022,43.26322],[-2.16037,43.26029],[-2.16817,43.25645],[-2.17871,43.24418],[-2.18615,43.24278],[-2.18941,43.24363],[-2.1895,43.24459],[-2.18589,43.24503],[-2.18188,43.24753],[-2.18549,43.25066],[-2.17894,43.26101],[-2.18169,43.27184],[-2.18424,43.27222],[-2.18662,43.27045],[-2.18609,43.27167],[-2.1909,43.27191],[-2.19062,43.27441],[-2.19365,43.27581],[-2.20459,43.26874],[-2.20677,43.26948],[-2.21016,43.26472],[-2.21585,43.26015]],[[-2.20173,43.2657],[-2.19829,43.25773],[-2.20369,43.25754],[-2.20708,43.26248],[-2.20242,43.26566],[-2.20173,43.2657]],[[-2.19078,43.27092],[-2.18877,43.27014],[-2.19162,43.26892],[-2.19867,43.26962],[-2.19835,43.27102],[-2.19542,43.27194],[-2.19309,43.27058],[-2.19078,43.27092]]]}},{"type":"Feature","properties":{"mun_code":"20064","mun_name":"Pasaia","mun_name_local":null,"prov_code":"20","prov_name":"Gipuzkoa","acom_code":"16","acom_name":"País Vasco","geo_point_2d":{"lon":-1.894744020962207,"lat":43.33890973743613}},"geometry":{"type":"Polygon","coordinates":[[[-1.93117,43.33344],[-1.93091,43.33043],[-1.93884,43.32782],[-1.93689,43.32243],[-1.93862,43.32213],[-1.93895,43.32028],[-1.92918,43.32165],[-1.92233,43.3212],[-1.9192,43.31932],[-1.91861,43.31502],[-1.92113,43.31263],[-1.91983,43.31259],[-1.91653,43.31474],[-1.91356,43.31994],[-1.90989,43.31996],[-1.90844,43.32223],[-1.90988,43.32323],[-1.90923,43.32766],[-1.90167,43.32829],[-1.89914,43.33168],[-1.8787,43.33573],[-1.85646,43.34375],[-1.87108,43.36805],[-1.87226,43.36377],[-1.87521,43.36314],[-1.88336,43.3495],[-1.88553,43.34962],[-1.89666,43.34387],[-1.9093,43.34033],[-1.91682,43.3367],[-1.92718,43.3358],[-1.92316,43.33324],[-1.92378,43.33204],[-1.9284,43.3317],[-1.93107,43.33304],[-1.93117,43.33344]]]}},{"type":"Feature","properties":{"mun_code":"20015","mun_name":"Ataun","mun_name_local":null,"prov_code":"20","prov_name":"Gipuzkoa","acom_code":"16","acom_name":"País Vasco","geo_point_2d":{"lon":-2.1620825807008286,"lat":42.97365388106549}},"geometry":{"type":"MultiPolygon","coordinates":[[[[-2.20227,42.99917],[-2.20317,42.99309],[-2.20482,42.99294],[-2.20766,42.98923],[-2.21342,42.98725],[-2.21034,42.98149],[-2.21786,42.9779],[-2.21763,42.9699],[-2.21941,42.96496],[-2.21635,42.96277],[-2.21295,42.9518],[-2.21026,42.94991],[-2.20375,42.9495],[-2.19914,42.95118],[-2.19236,42.94903],[-2.18002,42.93797],[-2.18007,42.93511],[-2.16617,42.93584],[-2.15616,42.94225],[-2.14796,42.94129],[-2.14478,42.94209],[-2.138,42.9402],[-2.13663,42.94126],[-2.13018,42.94093],[-2.12886,42.93952],[-2.12245,42.94186],[-2.11697,42.94227],[-2.112,42.94595],[-2.10351,42.94854],[-2.10524,42.95354],[-2.09878,42.95909],[-2.09532,42.97227],[-2.1145,42.97094],[-2.11803,42.97496],[-2.11905,42.98255],[-2.13316,42.98684],[-2.13197,42.99205],[-2.13371,42.99341],[-2.13934,42.99385],[-2.14157,42.99561],[-2.14429,43.00149],[-2.15555,43.01295],[-2.15214,43.01128],[-2.14772,43.01537],[-2.15002,43.0191],[-2.1537,43.01773],[-2.15391,43.01578],[-2.16126,43.01747],[-2.15984,43.01815],[-2.16161,43.01901],[-2.16544,43.01898],[-2.16584,43.02024],[-2.18452,43.01807],[-2.18622,43.01271],[-2.192,43.00807],[-2.19335,43.00253],[-2.19938,43.00004],[-2.20227,42.99917]]],[[[-2.12246,42.99331],[-2.11617,42.99486],[-2.11953,43.00054],[-2.12503,43.00038],[-2.12637,43.00199],[-2.12472,43.00388],[-2.13181,43.00453],[-2.13257,43.00608],[-2.13644,43.00677],[-2.13617,43.00894],[-2.14076,43.00461],[-2.12512,43.00014],[-2.12335,42.99495],[-2.12246,42.99331]]]]}},{"type":"Feature","properties":{"mun_code":"20033","mun_name":"Elgeta","mun_name_local":null,"prov_code":"20","prov_name":"Gipuzkoa","acom_code":"16","acom_name":"País Vasco","geo_point_2d":{"lon":-2.4827273835232044,"lat":43.1480026806213}},"geometry":{"type":"Polygon","coordinates":[[[-2.50478,43.15577],[-2.50068,43.1519],[-2.50354,43.13996],[-2.49622,43.12341],[-2.47287,43.12193],[-2.46396,43.13507],[-2.46618,43.14082],[-2.46436,43.14116],[-2.45597,43.15128],[-2.45723,43.15569],[-2.45948,43.15704],[-2.46014,43.16298],[-2.4738,43.16871],[-2.47438,43.17192],[-2.48131,43.17532],[-2.48411,43.1709],[-2.48698,43.1694],[-2.50161,43.1674],[-2.50285,43.16544],[-2.50789,43.16588],[-2.50972,43.16144],[-2.50506,43.15607],[-2.50478,43.15577]]]}},{"type":"Feature","properties":{"mun_code":"20037","mun_name":"Gaintza","mun_name_local":null,"prov_code":"20","prov_name":"Gipuzkoa","acom_code":"16","acom_name":"País Vasco","geo_point_2d":{"lon":-2.1310420501699103,"lat":43.05390194165937}},"geometry":{"type":"Polygon","coordinates":[[[-2.14893,43.05261],[-2.14054,43.04105],[-2.13461,43.0432],[-2.12919,43.04342],[-2.1242,43.04146],[-2.12268,43.04202],[-2.12161,43.04044],[-2.11976,43.04075],[-2.11887,43.04681],[-2.11379,43.05203],[-2.11914,43.06077],[-2.11803,43.065],[-2.12057,43.06858],[-2.13749,43.06458],[-2.14552,43.0595],[-2.14887,43.05474],[-2.14893,43.05261]]]}},{"type":"Feature","properties":{"mun_code":"20038","mun_name":"Gabiria","mun_name_local":null,"prov_code":"20","prov_name":"Gipuzkoa","acom_code":"16","acom_name":"País Vasco","geo_point_2d":{"lon":-2.2960351408337063,"lat":43.05202054773534}},"geometry":{"type":"Polygon","coordinates":[[[-2.32126,43.06578],[-2.3213,43.06434],[-2.32752,43.06181],[-2.32777,43.05953],[-2.32068,43.05038],[-2.32058,43.04227],[-2.31166,43.03292],[-2.29774,43.03627],[-2.29405,43.0347],[-2.28592,43.0398],[-2.2707,43.03861],[-2.27142,43.03994],[-2.26647,43.04678],[-2.26314,43.04843],[-2.26416,43.05171],[-2.26138,43.05176],[-2.26114,43.05277],[-2.26588,43.05718],[-2.27618,43.06194],[-2.27841,43.06584],[-2.28325,43.06665],[-2.28772,43.06979],[-2.29422,43.06756],[-2.29927,43.06945],[-2.30114,43.06758],[-2.30393,43.07077],[-2.30672,43.06678],[-2.31779,43.06603],[-2.32126,43.06578]]]}},{"type":"Feature","properties":{"mun_code":"20056","mun_name":"Mutriku","mun_name_local":null,"prov_code":"20","prov_name":"Gipuzkoa","acom_code":"16","acom_name":"País Vasco","geo_point_2d":{"lon":-2.3990112697378834,"lat":43.29350546328178}},"geometry":{"type":"MultiPolygon","coordinates":[[[[-2.41314,43.32071],[-2.4155,43.32004],[-2.41997,43.3128],[-2.42863,43.3089],[-2.432,43.30232],[-2.43743,43.29888],[-2.44008,43.28816],[-2.42514,43.27989],[-2.4271,43.2797],[-2.42734,43.27796],[-2.42163,43.27372],[-2.41806,43.2676],[-2.41108,43.2684],[-2.40526,43.26755],[-2.40191,43.26936],[-2.39467,43.27015],[-2.39115,43.26793],[-2.3864,43.26777],[-2.37585,43.27049],[-2.37288,43.2681],[-2.37157,43.27213],[-2.37506,43.27542],[-2.37396,43.27872],[-2.37063,43.27958],[-2.3666,43.2776],[-2.36489,43.27951],[-2.36834,43.28171],[-2.36705,43.28381],[-2.36828,43.29107],[-2.36479,43.29344],[-2.36209,43.29215],[-2.36076,43.28922],[-2.35833,43.28935],[-2.35618,43.29448],[-2.35523,43.30111],[-2.35713,43.3023],[-2.35585,43.30295],[-2.36404,43.30642],[-2.36677,43.30587],[-2.37247,43.3098],[-2.37443,43.30831],[-2.38356,43.30677],[-2.37996,43.31141],[-2.38029,43.31321],[-2.40016,43.32221],[-2.40742,43.32243],[-2.40781,43.32358],[-2.40942,43.32286],[-2.41172,43.32418],[-2.4103,43.32271],[-2.41281,43.32114],[-2.41314,43.32071]]]]}},{"type":"Feature","properties":{"mun_code":"20061","mun_name":"Orio","mun_name_local":null,"prov_code":"20","prov_name":"Gipuzkoa","acom_code":"16","acom_name":"País Vasco","geo_point_2d":{"lon":-2.107559351385502,"lat":43.287471628075004}},"geometry":{"type":"Polygon","coordinates":[[[-2.12984,43.28785],[-2.12926,43.28621],[-2.13203,43.2852],[-2.13101,43.28392],[-2.1337,43.27865],[-2.13122,43.27453],[-2.11784,43.27506],[-2.11375,43.27209],[-2.10442,43.27332],[-2.09829,43.27008],[-2.09356,43.26987],[-2.09253,43.27172],[-2.09603,43.27759],[-2.09359,43.28112],[-2.09541,43.28513],[-2.08938,43.28776],[-2.09003,43.29051],[-2.08445,43.29478],[-2.08681,43.30092],[-2.08294,43.30786],[-2.10283,43.3032],[-2.10448,43.30114],[-2.10732,43.30172],[-2.1117,43.3001],[-2.11535,43.29673],[-2.1196,43.29584],[-2.12185,43.29363],[-2.12373,43.29405],[-2.1278,43.28998],[-2.13248,43.29172],[-2.12905,43.28816],[-2.12984,43.28785]]]}},{"type":"Feature","properties":{"mun_code":"20905","mun_name":"Orendain","mun_name_local":null,"prov_code":"20","prov_name":"Gipuzkoa","acom_code":"16","acom_name":"País Vasco","geo_point_2d":{"lon":-2.106591192633936,"lat":43.07826993282236}},"geometry":{"type":"Polygon","coordinates":[[[-2.12568,43.08262],[-2.12029,43.07285],[-2.12003,43.06692],[-2.11803,43.065],[-2.10561,43.06602],[-2.09866,43.06532],[-2.09958,43.06706],[-2.09774,43.07081],[-2.08685,43.0756],[-2.09051,43.08319],[-2.08967,43.08469],[-2.09465,43.08905],[-2.10141,43.09239],[-2.10425,43.0904],[-2.10732,43.09213],[-2.11447,43.08663],[-2.12548,43.0834],[-2.12568,43.08262]]]}},{"type":"Feature","properties":{"mun_code":"20024","mun_name":"Bidania-Goiatz","mun_name_local":null,"prov_code":"20","prov_name":"Gipuzkoa","acom_code":"16","acom_name":"País Vasco","geo_point_2d":{"lon":-2.165145454316026,"lat":43.13526502745828}},"geometry":{"type":"MultiPolygon","coordinates":[[[[-2.18249,43.10421],[-2.18966,43.1031],[-2.19604,43.10592],[-2.19922,43.10231],[-2.19026,43.09876],[-2.18006,43.09752],[-2.18107,43.10283],[-2.18249,43.10421]]],[[[-2.18111,43.10907],[-2.17918,43.10713],[-2.17784,43.10808],[-2.18054,43.1095],[-2.18111,43.10907]]],[[[-2.14772,43.16778],[-2.14975,43.16001],[-2.15676,43.15154],[-2.16453,43.15093],[-2.16721,43.14776],[-2.1725,43.14801],[-2.17845,43.14627],[-2.18787,43.15011],[-2.1906,43.14802],[-2.19333,43.14804],[-2.18784,43.14396],[-2.18978,43.14021],[-2.18858,43.13659],[-2.18232,43.13192],[-2.18174,43.12885],[-2.17609,43.12151],[-2.17542,43.11951],[-2.1788,43.11751],[-2.17963,43.11324],[-2.17187,43.11288],[-2.1693,43.11091],[-2.165,43.11072],[-2.15652,43.11857],[-2.15311,43.13103],[-2.14992,43.13541],[-2.14151,43.14018],[-2.14241,43.143],[-2.14087,43.14704],[-2.13714,43.15159],[-2.14589,43.16673],[-2.14772,43.16778]]]]}},{"type":"Feature","properties":{"mun_code":"20073","mun_name":"Usurbil","mun_name_local":null,"prov_code":"20","prov_name":"Gipuzkoa","acom_code":"16","acom_name":"País Vasco","geo_point_2d":{"lon":-2.0625429192948825,"lat":43.27342331235063}},"geometry":{"type":"MultiPolygon","coordinates":[[[[-2.08445,43.29478],[-2.09003,43.29051],[-2.08938,43.28776],[-2.09541,43.28513],[-2.09359,43.28112],[-2.09603,43.27759],[-2.09253,43.27172],[-2.09235,43.25853],[-2.08499,43.25121],[-2.08575,43.24834],[-2.08207,43.24278],[-2.06648,43.23941],[-2.06348,43.24346],[-2.05991,43.24346],[-2.05577,43.24589],[-2.0576,43.2478],[-2.06199,43.24897],[-2.05908,43.24927],[-2.05492,43.25214],[-2.05036,43.26217],[-2.04546,43.26306],[-2.046,43.26461],[-2.04469,43.26578],[-2.0435,43.26491],[-2.04276,43.26634],[-2.04096,43.26604],[-2.04092,43.26347],[-2.03636,43.26021],[-2.03297,43.2618],[-2.03508,43.26392],[-2.0341,43.26586],[-2.03818,43.26862],[-2.03533,43.27169],[-2.03853,43.27305],[-2.03582,43.27431],[-2.03334,43.27153],[-2.03244,43.27466],[-2.02456,43.27251],[-2.02282,43.27465],[-2.01887,43.27539],[-2.01723,43.27951],[-2.02212,43.28091],[-2.02907,43.29398],[-2.03389,43.29395],[-2.03707,43.29645],[-2.04269,43.2953],[-2.05039,43.29862],[-2.05793,43.29655],[-2.0661,43.29793],[-2.08329,43.29494],[-2.08445,43.29478]]],[[[-2.02999,43.26811],[-2.03198,43.27021],[-2.03358,43.26988],[-2.03016,43.26824],[-2.02999,43.26811]]],[[[-2.03244,43.27076],[-2.03099,43.27089],[-2.0331,43.27083],[-2.03244,43.27076]]]]}},{"type":"Feature","properties":{"mun_code":"20012","mun_name":"Arama","mun_name_local":null,"prov_code":"20","prov_name":"Gipuzkoa","acom_code":"16","acom_name":"País Vasco","geo_point_2d":{"lon":-2.1632575975587263,"lat":43.059169507953484}},"geometry":{"type":"Polygon","coordinates":[[[-2.17229,43.06213],[-2.16963,43.05949],[-2.17105,43.05672],[-2.16977,43.05564],[-2.16662,43.05568],[-2.16092,43.05253],[-2.15505,43.05513],[-2.15727,43.06183],[-2.162,43.06511],[-2.16504,43.06613],[-2.1671,43.06392],[-2.17121,43.06397],[-2.1729,43.06277],[-2.17229,43.06213]]]}},{"type":"Feature","properties":{"mun_code":"20060","mun_name":"Orexa","mun_name_local":null,"prov_code":"20","prov_name":"Gipuzkoa","acom_code":"16","acom_name":"País Vasco","geo_point_2d":{"lon":-2.0023125644748965,"lat":43.09012628229245}},"geometry":{"type":"MultiPolygon","coordinates":[[[[-1.98133,43.08563],[-1.98431,43.08252],[-1.98371,43.08048],[-1.9788,43.08171],[-1.97981,43.08382],[-1.98133,43.08563]]],[[[-2.01133,43.10399],[-2.01755,43.10225],[-2.0218,43.09813],[-2.01272,43.09026],[-2.01273,43.08513],[-2.00393,43.08282],[-2.00957,43.0815],[-2.01177,43.07915],[-2.00987,43.07346],[-1.98975,43.07951],[-1.99325,43.08162],[-1.993,43.08424],[-1.98698,43.08556],[-1.98168,43.09215],[-1.98172,43.09006],[-1.98,43.09018],[-1.98085,43.09285],[-1.9902,43.09168],[-1.99162,43.09394],[-1.99063,43.09473],[-1.9988,43.10235],[-2.00449,43.10426],[-2.00433,43.10152],[-2.01133,43.10399]]]]}}]}