{"type":"FeatureCollection","features":[{"type":"Feature","properties":{"mun_code":"30033","mun_name":"Puerto Lumbreras","mun_name_local":null,"prov_code":"30","prov_name":"Murcia","acom_code":"14","acom_name":"Región de Murcia","geo_point_2d":{"lon":-1.8162297199495219,"lat":37.547235154539}},"geometry":{"type":"Polygon","coordinates":[[[-1.91618,37.54504],[-1.87131,37.48958],[-1.86724,37.48624],[-1.86406,37.48556],[-1.85889,37.47991],[-1.84839,37.46098],[-1.83522,37.46732],[-1.82903,37.47546],[-1.82856,37.47939],[-1.82316,37.48442],[-1.82001,37.48533],[-1.81871,37.48927],[-1.80982,37.49372],[-1.81019,37.50094],[-1.79625,37.51245],[-1.79708,37.51482],[-1.79407,37.51786],[-1.78448,37.52045],[-1.7831,37.5224],[-1.78124,37.52166],[-1.77861,37.52425],[-1.77927,37.526],[-1.77701,37.52933],[-1.77326,37.53231],[-1.76735,37.5321],[-1.7616,37.53644],[-1.75336,37.53279],[-1.75398,37.54843],[-1.75254,37.55751],[-1.74292,37.56017],[-1.73801,37.55983],[-1.73275,37.56117],[-1.72746,37.56009],[-1.71606,37.56256],[-1.71322,37.58101],[-1.70158,37.58369],[-1.70625,37.59081],[-1.71305,37.59565],[-1.71776,37.60358],[-1.71758,37.60631],[-1.72834,37.60243],[-1.74174,37.60447],[-1.74844,37.6019],[-1.75401,37.60211],[-1.76277,37.5997],[-1.78464,37.60299],[-1.79442,37.6063],[-1.80299,37.60332],[-1.80445,37.59836],[-1.81805,37.58857],[-1.82728,37.58516],[-1.83857,37.57673],[-1.84605,37.58145],[-1.85419,37.58145],[-1.86349,37.58409],[-1.87248,37.58221],[-1.87589,37.5783],[-1.88341,37.57524],[-1.8821,37.57444],[-1.88503,37.56871],[-1.88377,37.5669],[-1.88829,37.56416],[-1.89047,37.55906],[-1.89999,37.55914],[-1.90229,37.55732],[-1.90223,37.55433],[-1.90422,37.55388],[-1.90222,37.55153],[-1.90607,37.54966],[-1.9073,37.54688],[-1.91555,37.54535],[-1.91618,37.54504]]]}},{"type":"Feature","properties":{"mun_code":"30014","mun_name":"Campos del Río","mun_name_local":null,"prov_code":"30","prov_name":"Murcia","acom_code":"14","acom_name":"Región de Murcia","geo_point_2d":{"lon":-1.3668887885379808,"lat":38.05064999987359}},"geometry":{"type":"Polygon","coordinates":[[[-1.43337,38.11295],[-1.44013,38.10954],[-1.41945,38.0814],[-1.38909,38.0506],[-1.38575,38.05354],[-1.37424,38.05417],[-1.36721,38.05174],[-1.36889,38.04535],[-1.35874,38.03725],[-1.35477,38.02465],[-1.35451,38.02351],[-1.35988,38.02022],[-1.39834,38.00015],[-1.38951,37.9891],[-1.37737,37.99207],[-1.36063,37.99419],[-1.35195,38.00879],[-1.35017,38.01788],[-1.31839,38.02927],[-1.31249,38.02416],[-1.31127,38.02536],[-1.31239,38.0271],[-1.30051,38.03528],[-1.3026,38.04216],[-1.30637,38.0435],[-1.30384,38.04569],[-1.30776,38.04863],[-1.30734,38.0503],[-1.31258,38.05626],[-1.31954,38.06091],[-1.33142,38.06115],[-1.333,38.05952],[-1.35446,38.06604],[-1.35976,38.06931],[-1.37131,38.07133],[-1.38025,38.07512],[-1.38451,38.07485],[-1.38611,38.07677],[-1.38515,38.07989],[-1.39536,38.0887],[-1.39356,38.09767],[-1.39638,38.09812],[-1.39936,38.10171],[-1.41256,38.10287],[-1.43184,38.11242],[-1.43337,38.11295]]]}},{"type":"Feature","properties":{"mun_code":"30037","mun_name":"Torre-Pacheco","mun_name_local":null,"prov_code":"30","prov_name":"Murcia","acom_code":"14","acom_name":"Región de Murcia","geo_point_2d":{"lon":-0.966935181965751,"lat":37.77748877327486}},"geometry":{"type":"Polygon","coordinates":[[[-1.07107,37.77436],[-1.06359,37.76025],[-1.05082,37.7234],[-1.04023,37.72284],[-1.01842,37.72603],[-1.00382,37.72041],[-0.99789,37.7206],[-0.98805,37.72482],[-0.98256,37.72355],[-0.9717,37.72414],[-0.96574,37.72156],[-0.937,37.72418],[-0.92006,37.72297],[-0.9141,37.721],[-0.89679,37.73295],[-0.8748,37.76201],[-0.8664,37.7656],[-0.86964,37.76897],[-0.85904,37.78155],[-0.85824,37.78488],[-0.8505,37.79235],[-0.85696,37.7955],[-0.87342,37.8091],[-0.89265,37.81636],[-0.89767,37.82519],[-0.90446,37.83122],[-0.91238,37.84275],[-0.91911,37.83702],[-0.93717,37.83076],[-0.98228,37.8232],[-0.99002,37.83861],[-0.99367,37.84325],[-1.00145,37.84904],[-1.00666,37.84413],[-1.0161,37.8397],[-1.02152,37.83427],[-1.02329,37.82361],[-1.02833,37.81693],[-1.03696,37.81093],[-1.04506,37.80895],[-1.05132,37.80354],[-1.05836,37.80056],[-1.07338,37.78732],[-1.07634,37.7864],[-1.07137,37.77496],[-1.07107,37.77436]]]}},{"type":"Feature","properties":{"mun_code":"30901","mun_name":"Santomera","mun_name_local":null,"prov_code":"30","prov_name":"Murcia","acom_code":"14","acom_name":"Región de Murcia","geo_point_2d":{"lon":-1.0567013078124117,"lat":38.08572572159204}},"geometry":{"type":"Polygon","coordinates":[[[-1.10141,38.11393],[-1.10078,38.11174],[-1.10442,38.10946],[-1.1053,38.10538],[-1.09834,38.10082],[-1.08804,38.08582],[-1.09316,38.08193],[-1.09005,38.07563],[-1.0888,38.06722],[-1.07757,38.06325],[-1.0746,38.06438],[-1.06775,38.0631],[-1.06203,38.05902],[-1.05346,38.04541],[-1.04809,38.03987],[-1.01031,38.05965],[-1.01751,38.06773],[-1.02353,38.07826],[-1.02659,38.09018],[-1.03034,38.09708],[-1.03069,38.11573],[-1.05469,38.12368],[-1.10037,38.1138],[-1.10141,38.11393]]]}},{"type":"Feature","properties":{"mun_code":"30011","mun_name":"Blanca","mun_name_local":null,"prov_code":"30","prov_name":"Murcia","acom_code":"14","acom_name":"Región de Murcia","geo_point_2d":{"lon":-1.2974004584740566,"lat":38.21292339451735}},"geometry":{"type":"Polygon","coordinates":[[[-1.40429,38.17907],[-1.38872,38.18241],[-1.38823,38.17725],[-1.3828,38.17553],[-1.37902,38.17649],[-1.37843,38.17324],[-1.3763,38.1728],[-1.37446,38.16966],[-1.36859,38.16551],[-1.35698,38.16396],[-1.34745,38.16079],[-1.33662,38.16024],[-1.33491,38.1613],[-1.32951,38.17599],[-1.31942,38.1765],[-1.26707,38.19603],[-1.25272,38.20002],[-1.23695,38.19827],[-1.23318,38.21124],[-1.21919,38.22354],[-1.2203,38.23839],[-1.21312,38.27169],[-1.22678,38.26938],[-1.23007,38.26253],[-1.23334,38.26025],[-1.23683,38.2613],[-1.24341,38.25301],[-1.24739,38.25038],[-1.26916,38.25331],[-1.28147,38.25231],[-1.28845,38.25331],[-1.30166,38.25113],[-1.32441,38.23567],[-1.33626,38.22443],[-1.35117,38.20356],[-1.3706,38.1957],[-1.37406,38.1957],[-1.38227,38.20087],[-1.38582,38.20097],[-1.38682,38.19992],[-1.38414,38.1957],[-1.38729,38.19463],[-1.39222,38.18787],[-1.39968,38.18932],[-1.40429,38.17907]]]}},{"type":"Feature","properties":{"mun_code":"30029","mun_name":"Mula","mun_name_local":null,"prov_code":"30","prov_name":"Murcia","acom_code":"14","acom_name":"Región de Murcia","geo_point_2d":{"lon":-1.5405002602885804,"lat":38.00848692505103}},"geometry":{"type":"Polygon","coordinates":[[[-1.73357,37.94889],[-1.72108,37.94063],[-1.72064,37.93834],[-1.71166,37.93061],[-1.70525,37.92819],[-1.70054,37.92376],[-1.69091,37.90886],[-1.67483,37.89812],[-1.67947,37.88054],[-1.66509,37.86358],[-1.65457,37.85935],[-1.64446,37.86605],[-1.64034,37.86671],[-1.61992,37.88385],[-1.61439,37.88611],[-1.61001,37.88982],[-1.5916,37.8964],[-1.58463,37.89508],[-1.57776,37.89609],[-1.5645,37.88648],[-1.56102,37.88589],[-1.56034,37.88734],[-1.55708,37.88821],[-1.54425,37.88457],[-1.53599,37.88454],[-1.53165,37.88759],[-1.5278,37.88849],[-1.50363,37.88716],[-1.49686,37.88877],[-1.48252,37.89537],[-1.46768,37.89871],[-1.41076,37.90606],[-1.39185,37.91803],[-1.38541,37.91771],[-1.38279,37.92096],[-1.37008,37.92888],[-1.37258,37.93339],[-1.38321,37.94045],[-1.38522,37.94741],[-1.38417,37.94983],[-1.38001,37.9484],[-1.37778,37.95093],[-1.37159,37.95063],[-1.37007,37.95616],[-1.36724,37.95849],[-1.36282,37.9557],[-1.36077,37.95832],[-1.35735,37.95973],[-1.36003,37.9666],[-1.36024,37.99279],[-1.36063,37.99419],[-1.36302,37.99445],[-1.38951,37.9891],[-1.39834,38.00015],[-1.403,38.02008],[-1.40503,38.03909],[-1.4011,38.04538],[-1.38909,38.0506],[-1.41945,38.0814],[-1.43201,38.09707],[-1.44013,38.10954],[-1.43337,38.11295],[-1.46233,38.11644],[-1.47788,38.11487],[-1.48,38.11811],[-1.48575,38.11698],[-1.49131,38.12051],[-1.50572,38.14201],[-1.51652,38.16219],[-1.52747,38.16479],[-1.55244,38.16631],[-1.55267,38.16769],[-1.56656,38.17337],[-1.56956,38.17747],[-1.58079,38.17978],[-1.58249,38.18132],[-1.58918,38.18169],[-1.58762,38.18437],[-1.58542,38.18516],[-1.58848,38.19041],[-1.62258,38.1718],[-1.63284,38.16382],[-1.62913,38.10891],[-1.62436,38.08319],[-1.62017,38.07442],[-1.6202,38.07046],[-1.61514,38.05589],[-1.61842,38.05384],[-1.61956,38.04778],[-1.62439,38.03845],[-1.63132,38.03401],[-1.65813,38.00312],[-1.66138,38.00151],[-1.66262,37.99582],[-1.66517,37.99308],[-1.67266,37.99],[-1.67192,37.98722],[-1.70235,37.9738],[-1.72159,37.95903],[-1.72468,37.95415],[-1.73289,37.94961],[-1.73357,37.94889]],[[-1.52092,38.0084],[-1.51715,38.00946],[-1.51272,38.015],[-1.51043,38.01116],[-1.50473,38.01391],[-1.49166,38.00722],[-1.49162,38.00527],[-1.48625,38.00366],[-1.48088,37.99868],[-1.47768,37.98986],[-1.47643,37.98026],[-1.47824,37.97587],[-1.47197,37.96551],[-1.46636,37.96046],[-1.50056,37.94751],[-1.50387,37.94854],[-1.5079,37.95244],[-1.51424,37.94993],[-1.51794,37.94656],[-1.52385,37.9511],[-1.53513,37.95141],[-1.53463,37.95515],[-1.53635,37.9561],[-1.53667,37.959],[-1.53875,37.95974],[-1.53695,37.96164],[-1.53806,37.96606],[-1.5352,37.96868],[-1.53255,37.96827],[-1.52994,37.97028],[-1.53273,37.97196],[-1.52955,37.97288],[-1.5317,37.97474],[-1.52594,37.97525],[-1.52588,37.9802],[-1.52149,37.98205],[-1.52534,37.98353],[-1.52414,37.9882],[-1.52518,37.98958],[-1.52306,37.99047],[-1.52496,37.99187],[-1.52273,37.99379],[-1.52362,37.99553],[-1.52128,38.00082],[-1.52467,38.00728],[-1.52395,38.00932],[-1.52192,38.0086],[-1.52092,38.0084]]]}},{"type":"Feature","properties":{"mun_code":"30008","mun_name":"Alhama de Murcia","mun_name_local":null,"prov_code":"30","prov_name":"Murcia","acom_code":"14","acom_name":"Región de Murcia","geo_point_2d":{"lon":-1.3874263976034777,"lat":37.82234455901439}},"geometry":{"type":"Polygon","coordinates":[[[-1.5645,37.88648],[-1.48779,37.81448],[-1.46804,37.80081],[-1.4654,37.79616],[-1.43814,37.77621],[-1.42796,37.76465],[-1.41014,37.75361],[-1.36948,37.72148],[-1.3252,37.72486],[-1.31373,37.72948],[-1.3031,37.72987],[-1.28182,37.73749],[-1.27241,37.74262],[-1.27427,37.74353],[-1.2768,37.76492],[-1.2825,37.77954],[-1.28944,37.78957],[-1.28711,37.79163],[-1.29067,37.80055],[-1.28658,37.80852],[-1.28627,37.82557],[-1.26836,37.84838],[-1.27319,37.87505],[-1.28257,37.90459],[-1.29274,37.89887],[-1.2991,37.88965],[-1.30652,37.88953],[-1.31279,37.88344],[-1.31418,37.87795],[-1.31695,37.87518],[-1.33222,37.87396],[-1.33609,37.86886],[-1.34147,37.86702],[-1.34722,37.86208],[-1.35139,37.86106],[-1.35489,37.86243],[-1.35943,37.86034],[-1.36123,37.86044],[-1.35619,37.87121],[-1.36265,37.87751],[-1.36247,37.8805],[-1.36975,37.88207],[-1.37525,37.88565],[-1.3895,37.88938],[-1.40177,37.9018],[-1.41076,37.90606],[-1.46768,37.89871],[-1.48252,37.89537],[-1.49686,37.88877],[-1.50363,37.88716],[-1.5278,37.88849],[-1.53165,37.88759],[-1.5354,37.88457],[-1.54243,37.88439],[-1.55313,37.88626],[-1.55708,37.88821],[-1.56034,37.88734],[-1.56102,37.88589],[-1.56263,37.8862],[-1.5645,37.88648]]]}},{"type":"Feature","properties":{"mun_code":"30010","mun_name":"Beniel","mun_name_local":null,"prov_code":"30","prov_name":"Murcia","acom_code":"14","acom_name":"Región de Murcia","geo_point_2d":{"lon":-0.9919558530938715,"lat":38.02689273057803}},"geometry":{"type":"Polygon","coordinates":[[[-0.9984,38.05171],[-1.00058,38.04929],[-1.00537,38.04956],[-1.00803,38.04521],[-1.01164,38.04648],[-1.01374,38.04571],[-1.01065,38.04023],[-1.01459,38.03459],[-1.01229,38.03411],[-1.0004,38.02429],[-1.00223,38.02155],[-0.99106,38.00363],[-0.96575,38.01268],[-0.99048,38.04171],[-0.9984,38.05171]]]}},{"type":"Feature","properties":{"mun_code":"30028","mun_name":"Moratalla","mun_name_local":null,"prov_code":"30","prov_name":"Murcia","acom_code":"14","acom_name":"Región de Murcia","geo_point_2d":{"lon":-1.9911166617118905,"lat":38.19880658381998}},"geometry":{"type":"Polygon","coordinates":[[[-2.21329,38.20205],[-2.21592,38.19461],[-2.22336,38.18255],[-2.22259,38.17771],[-2.22442,38.17665],[-2.2241,38.17334],[-2.22663,38.17149],[-2.23318,38.15934],[-2.23667,38.15846],[-2.23999,38.15568],[-2.24015,38.15378],[-2.2457,38.14876],[-2.24835,38.14156],[-2.25132,38.13842],[-2.25123,38.12892],[-2.26134,38.11766],[-2.26045,38.11624],[-2.26499,38.1117],[-2.26567,38.10884],[-2.27401,38.10541],[-2.2954,38.0866],[-2.30497,38.08316],[-2.30626,38.08142],[-2.31126,38.08068],[-2.32755,38.06889],[-2.3303,38.0654],[-2.33024,38.06061],[-2.33761,38.04915],[-2.34418,38.02978],[-2.34122,38.02583],[-2.32309,38.01398],[-2.31287,38.01059],[-2.30366,38.00432],[-2.2958,38.00165],[-2.28569,38.0015],[-2.27516,38.00457],[-2.2691,38.00405],[-2.23775,38.02081],[-2.21229,38.03153],[-2.20846,38.03535],[-2.20322,38.0376],[-2.19438,38.0502],[-2.18945,38.04826],[-2.16794,38.06264],[-2.13215,38.08187],[-2.12616,38.08841],[-2.12086,38.09081],[-2.11029,38.09961],[-2.09018,38.10616],[-2.04938,38.12212],[-2.0443,38.12142],[-2.04381,38.12349],[-2.03664,38.12331],[-2.03421,38.12452],[-2.03306,38.12716],[-1.9914,38.13913],[-1.97913,38.13505],[-1.97723,38.13644],[-1.97432,38.13523],[-1.9697,38.13633],[-1.96336,38.13415],[-1.94591,38.13749],[-1.92133,38.13964],[-1.91825,38.14238],[-1.91152,38.14439],[-1.88549,38.14062],[-1.88161,38.1412],[-1.87743,38.13969],[-1.86838,38.14018],[-1.84564,38.14472],[-1.82963,38.14589],[-1.82722,38.14726],[-1.82114,38.14473],[-1.81763,38.1468],[-1.8019,38.14679],[-1.79372,38.1531],[-1.77952,38.15927],[-1.77544,38.16556],[-1.76583,38.17478],[-1.75276,38.18305],[-1.74488,38.18557],[-1.74641,38.19394],[-1.74572,38.2124],[-1.73872,38.23578],[-1.73926,38.24655],[-1.7334,38.24972],[-1.7296,38.25387],[-1.72695,38.25358],[-1.72213,38.26034],[-1.71887,38.26136],[-1.715,38.25995],[-1.71653,38.26244],[-1.72206,38.26281],[-1.72374,38.26705],[-1.72989,38.26812],[-1.72949,38.275],[-1.7325,38.27883],[-1.72486,38.27907],[-1.719,38.28081],[-1.71074,38.28024],[-1.70898,38.28317],[-1.71232,38.28769],[-1.71154,38.2907],[-1.70893,38.29232],[-1.70508,38.28953],[-1.70112,38.2915],[-1.69798,38.28306],[-1.69352,38.28185],[-1.691,38.28449],[-1.69114,38.28642],[-1.68558,38.29158],[-1.68602,38.29654],[-1.67551,38.29754],[-1.67265,38.30029],[-1.66971,38.31177],[-1.67071,38.31261],[-1.66909,38.31475],[-1.67262,38.3185],[-1.67204,38.32165],[-1.6754,38.32151],[-1.6798,38.32545],[-1.68318,38.32559],[-1.68721,38.33671],[-1.69323,38.33755],[-1.69091,38.34055],[-1.69198,38.34707],[-1.69047,38.34785],[-1.68535,38.3468],[-1.68161,38.34927],[-1.68606,38.35173],[-1.68243,38.35523],[-1.68153,38.35961],[-1.68569,38.36183],[-1.6908,38.36783],[-1.699,38.36886],[-1.69779,38.37104],[-1.70213,38.37462],[-1.70396,38.3747],[-1.70475,38.37232],[-1.70774,38.37042],[-1.71023,38.37216],[-1.71371,38.372],[-1.71384,38.36367],[-1.71915,38.36303],[-1.71795,38.36681],[-1.71956,38.36827],[-1.72385,38.36812],[-1.73084,38.37246],[-1.73441,38.37008],[-1.7348,38.375],[-1.74261,38.37909],[-1.74302,38.3806],[-1.75148,38.37939],[-1.75234,38.37504],[-1.75642,38.37529],[-1.76688,38.37956],[-1.77034,38.37899],[-1.77197,38.37838],[-1.76945,38.36906],[-1.77028,38.36425],[-1.77608,38.36558],[-1.77764,38.36369],[-1.77935,38.36382],[-1.77848,38.36729],[-1.78121,38.36874],[-1.78452,38.36526],[-1.79107,38.36891],[-1.79451,38.36894],[-1.79411,38.36364],[-1.78408,38.35585],[-1.78993,38.35494],[-1.79418,38.35268],[-1.81125,38.35129],[-1.82274,38.33543],[-1.82521,38.33524],[-1.82633,38.33347],[-1.84003,38.33472],[-1.851,38.33337],[-1.85758,38.32911],[-1.87023,38.31638],[-1.89484,38.30173],[-1.90679,38.29879],[-1.90745,38.2977],[-1.9478,38.28926],[-1.96443,38.28735],[-1.97117,38.28362],[-1.9799,38.28152],[-2.00074,38.28393],[-2.02129,38.30069],[-2.0265,38.30107],[-2.03065,38.29956],[-2.04857,38.30569],[-2.06326,38.29749],[-2.07581,38.28283],[-2.08243,38.2657],[-2.11288,38.23768],[-2.14194,38.23069],[-2.14818,38.23061],[-2.15193,38.2289],[-2.16831,38.22641],[-2.1747,38.22389],[-2.187,38.21388],[-2.19526,38.21143],[-2.2118,38.20334],[-2.21329,38.20205]]]}},{"type":"Feature","properties":{"mun_code":"30030","mun_name":"Murcia","mun_name_local":null,"prov_code":"30","prov_name":"Murcia","acom_code":"14","acom_name":"Región de Murcia","geo_point_2d":{"lon":-1.1071535148929545,"lat":37.92167520646465}},"geometry":{"type":"MultiPolygon","coordinates":[[[[-1.06359,37.76025],[-1.09689,37.74087],[-1.08393,37.7159],[-1.06577,37.71676],[-1.05709,37.72171],[-1.05082,37.7234],[-1.06005,37.75004],[-1.06359,37.76025]]],[[[-1.36063,37.99419],[-1.36003,37.9666],[-1.35735,37.95973],[-1.36077,37.95832],[-1.36282,37.9557],[-1.36724,37.95849],[-1.37007,37.95616],[-1.37159,37.95063],[-1.37778,37.95093],[-1.38001,37.9484],[-1.38431,37.94975],[-1.38546,37.94534],[-1.38234,37.93945],[-1.37258,37.93339],[-1.37084,37.92849],[-1.36186,37.92738],[-1.35824,37.93343],[-1.35945,37.9351],[-1.35831,37.93848],[-1.34402,37.93925],[-1.33713,37.94232],[-1.32531,37.93512],[-1.31884,37.93425],[-1.3148,37.93508],[-1.30929,37.93304],[-1.30769,37.93119],[-1.29772,37.92896],[-1.29407,37.92448],[-1.28767,37.9203],[-1.27709,37.9165],[-1.27212,37.911],[-1.28257,37.90459],[-1.27319,37.87505],[-1.26836,37.84838],[-1.26098,37.84722],[-1.25181,37.83721],[-1.25243,37.83556],[-1.24825,37.83491],[-1.24728,37.83244],[-1.24289,37.83047],[-1.24008,37.83099],[-1.23087,37.82801],[-1.22093,37.81825],[-1.21639,37.80971],[-1.22344,37.80388],[-1.21901,37.80346],[-1.21456,37.8012],[-1.21223,37.80199],[-1.21167,37.79999],[-1.21005,37.80007],[-1.19791,37.80411],[-1.19795,37.80597],[-1.19499,37.80669],[-1.18762,37.8123],[-1.18374,37.80641],[-1.17903,37.8039],[-1.17647,37.80043],[-1.17218,37.7992],[-1.16025,37.78933],[-1.16453,37.77332],[-1.15672,37.76895],[-1.15303,37.76186],[-1.14609,37.75796],[-1.14173,37.75121],[-1.13398,37.75469],[-1.12817,37.75569],[-1.12687,37.76331],[-1.11835,37.76809],[-1.11111,37.76959],[-1.10657,37.774],[-1.10072,37.77382],[-1.09899,37.77818],[-1.09598,37.78082],[-1.08662,37.77574],[-1.0847,37.77695],[-1.08053,37.77312],[-1.07107,37.77436],[-1.07634,37.7864],[-1.07338,37.78732],[-1.05836,37.80056],[-1.05132,37.80354],[-1.04506,37.80895],[-1.03696,37.81093],[-1.02833,37.81693],[-1.02329,37.82361],[-1.02152,37.83427],[-1.0161,37.8397],[-1.00666,37.84413],[-1.00172,37.84899],[-0.99367,37.84325],[-0.99002,37.83861],[-0.98228,37.8232],[-0.97356,37.82404],[-0.95542,37.82834],[-0.94451,37.82892],[-0.93717,37.83076],[-0.91911,37.83702],[-0.91238,37.84275],[-0.90097,37.84796],[-0.89475,37.84993],[-0.88592,37.84913],[-0.86598,37.86399],[-0.86299,37.86509],[-0.85425,37.8647],[-0.85168,37.87002],[-0.85089,37.87343],[-0.85325,37.88025],[-0.85094,37.88149],[-0.85722,37.88522],[-0.90018,37.92313],[-0.92119,37.94424],[-0.93539,37.96936],[-0.94852,37.98538],[-0.96575,38.01268],[-0.99106,38.00363],[-1.00223,38.02155],[-1.0004,38.02429],[-1.01229,38.03411],[-1.01459,38.03459],[-1.01065,38.04023],[-1.01374,38.04571],[-1.01164,38.04648],[-1.00803,38.04521],[-1.00537,38.04956],[-1.00058,38.04929],[-0.9984,38.05171],[-1.00455,38.05502],[-1.00726,38.05505],[-1.01031,38.05965],[-1.04809,38.03987],[-1.05346,38.04541],[-1.06203,38.05902],[-1.06775,38.0631],[-1.0746,38.06438],[-1.07757,38.06325],[-1.0888,38.06722],[-1.09005,38.07563],[-1.09316,38.08193],[-1.08804,38.08582],[-1.09834,38.10082],[-1.1053,38.10538],[-1.10442,38.10946],[-1.10078,38.11174],[-1.10141,38.11393],[-1.10982,38.11426],[-1.11238,38.11556],[-1.11926,38.11404],[-1.13148,38.11789],[-1.13558,38.09552],[-1.13793,38.0926],[-1.13631,38.09019],[-1.13707,38.08082],[-1.15403,38.07418],[-1.15214,38.06609],[-1.15981,38.06431],[-1.16085,38.06222],[-1.16035,38.05824],[-1.1569,38.05493],[-1.16122,38.05456],[-1.16123,38.05152],[-1.16622,38.0506],[-1.16704,38.04715],[-1.17162,38.04277],[-1.17353,38.03839],[-1.17885,38.03742],[-1.17742,38.03415],[-1.17947,38.03306],[-1.17931,38.0312],[-1.17659,38.02781],[-1.17729,38.02041],[-1.18512,38.01458],[-1.18934,38.01552],[-1.19176,38.01374],[-1.19501,38.01404],[-1.20064,38.00366],[-1.20625,38.00194],[-1.21809,38.00381],[-1.21371,38.01124],[-1.21509,38.01267],[-1.22581,38.011],[-1.23082,38.00849],[-1.23298,38.00576],[-1.24599,38.00051],[-1.24613,37.99895],[-1.24311,37.99764],[-1.24471,37.99562],[-1.25265,37.99878],[-1.2657,37.99873],[-1.27232,37.99686],[-1.28212,37.99982],[-1.29341,37.99848],[-1.31949,38.00581],[-1.32823,38.01233],[-1.32244,38.02028],[-1.31677,38.02378],[-1.31249,38.02416],[-1.31839,38.02927],[-1.35017,38.01788],[-1.35195,38.00879],[-1.35749,37.99965],[-1.36063,37.99419]],[[-1.19738,37.94968],[-1.20934,37.95379],[-1.22128,37.95975],[-1.22002,37.95987],[-1.22686,37.96767],[-1.2405,37.95989],[-1.24926,37.95648],[-1.27332,37.98234],[-1.26821,37.98469],[-1.26578,37.98798],[-1.25628,37.99197],[-1.24889,37.98882],[-1.24493,37.98478],[-1.23605,37.97995],[-1.22153,37.98432],[-1.21272,37.98511],[-1.2142,37.97944],[-1.20999,37.97932],[-1.2043,37.97703],[-1.20143,37.9795],[-1.19924,37.97968],[-1.19969,37.97623],[-1.19841,37.9763],[-1.19542,37.96899],[-1.20405,37.96541],[-1.20314,37.96118],[-1.20478,37.95938],[-1.19263,37.96268],[-1.19085,37.96007],[-1.1953,37.95296],[-1.19738,37.94968]]]]}},{"type":"Feature","properties":{"mun_code":"30013","mun_name":"Calasparra","mun_name_local":null,"prov_code":"30","prov_name":"Murcia","acom_code":"14","acom_name":"Región de Murcia","geo_point_2d":{"lon":-1.6562711369567449,"lat":38.237294689649275}},"geometry":{"type":"Polygon","coordinates":[[[-1.74488,38.18557],[-1.72925,38.18619],[-1.71707,38.18432],[-1.65203,38.16566],[-1.64641,38.16245],[-1.63284,38.16382],[-1.62258,38.1718],[-1.58848,38.19041],[-1.57828,38.22124],[-1.5835,38.27517],[-1.59519,38.30521],[-1.5895,38.3099],[-1.58887,38.31277],[-1.59487,38.3116],[-1.60074,38.31387],[-1.61149,38.31287],[-1.61444,38.31124],[-1.6313,38.30873],[-1.63446,38.31057],[-1.6357,38.30905],[-1.66931,38.3119],[-1.67377,38.29856],[-1.67663,38.29727],[-1.68602,38.29654],[-1.68558,38.29158],[-1.69114,38.28642],[-1.69282,38.28217],[-1.69798,38.28306],[-1.70112,38.2915],[-1.70508,38.28953],[-1.70893,38.29232],[-1.71154,38.2907],[-1.71232,38.28769],[-1.70898,38.28317],[-1.71074,38.28024],[-1.719,38.28081],[-1.72486,38.27907],[-1.73227,38.27902],[-1.72949,38.275],[-1.72989,38.26812],[-1.72374,38.26705],[-1.72206,38.26281],[-1.71653,38.26244],[-1.715,38.25995],[-1.71887,38.26136],[-1.72213,38.26034],[-1.72695,38.25358],[-1.7296,38.25387],[-1.7334,38.24972],[-1.73926,38.24655],[-1.73872,38.23578],[-1.74572,38.2124],[-1.74641,38.19394],[-1.74521,38.18836],[-1.74488,38.18557]]]}},{"type":"Feature","properties":{"mun_code":"30039","mun_name":"Totana","mun_name_local":null,"prov_code":"30","prov_name":"Murcia","acom_code":"14","acom_name":"Región de Murcia","geo_point_2d":{"lon":-1.5272352840650048,"lat":37.77749360293255}},"geometry":{"type":"Polygon","coordinates":[[[-1.66509,37.86358],[-1.66724,37.84315],[-1.67156,37.82503],[-1.66099,37.79714],[-1.65323,37.81987],[-1.63236,37.82189],[-1.58783,37.8171],[-1.56056,37.80508],[-1.55909,37.79125],[-1.56446,37.78666],[-1.57101,37.78632],[-1.57475,37.77047],[-1.58588,37.77029],[-1.61251,37.76236],[-1.62424,37.76286],[-1.643,37.75917],[-1.65857,37.75344],[-1.64511,37.73634],[-1.63491,37.73946],[-1.62994,37.7457],[-1.62216,37.74223],[-1.61517,37.74863],[-1.60736,37.75027],[-1.5663,37.73898],[-1.55024,37.72576],[-1.54334,37.70692],[-1.51267,37.66755],[-1.47617,37.68071],[-1.47349,37.6795],[-1.46237,37.67951],[-1.43586,37.69151],[-1.39634,37.70486],[-1.36948,37.72148],[-1.41014,37.75361],[-1.42796,37.76465],[-1.43814,37.77621],[-1.4654,37.79616],[-1.46804,37.80081],[-1.48779,37.81448],[-1.5645,37.88648],[-1.57776,37.89609],[-1.58463,37.89508],[-1.5916,37.8964],[-1.59269,37.8952],[-1.6039,37.89274],[-1.61992,37.88385],[-1.64034,37.86671],[-1.64446,37.86605],[-1.65457,37.85935],[-1.66103,37.86196],[-1.66509,37.86358]]]}},{"type":"Feature","properties":{"mun_code":"30032","mun_name":"Pliego","mun_name_local":null,"prov_code":"30","prov_name":"Murcia","acom_code":"14","acom_name":"Región de Murcia","geo_point_2d":{"lon":-1.503767017821058,"lat":37.97747209049733}},"geometry":{"type":"Polygon","coordinates":[[[-1.52092,38.0084],[-1.52359,38.00949],[-1.52467,38.00728],[-1.52128,38.00082],[-1.52362,37.99553],[-1.52273,37.99379],[-1.52496,37.99187],[-1.52306,37.99047],[-1.52524,37.98938],[-1.52414,37.9882],[-1.52532,37.98334],[-1.52149,37.98205],[-1.52588,37.9802],[-1.52594,37.97525],[-1.5317,37.97474],[-1.52955,37.97288],[-1.53273,37.97196],[-1.52994,37.97028],[-1.53255,37.96827],[-1.5352,37.96868],[-1.53806,37.96606],[-1.53695,37.96164],[-1.53875,37.95974],[-1.53667,37.959],[-1.53635,37.9561],[-1.53463,37.95515],[-1.53513,37.95141],[-1.52385,37.9511],[-1.51794,37.94656],[-1.51424,37.94993],[-1.5079,37.95244],[-1.50387,37.94854],[-1.50056,37.94751],[-1.46636,37.96046],[-1.47197,37.96551],[-1.47824,37.97587],[-1.47643,37.98026],[-1.47768,37.98986],[-1.48088,37.99868],[-1.48625,38.00366],[-1.49162,38.00527],[-1.49166,38.00722],[-1.50473,38.01391],[-1.51043,38.01116],[-1.51272,38.015],[-1.51715,38.00946],[-1.52056,38.00834],[-1.52092,38.0084]]]}},{"type":"Feature","properties":{"mun_code":"30019","mun_name":"Cieza","mun_name_local":null,"prov_code":"30","prov_name":"Murcia","acom_code":"14","acom_name":"Región de Murcia","geo_point_2d":{"lon":-1.4698306120921094,"lat":38.27383861832178}},"geometry":{"type":"Polygon","coordinates":[[[-1.5895,38.3099],[-1.59519,38.30521],[-1.5835,38.27517],[-1.57828,38.22124],[-1.58848,38.19041],[-1.58542,38.18516],[-1.58948,38.18202],[-1.58249,38.18132],[-1.58079,38.17978],[-1.56956,38.17747],[-1.56656,38.17337],[-1.55267,38.16769],[-1.55244,38.16631],[-1.52747,38.16479],[-1.51626,38.16144],[-1.50149,38.18379],[-1.48502,38.1882],[-1.47132,38.19458],[-1.46895,38.19381],[-1.46096,38.19589],[-1.45676,38.19531],[-1.44972,38.20159],[-1.44208,38.20477],[-1.43681,38.21152],[-1.431,38.21355],[-1.42315,38.21234],[-1.41688,38.21239],[-1.41245,38.21438],[-1.40832,38.2133],[-1.40833,38.21484],[-1.4048,38.21692],[-1.39888,38.21583],[-1.39711,38.21874],[-1.3882,38.22146],[-1.38738,38.22279],[-1.38041,38.22193],[-1.36577,38.2248],[-1.36476,38.22971],[-1.36631,38.22976],[-1.36686,38.23252],[-1.36128,38.23373],[-1.35772,38.2435],[-1.34828,38.24909],[-1.34006,38.2587],[-1.33921,38.2619],[-1.34203,38.26478],[-1.33917,38.26696],[-1.33908,38.26963],[-1.34192,38.27669],[-1.34026,38.27916],[-1.33756,38.2799],[-1.33827,38.28259],[-1.33302,38.2837],[-1.32741,38.29114],[-1.32132,38.29477],[-1.32104,38.30864],[-1.31887,38.31328],[-1.32525,38.31835],[-1.33403,38.32225],[-1.35365,38.33453],[-1.3885,38.34443],[-1.39975,38.35014],[-1.43054,38.36148],[-1.45056,38.37228],[-1.47843,38.37644],[-1.48829,38.37316],[-1.50593,38.35935],[-1.51696,38.35707],[-1.51952,38.35355],[-1.54107,38.34349],[-1.54852,38.33221],[-1.55876,38.32504],[-1.58287,38.3134],[-1.5895,38.3099]]]}},{"type":"Feature","properties":{"mun_code":"30017","mun_name":"Cehegín","mun_name_local":null,"prov_code":"30","prov_name":"Murcia","acom_code":"14","acom_name":"Región de Murcia","geo_point_2d":{"lon":-1.7463374457755194,"lat":38.07576233979699}},"geometry":{"type":"Polygon","coordinates":[[[-1.82974,37.96672],[-1.82257,37.96964],[-1.81945,37.96937],[-1.7923,37.95346],[-1.77941,37.94957],[-1.74608,37.94479],[-1.73357,37.94889],[-1.72468,37.95415],[-1.72159,37.95903],[-1.71047,37.96923],[-1.70786,37.9836],[-1.71077,37.99168],[-1.70471,37.99402],[-1.70827,37.99593],[-1.71191,38.00218],[-1.7162,38.00283],[-1.71283,38.00419],[-1.71499,38.00567],[-1.72137,38.01724],[-1.72312,38.02594],[-1.72058,38.03797],[-1.72103,38.05687],[-1.71201,38.06674],[-1.70056,38.0751],[-1.6665,38.09549],[-1.64655,38.09519],[-1.62573,38.08945],[-1.62913,38.10891],[-1.63284,38.16382],[-1.64641,38.16245],[-1.65203,38.16566],[-1.71707,38.18432],[-1.72925,38.18619],[-1.74488,38.18557],[-1.75276,38.18305],[-1.76583,38.17478],[-1.77544,38.16556],[-1.77952,38.15927],[-1.79372,38.1531],[-1.80159,38.1469],[-1.80995,38.14652],[-1.8183,38.12772],[-1.81292,38.12221],[-1.81387,38.10844],[-1.82117,38.10285],[-1.82826,38.09953],[-1.83349,38.06466],[-1.8324,38.04957],[-1.83343,38.04794],[-1.83065,38.0299],[-1.82396,38.0077],[-1.82823,37.98487],[-1.8255,37.97902],[-1.82894,37.97196],[-1.82805,37.96778],[-1.82974,37.96672]]]}},{"type":"Feature","properties":{"mun_code":"30015","mun_name":"Caravaca de la Cruz","mun_name_local":null,"prov_code":"30","prov_name":"Murcia","acom_code":"14","acom_name":"Región de Murcia","geo_point_2d":{"lon":-2.026668762371262,"lat":38.00694495832612}},"geometry":{"type":"Polygon","coordinates":[[[-2.29837,38.0028],[-2.29839,37.99402],[-2.29627,37.9878],[-2.27639,37.95987],[-2.27415,37.95947],[-2.26642,37.95279],[-2.25825,37.94963],[-2.25278,37.93909],[-2.23755,37.92816],[-2.22971,37.92606],[-2.22771,37.92356],[-2.22204,37.92438],[-2.22133,37.9221],[-2.19467,37.90975],[-2.18492,37.90375],[-2.1846,37.90078],[-2.17215,37.88865],[-2.17073,37.89056],[-2.16481,37.89266],[-2.15615,37.89212],[-2.15184,37.89511],[-2.15236,37.89711],[-2.15069,37.89838],[-2.13861,37.89735],[-2.13436,37.89791],[-2.1303,37.9002],[-2.12489,37.90028],[-2.11987,37.89801],[-2.11811,37.89385],[-2.10955,37.88977],[-2.10821,37.88099],[-2.104,37.88103],[-2.10038,37.87775],[-2.09727,37.8769],[-2.08883,37.8787],[-2.07666,37.87782],[-2.05709,37.88085],[-2.05058,37.87956],[-2.04787,37.87491],[-2.04523,37.87397],[-2.03678,37.8731],[-2.02809,37.87046],[-2.02798,37.86932],[-2.02156,37.8682],[-2.00487,37.88001],[-2.00341,37.87651],[-1.99878,37.87583],[-1.99494,37.88027],[-1.98798,37.87355],[-1.98269,37.87388],[-1.97422,37.86847],[-1.97223,37.87137],[-1.97342,37.87507],[-1.97218,37.87996],[-1.96607,37.88465],[-1.87876,37.93752],[-1.85305,37.95779],[-1.84254,37.96248],[-1.83325,37.9649],[-1.82755,37.96844],[-1.82894,37.97196],[-1.8255,37.97902],[-1.82823,37.98487],[-1.82396,38.0077],[-1.83065,38.0299],[-1.83343,38.04794],[-1.8324,38.04957],[-1.83349,38.06466],[-1.82826,38.09953],[-1.82117,38.10285],[-1.81387,38.10844],[-1.81292,38.12221],[-1.8183,38.12772],[-1.80995,38.14652],[-1.81763,38.1468],[-1.82114,38.14473],[-1.82722,38.14726],[-1.82963,38.14589],[-1.84564,38.14472],[-1.86838,38.14018],[-1.87743,38.13969],[-1.88161,38.1412],[-1.88549,38.14062],[-1.91152,38.14439],[-1.91825,38.14238],[-1.92133,38.13964],[-1.94591,38.13749],[-1.96336,38.13415],[-1.9697,38.13633],[-1.97432,38.13523],[-1.97723,38.13644],[-1.97913,38.13505],[-1.99087,38.13915],[-1.99436,38.13882],[-2.03306,38.12716],[-2.03421,38.12452],[-2.03664,38.12331],[-2.04381,38.12349],[-2.0443,38.12142],[-2.04938,38.12212],[-2.09018,38.10616],[-2.11029,38.09961],[-2.12086,38.09081],[-2.12616,38.08841],[-2.13215,38.08187],[-2.16794,38.06264],[-2.18945,38.04826],[-2.19438,38.0502],[-2.20322,38.0376],[-2.20846,38.03535],[-2.21229,38.03153],[-2.23775,38.02081],[-2.2691,38.00405],[-2.27516,38.00457],[-2.28569,38.0015],[-2.2976,38.00224],[-2.29837,38.0028]]]}},{"type":"Feature","properties":{"mun_code":"30035","mun_name":"San Javier","mun_name_local":null,"prov_code":"30","prov_name":"Murcia","acom_code":"14","acom_name":"Región de Murcia","geo_point_2d":{"lon":-0.837645748123731,"lat":37.809835621161376}},"geometry":{"type":"MultiPolygon","coordinates":[[[[-0.77104,37.69067],[-0.76849,37.69024],[-0.76464,37.69185],[-0.76555,37.69691],[-0.77127,37.70291],[-0.7757,37.69965],[-0.77615,37.69568],[-0.77476,37.69294],[-0.77139,37.69099],[-0.77104,37.69067]]],[[[-0.79833,37.69678],[-0.79766,37.69602],[-0.79648,37.69691],[-0.79862,37.69887],[-0.7965,37.70034],[-0.79662,37.70203],[-0.79984,37.7037],[-0.80295,37.70301],[-0.8043,37.70139],[-0.80093,37.70042],[-0.79852,37.6972],[-0.79833,37.69678]]],[[[-0.70893,37.72562],[-0.7057,37.72645],[-0.70476,37.72827],[-0.70668,37.72898],[-0.70612,37.73045],[-0.70927,37.73028],[-0.70938,37.72608],[-0.70893,37.72562]]],[[[-0.74611,37.78187],[-0.74554,37.78282],[-0.74607,37.78211],[-0.74611,37.78187]]],[[[-0.75782,37.7806],[-0.75788,37.78239],[-0.75907,37.78184],[-0.75835,37.78065],[-0.75782,37.7806]]],[[[-0.72694,37.66907],[-0.73873,37.69961],[-0.74087,37.71509],[-0.73755,37.73678],[-0.72945,37.7386],[-0.73344,37.73791],[-0.73435,37.73884],[-0.73417,37.74459],[-0.73155,37.74571],[-0.72934,37.74397],[-0.72828,37.74448],[-0.72913,37.74624],[-0.73306,37.74692],[-0.72719,37.74674],[-0.7227,37.73994],[-0.72142,37.74003],[-0.72614,37.74732],[-0.72757,37.74749],[-0.72783,37.75009],[-0.72954,37.74833],[-0.73469,37.74907],[-0.74391,37.75696],[-0.7462,37.762],[-0.74621,37.76751],[-0.74403,37.7716],[-0.74013,37.77244],[-0.74351,37.77867],[-0.74647,37.78075],[-0.75199,37.78126],[-0.75347,37.78327],[-0.75713,37.78155],[-0.75619,37.78087],[-0.75605,37.78217],[-0.75444,37.78068],[-0.75671,37.78036],[-0.75522,37.77953],[-0.75314,37.78042],[-0.75384,37.77948],[-0.75795,37.77987],[-0.75321,37.77622],[-0.74999,37.78057],[-0.7505,37.77749],[-0.75365,37.77551],[-0.74853,37.76829],[-0.74674,37.75738],[-0.74213,37.75309],[-0.745,37.74898],[-0.74417,37.75094],[-0.74167,37.74813],[-0.73354,37.74654],[-0.73881,37.74441],[-0.73661,37.74639],[-0.73941,37.74604],[-0.74177,37.74747],[-0.73916,37.74402],[-0.74165,37.74318],[-0.74362,37.74366],[-0.74232,37.74533],[-0.74402,37.74499],[-0.74484,37.74758],[-0.74275,37.74752],[-0.74542,37.74815],[-0.7435,37.74253],[-0.73901,37.73733],[-0.74058,37.73431],[-0.74002,37.72674],[-0.74486,37.70989],[-0.74393,37.70845],[-0.74571,37.70623],[-0.74352,37.70605],[-0.74202,37.70393],[-0.74017,37.69251],[-0.74263,37.6895],[-0.73947,37.68832],[-0.73557,37.68084],[-0.73332,37.67364],[-0.73379,37.67006],[-0.73296,37.66834],[-0.72809,37.66907],[-0.72694,37.66907]]],[[[-0.75929,37.78283],[-0.75768,37.78427],[-0.76011,37.78441],[-0.75994,37.78343],[-0.75929,37.78283]]],[[[-0.75617,37.78315],[-0.75362,37.78359],[-0.75604,37.78762],[-0.75884,37.78871],[-0.7596,37.78766],[-0.75614,37.78746],[-0.75603,37.78585],[-0.75795,37.78643],[-0.75532,37.78528],[-0.75687,37.78511],[-0.75639,37.78326],[-0.75617,37.78315]]],[[[-0.74808,37.78808],[-0.748,37.78935],[-0.74801,37.7883],[-0.74808,37.78808]]],[[[-0.85094,37.88149],[-0.85325,37.88025],[-0.85089,37.87343],[-0.85425,37.8647],[-0.86533,37.8643],[-0.88592,37.84913],[-0.89496,37.8499],[-0.91238,37.84275],[-0.90446,37.83122],[-0.89767,37.82519],[-0.89265,37.81636],[-0.87342,37.8091],[-0.85696,37.7955],[-0.8505,37.79235],[-0.85824,37.78488],[-0.85904,37.78155],[-0.86964,37.76897],[-0.86109,37.75799],[-0.85219,37.76313],[-0.85094,37.76164],[-0.84529,37.76112],[-0.84211,37.77593],[-0.8385,37.7693],[-0.83374,37.76513],[-0.83049,37.76883],[-0.8238,37.76702],[-0.82319,37.76532],[-0.82166,37.76649],[-0.81711,37.76531],[-0.81053,37.77258],[-0.80449,37.77657],[-0.8003,37.78244],[-0.80131,37.79026],[-0.79706,37.78708],[-0.80123,37.79034],[-0.80304,37.79794],[-0.80186,37.79937],[-0.79985,37.79877],[-0.80174,37.80058],[-0.79678,37.80799],[-0.79703,37.80968],[-0.79028,37.81366],[-0.79814,37.82001],[-0.80188,37.81696],[-0.81128,37.8221],[-0.81198,37.82797],[-0.80946,37.83473],[-0.81599,37.83784],[-0.82555,37.84512],[-0.82076,37.85318],[-0.84231,37.86817],[-0.84089,37.86946],[-0.84108,37.87236],[-0.85095,37.88143],[-0.85094,37.88149]]],[[[-0.76047,37.78481],[-0.75737,37.78482],[-0.75906,37.78487],[-0.75778,37.78529],[-0.7591,37.78506],[-0.7603,37.78872],[-0.75995,37.78486],[-0.76047,37.78481]]],[[[-0.76183,37.78948],[-0.76143,37.78872],[-0.75902,37.79028],[-0.76245,37.79067],[-0.76212,37.78982],[-0.76183,37.78948]]],[[[-0.76171,37.7945],[-0.75656,37.79202],[-0.7535,37.78822],[-0.74817,37.79067],[-0.76171,37.7945]]]]}},{"type":"Feature","properties":{"mun_code":"30041","mun_name":"La Unión","mun_name_local":null,"prov_code":"30","prov_name":"Murcia","acom_code":"14","acom_name":"Región de Murcia","geo_point_2d":{"lon":-0.8800947035881687,"lat":37.61333392486189}},"geometry":{"type":"MultiPolygon","coordinates":[[[[-0.84138,37.5778],[-0.84316,37.58112],[-0.84433,37.57896],[-0.84176,37.57775],[-0.84138,37.5778]]],[[[-0.84195,37.58107],[-0.84057,37.60196],[-0.84836,37.60772],[-0.8534,37.60888],[-0.85424,37.6159],[-0.86301,37.62227],[-0.86805,37.62408],[-0.87043,37.62892],[-0.87462,37.62867],[-0.87669,37.6301],[-0.88138,37.63845],[-0.89656,37.64071],[-0.90537,37.64571],[-0.91097,37.64431],[-0.91703,37.63914],[-0.92304,37.63837],[-0.92927,37.63474],[-0.9263,37.63181],[-0.92658,37.62515],[-0.92318,37.61888],[-0.91289,37.62179],[-0.90837,37.62109],[-0.90302,37.62449],[-0.90013,37.61652],[-0.89101,37.60788],[-0.88955,37.60114],[-0.88241,37.5963],[-0.88023,37.59745],[-0.87829,37.59365],[-0.87262,37.59477],[-0.87,37.57569],[-0.86712,37.57958],[-0.85975,37.57893],[-0.85428,37.58023],[-0.85204,37.58214],[-0.8426,37.58133],[-0.84195,37.58107]]]]}},{"type":"Feature","properties":{"mun_code":"30031","mun_name":"Ojós","mun_name_local":null,"prov_code":"30","prov_name":"Murcia","acom_code":"14","acom_name":"Región de Murcia","geo_point_2d":{"lon":-1.361475973988359,"lat":38.10657598622108}},"geometry":{"type":"Polygon","coordinates":[[[-1.41719,38.10536],[-1.41256,38.10287],[-1.39936,38.10171],[-1.39638,38.09812],[-1.39356,38.09767],[-1.39536,38.0887],[-1.38515,38.07989],[-1.38611,38.07677],[-1.38451,38.07485],[-1.38025,38.07512],[-1.37131,38.07133],[-1.35976,38.06931],[-1.35446,38.06604],[-1.33289,38.0595],[-1.33093,38.0615],[-1.33085,38.06707],[-1.32672,38.07486],[-1.32981,38.08149],[-1.33599,38.0853],[-1.33392,38.0955],[-1.33682,38.10916],[-1.33405,38.11819],[-1.32916,38.12567],[-1.33452,38.1331],[-1.3335,38.13457],[-1.33835,38.14027],[-1.32341,38.14764],[-1.32624,38.15153],[-1.32411,38.15659],[-1.32588,38.15934],[-1.33446,38.16396],[-1.33662,38.16024],[-1.3526,38.16199],[-1.35028,38.15815],[-1.35062,38.14744],[-1.34784,38.13947],[-1.3494,38.1347],[-1.35639,38.133],[-1.36066,38.13374],[-1.36262,38.13158],[-1.36497,38.13253],[-1.36699,38.12878],[-1.37605,38.1277],[-1.37712,38.12632],[-1.39238,38.12615],[-1.3984,38.12342],[-1.40579,38.12309],[-1.40811,38.12141],[-1.41686,38.10681],[-1.41719,38.10536]]]}},{"type":"Feature","properties":{"mun_code":"30009","mun_name":"Archena","mun_name_local":null,"prov_code":"30","prov_name":"Murcia","acom_code":"14","acom_name":"Región de Murcia","geo_point_2d":{"lon":-1.2951702657337518,"lat":38.11164369580661}},"geometry":{"type":"Polygon","coordinates":[[[-1.30946,38.12814],[-1.31011,38.12132],[-1.31272,38.12051],[-1.30956,38.11541],[-1.31852,38.11088],[-1.3209,38.1073],[-1.32376,38.10272],[-1.32267,38.09704],[-1.32532,38.09538],[-1.32558,38.09006],[-1.3138,38.08977],[-1.30645,38.08605],[-1.29995,38.0907],[-1.29233,38.09303],[-1.29269,38.09714],[-1.29022,38.09975],[-1.27714,38.10388],[-1.2789,38.10732],[-1.27228,38.1064],[-1.26543,38.13267],[-1.27342,38.14007],[-1.27673,38.13541],[-1.29096,38.12842],[-1.29412,38.12457],[-1.29979,38.12583],[-1.30584,38.13067],[-1.30882,38.12845],[-1.30946,38.12814]]]}},{"type":"Feature","properties":{"mun_code":"30034","mun_name":"Ricote","mun_name_local":null,"prov_code":"30","prov_name":"Murcia","acom_code":"14","acom_name":"Región de Murcia","geo_point_2d":{"lon":-1.436419563097667,"lat":38.149261329958094}},"geometry":{"type":"Polygon","coordinates":[[[-1.51626,38.16144],[-1.50572,38.14201],[-1.49131,38.12051],[-1.48575,38.11698],[-1.48,38.11811],[-1.47788,38.11487],[-1.46233,38.11644],[-1.43916,38.11406],[-1.43184,38.11242],[-1.41719,38.10536],[-1.40811,38.12141],[-1.40579,38.12309],[-1.3984,38.12342],[-1.39238,38.12615],[-1.37712,38.12632],[-1.37605,38.1277],[-1.3674,38.12858],[-1.36497,38.13253],[-1.36262,38.13158],[-1.36066,38.13374],[-1.35639,38.133],[-1.34981,38.13446],[-1.34784,38.13947],[-1.35062,38.14744],[-1.35028,38.15815],[-1.3526,38.16199],[-1.35626,38.1638],[-1.36985,38.16609],[-1.3763,38.1728],[-1.37843,38.17324],[-1.37902,38.17649],[-1.3828,38.17553],[-1.38823,38.17725],[-1.38872,38.18241],[-1.40191,38.18038],[-1.41633,38.17394],[-1.42804,38.17057],[-1.43877,38.17041],[-1.45099,38.1722],[-1.46632,38.18303],[-1.46691,38.19435],[-1.47132,38.19458],[-1.48502,38.1882],[-1.50149,38.18379],[-1.51562,38.16273],[-1.51626,38.16144]]]}},{"type":"Feature","properties":{"mun_code":"30038","mun_name":"Las Torres de Cotillas","mun_name_local":null,"prov_code":"30","prov_name":"Murcia","acom_code":"14","acom_name":"Región de Murcia","geo_point_2d":{"lon":-1.2682125024870659,"lat":38.02103061654551}},"geometry":{"type":"Polygon","coordinates":[[[-1.31249,38.02416],[-1.31677,38.02378],[-1.32244,38.02028],[-1.3282,38.01309],[-1.31949,38.00581],[-1.29341,37.99848],[-1.28212,37.99982],[-1.27232,37.99686],[-1.2657,37.99873],[-1.25265,37.99878],[-1.24471,37.99562],[-1.24311,37.99764],[-1.24613,37.99895],[-1.24599,38.00051],[-1.23298,38.00576],[-1.23082,38.00849],[-1.22581,38.011],[-1.21509,38.01267],[-1.21931,38.01312],[-1.21795,38.01898],[-1.21375,38.01941],[-1.21139,38.02108],[-1.218,38.02668],[-1.2189,38.0294],[-1.21557,38.03191],[-1.21656,38.0339],[-1.22333,38.03423],[-1.22823,38.04454],[-1.23443,38.04544],[-1.24109,38.049],[-1.24673,38.04791],[-1.24913,38.04568],[-1.2519,38.04604],[-1.2533,38.04225],[-1.25203,38.04002],[-1.25593,38.03891],[-1.25645,38.03622],[-1.26141,38.03729],[-1.26363,38.04081],[-1.27536,38.0403],[-1.27827,38.04412],[-1.2843,38.04054],[-1.28686,38.0416],[-1.29004,38.03984],[-1.29819,38.04619],[-1.30203,38.0466],[-1.30643,38.04372],[-1.3026,38.04216],[-1.30051,38.03528],[-1.31239,38.0271],[-1.31127,38.02536],[-1.31249,38.02416]]]}},{"type":"Feature","properties":{"mun_code":"30004","mun_name":"Albudeite","mun_name_local":null,"prov_code":"30","prov_name":"Murcia","acom_code":"14","acom_name":"Región de Murcia","geo_point_2d":{"lon":-1.3826849975611386,"lat":38.0295413986345}},"geometry":{"type":"Polygon","coordinates":[[[-1.39834,38.00015],[-1.35451,38.02351],[-1.35874,38.03725],[-1.36889,38.04535],[-1.36721,38.05174],[-1.37327,38.05416],[-1.38575,38.05354],[-1.38909,38.0506],[-1.4011,38.04538],[-1.40503,38.03909],[-1.403,38.02008],[-1.39834,38.00015]]]}},{"type":"Feature","properties":{"mun_code":"30023","mun_name":"Librilla","mun_name_local":null,"prov_code":"30","prov_name":"Murcia","acom_code":"14","acom_name":"Región de Murcia","geo_point_2d":{"lon":-1.3406837472351765,"lat":37.90503875212507}},"geometry":{"type":"Polygon","coordinates":[[[-1.41076,37.90606],[-1.40177,37.9018],[-1.3895,37.88938],[-1.37525,37.88565],[-1.36975,37.88207],[-1.36247,37.8805],[-1.36265,37.87751],[-1.35619,37.87121],[-1.36123,37.86044],[-1.35943,37.86034],[-1.35489,37.86243],[-1.35139,37.86106],[-1.34722,37.86208],[-1.34147,37.86702],[-1.33609,37.86886],[-1.33222,37.87396],[-1.31695,37.87518],[-1.31418,37.87795],[-1.31279,37.88344],[-1.30652,37.88953],[-1.2991,37.88965],[-1.29274,37.89887],[-1.27212,37.911],[-1.27763,37.91688],[-1.28767,37.9203],[-1.29407,37.92448],[-1.29772,37.92896],[-1.30769,37.93119],[-1.30929,37.93304],[-1.3148,37.93508],[-1.31884,37.93425],[-1.32531,37.93512],[-1.33713,37.94232],[-1.34402,37.93925],[-1.35831,37.93848],[-1.35945,37.9351],[-1.35824,37.93343],[-1.36186,37.92738],[-1.37021,37.92878],[-1.38279,37.92096],[-1.38541,37.91771],[-1.39185,37.91803],[-1.40396,37.91078],[-1.41076,37.90606]]]}},{"type":"Feature","properties":{"mun_code":"30027","mun_name":"Molina de Segura","mun_name_local":null,"prov_code":"30","prov_name":"Murcia","acom_code":"14","acom_name":"Región de Murcia","geo_point_2d":{"lon":-1.1993383697946185,"lat":38.122724723503616}},"geometry":{"type":"Polygon","coordinates":[[[-1.27342,38.14007],[-1.26543,38.13267],[-1.26648,38.12905],[-1.26318,38.13011],[-1.2613,38.1261],[-1.25523,38.1241],[-1.25416,38.1225],[-1.24029,38.1189],[-1.23638,38.11389],[-1.23273,38.11368],[-1.22586,38.10722],[-1.22759,38.09682],[-1.23817,38.08559],[-1.24169,38.07874],[-1.24757,38.07394],[-1.2469,38.07284],[-1.24872,38.07207],[-1.24936,38.06933],[-1.24567,38.06749],[-1.24253,38.06969],[-1.24057,38.06804],[-1.23537,38.05806],[-1.23137,38.05489],[-1.23095,38.05299],[-1.23387,38.05103],[-1.23108,38.04858],[-1.2268,38.0505],[-1.2139,38.04791],[-1.21635,38.04304],[-1.22441,38.03819],[-1.22333,38.03423],[-1.21839,38.03474],[-1.21594,38.03313],[-1.21581,38.03147],[-1.2189,38.0294],[-1.218,38.02668],[-1.21139,38.02108],[-1.21375,38.01941],[-1.21795,38.01898],[-1.21931,38.01312],[-1.21509,38.01267],[-1.21371,38.01124],[-1.21868,38.00429],[-1.21612,38.00271],[-1.21153,38.0032],[-1.20625,38.00194],[-1.20064,38.00366],[-1.19501,38.01404],[-1.19176,38.01374],[-1.18934,38.01552],[-1.18512,38.01458],[-1.17729,38.02041],[-1.17659,38.02781],[-1.17931,38.0312],[-1.17947,38.03306],[-1.17742,38.03415],[-1.17885,38.03742],[-1.17353,38.03839],[-1.17162,38.04277],[-1.16704,38.04715],[-1.16622,38.0506],[-1.16123,38.05152],[-1.16122,38.05456],[-1.1569,38.05493],[-1.16035,38.05824],[-1.16085,38.06222],[-1.15981,38.06431],[-1.15214,38.06609],[-1.15403,38.07418],[-1.13707,38.08082],[-1.13631,38.09019],[-1.13793,38.0926],[-1.13558,38.09552],[-1.13148,38.11789],[-1.13324,38.11973],[-1.13319,38.12788],[-1.1356,38.1283],[-1.1364,38.13125],[-1.13386,38.13225],[-1.13749,38.13528],[-1.13805,38.13881],[-1.14058,38.13959],[-1.14106,38.14289],[-1.14405,38.14277],[-1.14535,38.14561],[-1.15116,38.14868],[-1.1753,38.18237],[-1.19074,38.20906],[-1.21312,38.27169],[-1.2203,38.23839],[-1.21919,38.22354],[-1.23318,38.21124],[-1.2357,38.20603],[-1.2367,38.18539],[-1.24084,38.17976],[-1.24058,38.17813],[-1.24429,38.17615],[-1.24659,38.17281],[-1.24833,38.16786],[-1.25453,38.16607],[-1.25716,38.16281],[-1.25999,38.16295],[-1.26077,38.16011],[-1.2628,38.15962],[-1.26302,38.15771],[-1.26439,38.15791],[-1.26372,38.15588],[-1.26615,38.15545],[-1.26443,38.15369],[-1.26741,38.15405],[-1.26748,38.15291],[-1.27106,38.15157],[-1.27024,38.14759],[-1.27298,38.14651],[-1.27163,38.14557],[-1.2731,38.14114],[-1.27342,38.14007]]]}},{"type":"Feature","properties":{"mun_code":"30021","mun_name":"Fuente Álamo de Murcia","mun_name_local":null,"prov_code":"30","prov_name":"Murcia","acom_code":"14","acom_name":"Región de Murcia","geo_point_2d":{"lon":-1.2139260911641525,"lat":37.73226842204338}},"geometry":{"type":"Polygon","coordinates":[[[-1.34093,37.72386],[-1.32703,37.70014],[-1.3195,37.69199],[-1.31197,37.67641],[-1.29302,37.67249],[-1.24996,37.65773],[-1.22333,37.63435],[-1.21547,37.63224],[-1.21511,37.6297],[-1.21323,37.62981],[-1.20926,37.63376],[-1.20355,37.63069],[-1.19994,37.63257],[-1.19724,37.63161],[-1.19335,37.63288],[-1.1877,37.63214],[-1.18838,37.63434],[-1.18684,37.6367],[-1.18099,37.63776],[-1.17502,37.64344],[-1.17633,37.64567],[-1.17498,37.64897],[-1.17682,37.65427],[-1.17647,37.6597],[-1.17093,37.66116],[-1.1433,37.6903],[-1.13446,37.69527],[-1.13056,37.69371],[-1.12662,37.70107],[-1.12295,37.7028],[-1.12266,37.70892],[-1.12078,37.71144],[-1.12323,37.7144],[-1.12123,37.7294],[-1.11678,37.7306],[-1.11257,37.72988],[-1.10557,37.72227],[-1.08679,37.71576],[-1.08393,37.7159],[-1.09689,37.74087],[-1.06359,37.76025],[-1.07107,37.77436],[-1.08053,37.77312],[-1.0847,37.77695],[-1.08662,37.77574],[-1.09582,37.78085],[-1.09899,37.77818],[-1.10072,37.77382],[-1.10657,37.774],[-1.11111,37.76959],[-1.11835,37.76809],[-1.12687,37.76331],[-1.12817,37.75569],[-1.13398,37.75469],[-1.14173,37.75121],[-1.14609,37.75796],[-1.15303,37.76186],[-1.15672,37.76895],[-1.16453,37.77332],[-1.16025,37.78933],[-1.17218,37.7992],[-1.17647,37.80043],[-1.17903,37.8039],[-1.18374,37.80641],[-1.18762,37.8123],[-1.19499,37.80669],[-1.19795,37.80597],[-1.19791,37.80411],[-1.21005,37.80007],[-1.21167,37.79999],[-1.21223,37.80199],[-1.21456,37.8012],[-1.21901,37.80346],[-1.22344,37.80388],[-1.21639,37.80971],[-1.22093,37.81825],[-1.23087,37.82801],[-1.24008,37.83099],[-1.24289,37.83047],[-1.24728,37.83244],[-1.24825,37.83491],[-1.25243,37.83556],[-1.25181,37.83721],[-1.26098,37.84722],[-1.26836,37.84838],[-1.28627,37.82557],[-1.28658,37.80852],[-1.29067,37.80055],[-1.28711,37.79163],[-1.28944,37.78957],[-1.2825,37.77954],[-1.2768,37.76492],[-1.27427,37.74353],[-1.27241,37.74262],[-1.28182,37.73749],[-1.3031,37.72987],[-1.31373,37.72948],[-1.3252,37.72486],[-1.34036,37.72358],[-1.34093,37.72386]]]}},{"type":"Feature","properties":{"mun_code":"30012","mun_name":"Bullas","mun_name_local":null,"prov_code":"30","prov_name":"Murcia","acom_code":"14","acom_name":"Región de Murcia","geo_point_2d":{"lon":-1.6732382027761026,"lat":38.041123483177735}},"geometry":{"type":"Polygon","coordinates":[[[-1.71429,37.96489],[-1.702,37.974],[-1.67192,37.98722],[-1.67266,37.99],[-1.66517,37.99308],[-1.66262,37.99582],[-1.66138,38.00151],[-1.65813,38.00312],[-1.63132,38.03401],[-1.62439,38.03845],[-1.61956,38.04778],[-1.61842,38.05384],[-1.61514,38.05589],[-1.62573,38.08945],[-1.64655,38.09519],[-1.6665,38.09549],[-1.70056,38.0751],[-1.71201,38.06674],[-1.72103,38.05687],[-1.72058,38.03797],[-1.72312,38.02594],[-1.72137,38.01724],[-1.71499,38.00567],[-1.71283,38.00419],[-1.7162,38.00283],[-1.71191,38.00218],[-1.70827,37.99593],[-1.70471,37.99402],[-1.71077,37.99168],[-1.7079,37.98483],[-1.7082,37.97775],[-1.71047,37.96923],[-1.71447,37.96509],[-1.71429,37.96489]]]}},{"type":"Feature","properties":{"mun_code":"30902","mun_name":"Los Alcázares","mun_name_local":null,"prov_code":"30","prov_name":"Murcia","acom_code":"14","acom_name":"Región de Murcia","geo_point_2d":{"lon":-0.8654337505218085,"lat":37.74334764278092}},"geometry":{"type":"Polygon","coordinates":[[[-0.9141,37.721],[-0.89731,37.7199],[-0.8751,37.72257],[-0.8673,37.72058],[-0.86,37.72145],[-0.85886,37.7246],[-0.85138,37.73099],[-0.85133,37.73534],[-0.85037,37.73627],[-0.85008,37.7352],[-0.84794,37.73555],[-0.84973,37.7364],[-0.84772,37.7386],[-0.84861,37.74256],[-0.84668,37.74367],[-0.84483,37.74804],[-0.84021,37.75231],[-0.83818,37.75281],[-0.83784,37.75115],[-0.83793,37.75268],[-0.82704,37.7553],[-0.82612,37.75795],[-0.81774,37.76511],[-0.82166,37.76649],[-0.82319,37.76532],[-0.8238,37.76702],[-0.83049,37.76883],[-0.83374,37.76513],[-0.8385,37.7693],[-0.84211,37.77593],[-0.84529,37.76112],[-0.85094,37.76164],[-0.85219,37.76313],[-0.86109,37.75799],[-0.8664,37.7656],[-0.87411,37.76248],[-0.89679,37.73295],[-0.91284,37.72154],[-0.9141,37.721]]]}},{"type":"Feature","properties":{"mun_code":"30003","mun_name":"Águilas","mun_name_local":null,"prov_code":"30","prov_name":"Murcia","acom_code":"14","acom_name":"Región de Murcia","geo_point_2d":{"lon":-1.5901441176552287,"lat":37.46797897858346}},"geometry":{"type":"MultiPolygon","coordinates":[[[[-1.54765,37.40741],[-1.54392,37.40886],[-1.54731,37.4096],[-1.5479,37.40748],[-1.54765,37.40741]]],[[[-1.46841,37.47362],[-1.4725,37.47521],[-1.49224,37.49127],[-1.50868,37.49593],[-1.51271,37.49887],[-1.51682,37.5058],[-1.52424,37.50969],[-1.52606,37.51792],[-1.52784,37.51999],[-1.52486,37.52494],[-1.52024,37.52522],[-1.52647,37.54335],[-1.52352,37.55561],[-1.54056,37.56591],[-1.54832,37.56605],[-1.55255,37.56233],[-1.56274,37.56008],[-1.56778,37.55629],[-1.57562,37.55615],[-1.57962,37.55297],[-1.58596,37.55055],[-1.58476,37.54848],[-1.58834,37.54532],[-1.59468,37.54324],[-1.59975,37.53908],[-1.60935,37.53471],[-1.60983,37.52796],[-1.61766,37.52767],[-1.62147,37.52584],[-1.62187,37.53184],[-1.62654,37.53214],[-1.63385,37.53478],[-1.64165,37.52926],[-1.64745,37.52725],[-1.65041,37.52158],[-1.64683,37.51795],[-1.6518,37.5108],[-1.67071,37.49986],[-1.6751,37.49882],[-1.67666,37.49424],[-1.67859,37.49438],[-1.67807,37.49178],[-1.68041,37.49211],[-1.68344,37.48738],[-1.68216,37.48492],[-1.68446,37.48365],[-1.68505,37.47887],[-1.69181,37.47666],[-1.69261,37.475],[-1.69059,37.47209],[-1.69441,37.46604],[-1.69069,37.46448],[-1.69822,37.45517],[-1.69472,37.45044],[-1.69677,37.4478],[-1.69419,37.44586],[-1.69284,37.44085],[-1.68789,37.4354],[-1.68942,37.43288],[-1.68712,37.4305],[-1.70502,37.42102],[-1.66597,37.40086],[-1.6293,37.37399],[-1.62614,37.37402],[-1.62553,37.3753],[-1.62755,37.37525],[-1.62819,37.37653],[-1.62581,37.38026],[-1.62231,37.38049],[-1.61866,37.38435],[-1.6165,37.38338],[-1.61195,37.38452],[-1.61253,37.38607],[-1.61049,37.38701],[-1.61171,37.38797],[-1.60837,37.38949],[-1.60439,37.39465],[-1.59719,37.39643],[-1.59514,37.39971],[-1.59133,37.39998],[-1.59273,37.40047],[-1.5908,37.4021],[-1.58564,37.40294],[-1.58348,37.40021],[-1.57852,37.40094],[-1.57369,37.4032],[-1.57793,37.40243],[-1.57781,37.40576],[-1.57262,37.40769],[-1.57358,37.4065],[-1.57058,37.4077],[-1.56624,37.40646],[-1.56512,37.40485],[-1.5669,37.40271],[-1.55925,37.40462],[-1.55844,37.40609],[-1.56159,37.40613],[-1.56202,37.40724],[-1.56089,37.40873],[-1.559,37.40854],[-1.56099,37.40926],[-1.55964,37.4113],[-1.55558,37.41261],[-1.54785,37.41091],[-1.54308,37.41698],[-1.54143,37.41706],[-1.54131,37.4191],[-1.53622,37.41996],[-1.53501,37.42165],[-1.53065,37.42143],[-1.52594,37.42808],[-1.52193,37.42876],[-1.51901,37.43178],[-1.50942,37.43213],[-1.50779,37.43107],[-1.50451,37.43237],[-1.50138,37.43105],[-1.49766,37.42241],[-1.49111,37.42146],[-1.48622,37.42292],[-1.4808,37.42792],[-1.4778,37.42852],[-1.47663,37.43106],[-1.47697,37.43328],[-1.48198,37.43328],[-1.4842,37.43527],[-1.48189,37.44927],[-1.47953,37.45071],[-1.48152,37.45255],[-1.47767,37.45488],[-1.47644,37.46143],[-1.47518,37.46136],[-1.47302,37.46472],[-1.47414,37.46496],[-1.47363,37.46682],[-1.47102,37.46782],[-1.46863,37.47305],[-1.46841,37.47362]]]]}},{"type":"Feature","properties":{"mun_code":"30026","mun_name":"Mazarrón","mun_name_local":null,"prov_code":"30","prov_name":"Murcia","acom_code":"14","acom_name":"Región de Murcia","geo_point_2d":{"lon":-1.3522958874614446,"lat":37.62077095642513}},"geometry":{"type":"MultiPolygon","coordinates":[[[[-1.26682,37.55476],[-1.26708,37.55785],[-1.27001,37.55514],[-1.26746,37.55483],[-1.26682,37.55476]]],[[[-1.36948,37.72148],[-1.39634,37.70486],[-1.43586,37.69151],[-1.46237,37.67951],[-1.45946,37.67272],[-1.45579,37.67121],[-1.45319,37.6651],[-1.45418,37.66102],[-1.45713,37.66081],[-1.45527,37.6552],[-1.4525,37.65316],[-1.44999,37.65409],[-1.45133,37.65187],[-1.44908,37.65081],[-1.45298,37.6502],[-1.45354,37.64897],[-1.4521,37.6455],[-1.45415,37.63498],[-1.47604,37.62881],[-1.46146,37.62086],[-1.45008,37.59577],[-1.44649,37.58268],[-1.4525,37.57288],[-1.4574,37.57187],[-1.46179,37.56246],[-1.4548,37.55438],[-1.448,37.55288],[-1.44137,37.53923],[-1.43324,37.54091],[-1.39659,37.51738],[-1.39075,37.52479],[-1.38767,37.52501],[-1.38166,37.52959],[-1.37846,37.52944],[-1.37219,37.53251],[-1.37185,37.5348],[-1.36561,37.54246],[-1.354,37.55132],[-1.34768,37.55433],[-1.34444,37.55444],[-1.3402,37.55735],[-1.33228,37.5563],[-1.33186,37.55975],[-1.3263,37.56269],[-1.31955,37.563],[-1.31838,37.56186],[-1.31926,37.56061],[-1.31511,37.56273],[-1.29063,37.56005],[-1.28679,37.55888],[-1.28669,37.55642],[-1.28469,37.55887],[-1.2803,37.55918],[-1.27892,37.55747],[-1.27928,37.55896],[-1.27679,37.55956],[-1.27438,37.55588],[-1.27223,37.55704],[-1.27471,37.55672],[-1.27297,37.55921],[-1.26749,37.56049],[-1.26211,37.55771],[-1.25575,37.55758],[-1.25403,37.56025],[-1.25447,37.56453],[-1.25529,37.56202],[-1.25681,37.56214],[-1.25661,37.56361],[-1.25828,37.56253],[-1.25811,37.5648],[-1.25659,37.56392],[-1.25762,37.56608],[-1.25472,37.56988],[-1.24919,37.57166],[-1.24664,37.57589],[-1.23811,37.57782],[-1.23423,37.57594],[-1.22673,37.57575],[-1.22561,37.57336],[-1.22153,37.58385],[-1.22346,37.588],[-1.21525,37.59208],[-1.21598,37.59708],[-1.21396,37.60065],[-1.20884,37.60142],[-1.21268,37.60689],[-1.20836,37.61149],[-1.21141,37.61735],[-1.20908,37.61834],[-1.20841,37.62066],[-1.21525,37.62988],[-1.21547,37.63224],[-1.22333,37.63435],[-1.24996,37.65773],[-1.29302,37.67249],[-1.31197,37.67641],[-1.3195,37.69199],[-1.32703,37.70014],[-1.34093,37.72386],[-1.35426,37.72275],[-1.36948,37.72148]]]]}},{"type":"Feature","properties":{"mun_code":"30016","mun_name":"Cartagena","mun_name_local":null,"prov_code":"30","prov_name":"Murcia","acom_code":"14","acom_name":"Región de Murcia","geo_point_2d":{"lon":-0.9896415131446045,"lat":37.63869080843934}},"geometry":{"type":"MultiPolygon","coordinates":[[[[-0.64958,37.65525],[-0.64798,37.65629],[-0.64946,37.65552],[-0.64958,37.65525]]],[[[-0.75003,37.66531],[-0.74765,37.66569],[-0.75009,37.66563],[-0.75003,37.66531]]],[[[-0.74106,37.66875],[-0.73905,37.6691],[-0.74033,37.6705],[-0.74101,37.6689],[-0.74106,37.66875]]],[[[-0.96793,37.55868],[-0.96785,37.5601],[-0.97167,37.5592],[-0.96855,37.55867],[-0.96793,37.55868]]],[[[-1.20869,37.57097],[-1.20748,37.57093],[-1.20794,37.57235],[-1.20836,37.57132],[-1.20869,37.57097]]],[[[-1.04215,37.57035],[-1.04085,37.57097],[-1.04233,37.57047],[-1.04215,37.57035]]],[[[-1.21511,37.6297],[-1.20841,37.62066],[-1.20908,37.61834],[-1.21141,37.61735],[-1.20836,37.61149],[-1.21268,37.60689],[-1.20875,37.60188],[-1.21469,37.59998],[-1.21598,37.59708],[-1.21525,37.59208],[-1.22346,37.588],[-1.22153,37.58385],[-1.22561,37.57336],[-1.21945,37.57551],[-1.21339,37.57529],[-1.20947,37.57279],[-1.20221,37.57376],[-1.18922,37.56802],[-1.18048,37.56631],[-1.17394,37.56297],[-1.16874,37.55768],[-1.17047,37.55219],[-1.17492,37.55087],[-1.16981,37.54371],[-1.16789,37.5439],[-1.1662,37.54198],[-1.15619,37.54046],[-1.15419,37.54177],[-1.15219,37.54118],[-1.15368,37.54042],[-1.15264,37.53969],[-1.14784,37.54227],[-1.14283,37.53903],[-1.1369,37.54013],[-1.13118,37.53779],[-1.12296,37.53837],[-1.11881,37.53395],[-1.11359,37.535],[-1.11106,37.53408],[-1.10676,37.53587],[-1.11322,37.53972],[-1.11701,37.54492],[-1.11954,37.54478],[-1.12559,37.54735],[-1.12715,37.55213],[-1.12169,37.55716],[-1.12247,37.55972],[-1.11836,37.55976],[-1.11984,37.56234],[-1.11451,37.56424],[-1.1087,37.56933],[-1.10168,37.56778],[-1.09579,37.56884],[-1.09195,37.57246],[-1.09116,37.57525],[-1.08505,37.57775],[-1.08266,37.57744],[-1.07944,37.58179],[-1.07622,37.58143],[-1.07375,37.58414],[-1.0703,37.58336],[-1.07053,37.58211],[-1.06648,37.57988],[-1.05915,37.58003],[-1.05783,37.58234],[-1.05553,37.58287],[-1.04849,37.58171],[-1.04573,37.57946],[-1.03118,37.57912],[-1.02302,37.57317],[-1.01878,37.57435],[-1.01794,37.57284],[-1.01721,37.57404],[-1.01239,37.575],[-1.01226,37.58171],[-1.01001,37.58331],[-1.00531,37.58369],[-1.00814,37.58365],[-1.00861,37.58616],[-0.99897,37.58456],[-1.00151,37.58959],[-0.99946,37.58749],[-0.99338,37.58561],[-0.98974,37.58151],[-0.98631,37.58502],[-0.98397,37.58439],[-0.98737,37.58883],[-0.98719,37.58674],[-0.98928,37.58812],[-0.98653,37.59295],[-0.98938,37.59608],[-0.99352,37.59549],[-0.99472,37.60029],[-0.99343,37.6013],[-0.98974,37.60141],[-0.99115,37.60082],[-0.98987,37.59741],[-0.9827,37.59727],[-0.98263,37.59588],[-0.98517,37.59526],[-0.97923,37.59551],[-0.98159,37.59555],[-0.9817,37.5972],[-0.98056,37.59603],[-0.98063,37.59723],[-0.97915,37.59628],[-0.9792,37.59728],[-0.97588,37.59752],[-0.97606,37.59888],[-0.97543,37.59769],[-0.97428,37.59835],[-0.97471,37.59737],[-0.97308,37.59714],[-0.97561,37.59627],[-0.97363,37.59317],[-0.97562,37.58934],[-0.98354,37.58908],[-0.97531,37.58852],[-0.97875,37.58259],[-0.9775,37.58104],[-0.97477,37.58121],[-0.97582,37.57726],[-0.96914,37.5754],[-0.96992,37.57364],[-0.96668,37.57488],[-0.96187,37.57433],[-0.96182,37.57331],[-0.9617,37.57431],[-0.95863,37.57405],[-0.95785,37.57288],[-0.96037,37.57128],[-0.95902,37.57006],[-0.95547,37.57146],[-0.95241,37.56789],[-0.95048,37.56831],[-0.95767,37.56544],[-0.95923,37.56692],[-0.95775,37.5654],[-0.96136,37.56352],[-0.9673,37.56918],[-0.97099,37.56921],[-0.96674,37.56814],[-0.96793,37.56758],[-0.9666,37.56251],[-0.97326,37.56139],[-0.97901,37.56721],[-0.97176,37.55965],[-0.96747,37.56051],[-0.96675,37.55912],[-0.95216,37.55792],[-0.94332,37.5594],[-0.93384,37.55898],[-0.93296,37.55746],[-0.92727,37.5555],[-0.91936,37.55417],[-0.91628,37.55813],[-0.90704,37.5601],[-0.90381,37.56345],[-0.87961,37.56971],[-0.87819,37.57671],[-0.87464,37.57738],[-0.87169,37.57477],[-0.87,37.57569],[-0.87262,37.59477],[-0.87829,37.59365],[-0.88023,37.59745],[-0.88241,37.5963],[-0.88955,37.60114],[-0.89101,37.60788],[-0.90013,37.61652],[-0.90302,37.62449],[-0.90837,37.62109],[-0.91289,37.62179],[-0.92318,37.61888],[-0.92586,37.62237],[-0.9263,37.63181],[-0.92927,37.63474],[-0.92304,37.63837],[-0.91703,37.63914],[-0.91097,37.64431],[-0.90588,37.64563],[-0.90027,37.64367],[-0.89656,37.64071],[-0.88138,37.63845],[-0.87669,37.6301],[-0.87462,37.62867],[-0.87043,37.62892],[-0.86805,37.62408],[-0.86301,37.62227],[-0.85424,37.6159],[-0.8534,37.60888],[-0.84836,37.60772],[-0.84057,37.60196],[-0.84138,37.5778],[-0.83198,37.57841],[-0.82239,37.57484],[-0.8145,37.57789],[-0.81313,37.58113],[-0.80327,37.58655],[-0.79776,37.58542],[-0.79643,37.58674],[-0.79093,37.58653],[-0.78873,37.5876],[-0.78766,37.59131],[-0.78238,37.59465],[-0.77927,37.59484],[-0.77661,37.59342],[-0.7705,37.59708],[-0.76676,37.59607],[-0.76037,37.59779],[-0.75016,37.59779],[-0.74698,37.59957],[-0.73185,37.6015],[-0.72868,37.60464],[-0.72084,37.60564],[-0.71966,37.60746],[-0.71776,37.6069],[-0.71829,37.60916],[-0.71745,37.61237],[-0.71501,37.6143],[-0.71491,37.61792],[-0.71156,37.61727],[-0.70935,37.62062],[-0.70777,37.6205],[-0.70843,37.62188],[-0.70332,37.62571],[-0.70276,37.62983],[-0.69966,37.63129],[-0.69894,37.63026],[-0.69361,37.63014],[-0.6881,37.63379],[-0.68962,37.63324],[-0.68858,37.6358],[-0.69088,37.63638],[-0.69194,37.63474],[-0.69888,37.63288],[-0.70618,37.63776],[-0.71344,37.64677],[-0.71725,37.65549],[-0.71958,37.65715],[-0.7218,37.66234],[-0.71955,37.664],[-0.72377,37.66444],[-0.72694,37.66907],[-0.73423,37.66768],[-0.73264,37.66676],[-0.73454,37.66581],[-0.73456,37.66338],[-0.73042,37.66267],[-0.73017,37.66127],[-0.73407,37.66119],[-0.73549,37.66258],[-0.73758,37.66102],[-0.74047,37.66102],[-0.73968,37.65887],[-0.73748,37.65819],[-0.73549,37.65821],[-0.73433,37.66083],[-0.72828,37.66111],[-0.72543,37.65985],[-0.72287,37.65449],[-0.72453,37.65146],[-0.72272,37.6504],[-0.72238,37.64801],[-0.72246,37.65019],[-0.72071,37.65032],[-0.71976,37.64861],[-0.72259,37.64682],[-0.72254,37.64255],[-0.72461,37.64062],[-0.7248,37.63733],[-0.72846,37.63434],[-0.73441,37.63221],[-0.74042,37.63219],[-0.74763,37.63453],[-0.75161,37.63804],[-0.75054,37.64178],[-0.75887,37.642],[-0.76073,37.6449],[-0.76036,37.64309],[-0.76119,37.64458],[-0.76655,37.64539],[-0.76671,37.64671],[-0.77261,37.64736],[-0.77393,37.64939],[-0.77543,37.64834],[-0.78161,37.64928],[-0.79923,37.65634],[-0.80968,37.66259],[-0.82431,37.67438],[-0.82906,37.68336],[-0.83467,37.68795],[-0.83975,37.69648],[-0.85703,37.71336],[-0.85957,37.71709],[-0.86,37.72145],[-0.8673,37.72058],[-0.8751,37.72257],[-0.89731,37.7199],[-0.9126,37.72062],[-0.92006,37.72297],[-0.937,37.72418],[-0.96574,37.72156],[-0.9717,37.72414],[-0.98256,37.72355],[-0.98805,37.72482],[-0.99789,37.7206],[-1.00382,37.72041],[-1.01842,37.72603],[-1.04023,37.72284],[-1.05425,37.7229],[-1.06682,37.71652],[-1.08679,37.71576],[-1.10557,37.72227],[-1.11257,37.72988],[-1.11678,37.7306],[-1.12123,37.7294],[-1.12323,37.7144],[-1.12119,37.71261],[-1.12107,37.70978],[-1.12266,37.70892],[-1.12295,37.7028],[-1.12836,37.699],[-1.12871,37.69557],[-1.1309,37.69361],[-1.13446,37.69527],[-1.1433,37.6903],[-1.17093,37.66116],[-1.17647,37.6597],[-1.17682,37.65427],[-1.17499,37.64982],[-1.17578,37.64217],[-1.18099,37.63776],[-1.18684,37.6367],[-1.18838,37.63434],[-1.1877,37.63214],[-1.19335,37.63288],[-1.19724,37.63161],[-1.19994,37.63257],[-1.20355,37.63069],[-1.20926,37.63376],[-1.2145,37.62976],[-1.21511,37.6297]]]]}},{"type":"Feature","properties":{"mun_code":"30001","mun_name":"Abanilla","mun_name_local":null,"prov_code":"30","prov_name":"Murcia","acom_code":"14","acom_name":"Región de Murcia","geo_point_2d":{"lon":-1.0517190484237244,"lat":38.254955165550236}},"geometry":{"type":"Polygon","coordinates":[[[-1.14138,38.31611],[-1.13193,38.26633],[-1.13125,38.25247],[-1.12135,38.2303],[-1.11786,38.22655],[-1.11147,38.20977],[-1.1006,38.20005],[-1.10028,38.19548],[-1.09522,38.19015],[-1.09414,38.18633],[-1.07868,38.17133],[-1.03675,38.13771],[-1.02705,38.14633],[-1.00908,38.16664],[-0.99382,38.19059],[-0.99171,38.19613],[-0.99003,38.197],[-0.97775,38.2383],[-0.96799,38.25579],[-0.96765,38.27566],[-0.97156,38.29024],[-0.98474,38.3073],[-0.98899,38.32068],[-1.02822,38.33845],[-1.05858,38.34553],[-1.0843,38.3462],[-1.11954,38.32154],[-1.13107,38.31802],[-1.13433,38.31868],[-1.14088,38.31658],[-1.14138,38.31611]]]}},{"type":"Feature","properties":{"mun_code":"30043","mun_name":"Yecla","mun_name_local":null,"prov_code":"30","prov_name":"Murcia","acom_code":"14","acom_name":"Región de Murcia","geo_point_2d":{"lon":-1.1508029205327126,"lat":38.60637328721517}},"geometry":{"type":"Polygon","coordinates":[[[-1.34308,38.67741],[-1.30058,38.62259],[-1.29361,38.6152],[-1.27985,38.60668],[-1.24762,38.57788],[-1.22966,38.5498],[-1.15554,38.47143],[-1.14023,38.45262],[-1.12288,38.44706],[-1.11427,38.44182],[-1.09412,38.43795],[-1.08201,38.44116],[-1.07446,38.44558],[-1.03449,38.47452],[-1.01396,38.49673],[-1.026,38.52282],[-1.0159,38.53711],[-1.00915,38.55868],[-1.00145,38.57263],[-1.01205,38.60618],[-1.01604,38.63512],[-1.02399,38.64009],[-1.0261,38.65567],[-1.034,38.65659],[-1.0429,38.66127],[-1.11578,38.71141],[-1.1169,38.73246],[-1.11967,38.73769],[-1.18378,38.75508],[-1.18964,38.75214],[-1.20897,38.74692],[-1.23541,38.74294],[-1.24595,38.7384],[-1.24969,38.73865],[-1.25549,38.73516],[-1.26266,38.73035],[-1.27144,38.71895],[-1.28374,38.70717],[-1.3066,38.69676],[-1.31252,38.69531],[-1.32819,38.68501],[-1.32936,38.68207],[-1.34308,38.67741]]]}},{"type":"Feature","properties":{"mun_code":"30002","mun_name":"Abarán","mun_name_local":null,"prov_code":"30","prov_name":"Murcia","acom_code":"14","acom_name":"Región de Murcia","geo_point_2d":{"lon":-1.3212033009817932,"lat":38.25339487461282}},"geometry":{"type":"Polygon","coordinates":[[[-1.46691,38.19435],[-1.46632,38.18303],[-1.45099,38.1722],[-1.43877,38.17041],[-1.42804,38.17057],[-1.41929,38.17284],[-1.40429,38.17907],[-1.39968,38.18932],[-1.39222,38.18787],[-1.38729,38.19463],[-1.38414,38.1957],[-1.38682,38.19992],[-1.38582,38.20097],[-1.38227,38.20087],[-1.37406,38.1957],[-1.3706,38.1957],[-1.35117,38.20356],[-1.33626,38.22443],[-1.32441,38.23567],[-1.30166,38.25113],[-1.28845,38.25331],[-1.28147,38.25231],[-1.26916,38.25331],[-1.24687,38.25051],[-1.23683,38.2613],[-1.23334,38.26025],[-1.23007,38.26253],[-1.22678,38.26938],[-1.21312,38.27169],[-1.2099,38.278],[-1.19807,38.28792],[-1.19741,38.29009],[-1.20937,38.29879],[-1.20876,38.3009],[-1.21572,38.30192],[-1.21885,38.30528],[-1.23647,38.30743],[-1.2524,38.31981],[-1.26277,38.31623],[-1.27261,38.31638],[-1.28443,38.31938],[-1.28949,38.3182],[-1.29654,38.31414],[-1.30177,38.31576],[-1.30713,38.31476],[-1.31183,38.31219],[-1.31887,38.31328],[-1.32104,38.30864],[-1.32132,38.29477],[-1.32741,38.29114],[-1.33302,38.2837],[-1.33827,38.28259],[-1.33756,38.2799],[-1.34026,38.27916],[-1.34192,38.27669],[-1.33908,38.26963],[-1.33917,38.26696],[-1.34203,38.26478],[-1.33921,38.2619],[-1.34006,38.2587],[-1.34828,38.24909],[-1.35772,38.2435],[-1.36128,38.23373],[-1.36686,38.23252],[-1.36631,38.22976],[-1.36476,38.22971],[-1.36577,38.2248],[-1.38041,38.22193],[-1.38738,38.22279],[-1.3882,38.22146],[-1.39711,38.21874],[-1.39888,38.21583],[-1.4048,38.21692],[-1.40833,38.21484],[-1.40832,38.2133],[-1.41245,38.21438],[-1.41688,38.21239],[-1.42315,38.21234],[-1.431,38.21355],[-1.43681,38.21152],[-1.44208,38.20477],[-1.44972,38.20159],[-1.45676,38.19531],[-1.46096,38.19589],[-1.46635,38.19437],[-1.46691,38.19435]]]}},{"type":"Feature","properties":{"mun_code":"30020","mun_name":"Fortuna","mun_name_local":null,"prov_code":"30","prov_name":"Murcia","acom_code":"14","acom_name":"Región de Murcia","geo_point_2d":{"lon":-1.136070428926455,"lat":38.20320389513646}},"geometry":{"type":"Polygon","coordinates":[[[-1.21312,38.27169],[-1.19074,38.20906],[-1.1753,38.18237],[-1.15116,38.14868],[-1.14535,38.14561],[-1.14405,38.14277],[-1.14106,38.14289],[-1.14058,38.13959],[-1.13805,38.13881],[-1.13749,38.13528],[-1.13386,38.13225],[-1.1364,38.13125],[-1.1356,38.1283],[-1.13319,38.12788],[-1.13324,38.11973],[-1.13148,38.11789],[-1.11926,38.11404],[-1.11238,38.11556],[-1.10982,38.11426],[-1.10037,38.1138],[-1.05469,38.12368],[-1.03069,38.11573],[-1.03675,38.13771],[-1.07868,38.17133],[-1.09414,38.18633],[-1.09522,38.19015],[-1.10028,38.19548],[-1.1006,38.20005],[-1.11147,38.20977],[-1.11786,38.22655],[-1.12135,38.2303],[-1.13125,38.25247],[-1.13193,38.26633],[-1.14138,38.31611],[-1.14517,38.31193],[-1.1497,38.311],[-1.16281,38.30429],[-1.16872,38.30312],[-1.17381,38.29842],[-1.17818,38.2991],[-1.18291,38.2976],[-1.18563,38.29285],[-1.19372,38.29151],[-1.19622,38.28808],[-1.19807,38.28792],[-1.2099,38.278],[-1.21312,38.27169]]]}},{"type":"Feature","properties":{"mun_code":"30018","mun_name":"Ceutí","mun_name_local":null,"prov_code":"30","prov_name":"Murcia","acom_code":"14","acom_name":"Región de Murcia","geo_point_2d":{"lon":-1.2811581945384025,"lat":38.08593448774026}},"geometry":{"type":"Polygon","coordinates":[[[-1.31106,38.07763],[-1.26631,38.07276],[-1.26326,38.06984],[-1.25503,38.07445],[-1.26097,38.07651],[-1.25879,38.08649],[-1.26519,38.09082],[-1.26217,38.09394],[-1.2644,38.09578],[-1.2694,38.09656],[-1.27167,38.10316],[-1.27519,38.10433],[-1.29108,38.09922],[-1.29269,38.09714],[-1.29211,38.09324],[-1.30146,38.08985],[-1.30645,38.08605],[-1.3058,38.08266],[-1.31136,38.08122],[-1.31111,38.07889],[-1.31106,38.07763]]]}},{"type":"Feature","properties":{"mun_code":"30040","mun_name":"Ulea","mun_name_local":null,"prov_code":"30","prov_name":"Murcia","acom_code":"14","acom_name":"Región de Murcia","geo_point_2d":{"lon":-1.2874150137209983,"lat":38.16409002663514}},"geometry":{"type":"Polygon","coordinates":[[[-1.33446,38.16396],[-1.32588,38.15934],[-1.32418,38.15707],[-1.32624,38.15153],[-1.32341,38.14764],[-1.33835,38.14027],[-1.33529,38.13582],[-1.33088,38.13415],[-1.32414,38.14178],[-1.32231,38.14204],[-1.31179,38.12843],[-1.30946,38.12814],[-1.30584,38.13067],[-1.29979,38.12583],[-1.29412,38.12457],[-1.29188,38.12782],[-1.27673,38.13541],[-1.27365,38.1384],[-1.27163,38.14557],[-1.27298,38.14651],[-1.27024,38.14759],[-1.27106,38.15157],[-1.26748,38.15291],[-1.26741,38.15405],[-1.26443,38.15369],[-1.26615,38.15545],[-1.26372,38.15588],[-1.26439,38.15791],[-1.26302,38.15771],[-1.2628,38.15962],[-1.26077,38.16011],[-1.26035,38.16266],[-1.25716,38.16281],[-1.25453,38.16607],[-1.24833,38.16786],[-1.24659,38.17281],[-1.24429,38.17615],[-1.24058,38.17813],[-1.24084,38.17976],[-1.2367,38.18539],[-1.23695,38.19827],[-1.25272,38.20002],[-1.26707,38.19603],[-1.31942,38.1765],[-1.32951,38.17599],[-1.33122,38.17344],[-1.33446,38.16396]]]}},{"type":"Feature","properties":{"mun_code":"30006","mun_name":"Aledo","mun_name_local":null,"prov_code":"30","prov_name":"Murcia","acom_code":"14","acom_name":"Región de Murcia","geo_point_2d":{"lon":-1.6165227762816081,"lat":37.79095034181742}},"geometry":{"type":"Polygon","coordinates":[[[-1.66099,37.79714],[-1.66022,37.75609],[-1.65857,37.75344],[-1.643,37.75917],[-1.62424,37.76286],[-1.61251,37.76236],[-1.58588,37.77029],[-1.57475,37.77047],[-1.57101,37.78632],[-1.56446,37.78666],[-1.55909,37.79125],[-1.56056,37.80508],[-1.58783,37.8171],[-1.63236,37.82189],[-1.65323,37.81987],[-1.65572,37.81257],[-1.66099,37.79714]]]}},{"type":"Feature","properties":{"mun_code":"30024","mun_name":"Lorca","mun_name_local":null,"prov_code":"30","prov_name":"Murcia","acom_code":"14","acom_name":"Región de Murcia","geo_point_2d":{"lon":-1.754479660499662,"lat":37.699033886272225}},"geometry":{"type":"Polygon","coordinates":[[[-1.99277,37.6433],[-1.98747,37.64519],[-1.98174,37.63672],[-1.98172,37.62939],[-1.9785,37.62548],[-1.9788,37.62231],[-1.97681,37.61873],[-1.9731,37.61499],[-1.97005,37.61414],[-1.96514,37.60504],[-1.95528,37.60086],[-1.954,37.59742],[-1.95565,37.59146],[-1.95383,37.59018],[-1.95378,37.58795],[-1.91618,37.54504],[-1.9073,37.54688],[-1.90607,37.54966],[-1.90222,37.55153],[-1.90422,37.55388],[-1.90223,37.55433],[-1.90229,37.55732],[-1.89999,37.55914],[-1.89047,37.55906],[-1.88829,37.56416],[-1.88377,37.5669],[-1.88503,37.56871],[-1.8821,37.57444],[-1.88341,37.57524],[-1.87669,37.57782],[-1.87248,37.58221],[-1.8686,37.58359],[-1.86349,37.58409],[-1.85419,37.58145],[-1.84605,37.58145],[-1.83857,37.57673],[-1.82728,37.58516],[-1.81805,37.58857],[-1.80445,37.59836],[-1.80299,37.60332],[-1.79442,37.6063],[-1.78464,37.60299],[-1.76277,37.5997],[-1.75401,37.60211],[-1.74844,37.6019],[-1.74174,37.60447],[-1.72834,37.60243],[-1.71758,37.60631],[-1.71776,37.60358],[-1.71305,37.59565],[-1.70625,37.59081],[-1.70158,37.58369],[-1.71322,37.58101],[-1.71606,37.56256],[-1.72746,37.56009],[-1.73275,37.56117],[-1.73801,37.55983],[-1.74292,37.56017],[-1.75254,37.55751],[-1.75398,37.54843],[-1.75336,37.53279],[-1.7616,37.53644],[-1.76735,37.5321],[-1.77326,37.53231],[-1.77701,37.52933],[-1.77927,37.526],[-1.77861,37.52425],[-1.78124,37.52166],[-1.7831,37.5224],[-1.78448,37.52045],[-1.79407,37.51786],[-1.79708,37.51482],[-1.79625,37.51245],[-1.81019,37.50094],[-1.80982,37.49372],[-1.81871,37.48927],[-1.82001,37.48533],[-1.82316,37.48442],[-1.82856,37.47939],[-1.82903,37.47546],[-1.83522,37.46732],[-1.84839,37.46098],[-1.84509,37.45502],[-1.80856,37.43353],[-1.81176,37.45156],[-1.7963,37.45219],[-1.77984,37.44698],[-1.73708,37.44263],[-1.70502,37.42102],[-1.69429,37.42692],[-1.69205,37.42696],[-1.68712,37.4305],[-1.68942,37.43288],[-1.68789,37.4354],[-1.69284,37.44085],[-1.69419,37.44586],[-1.69677,37.4478],[-1.69472,37.45044],[-1.69822,37.45517],[-1.69069,37.46448],[-1.69441,37.46604],[-1.69059,37.47209],[-1.69261,37.475],[-1.69094,37.47727],[-1.68505,37.47887],[-1.68446,37.48365],[-1.68216,37.48492],[-1.68344,37.48738],[-1.68041,37.49211],[-1.67807,37.49178],[-1.67859,37.49438],[-1.67666,37.49424],[-1.6751,37.49882],[-1.67071,37.49986],[-1.6518,37.5108],[-1.64683,37.51795],[-1.65041,37.52158],[-1.64745,37.52725],[-1.64165,37.52926],[-1.63385,37.53478],[-1.62654,37.53214],[-1.62187,37.53184],[-1.62147,37.52584],[-1.61766,37.52767],[-1.60983,37.52796],[-1.60935,37.53471],[-1.59975,37.53908],[-1.59468,37.54324],[-1.58834,37.54532],[-1.58476,37.54848],[-1.58596,37.55055],[-1.57962,37.55297],[-1.57562,37.55615],[-1.56778,37.55629],[-1.56274,37.56008],[-1.55255,37.56233],[-1.54832,37.56605],[-1.54056,37.56591],[-1.52352,37.55561],[-1.52647,37.54335],[-1.52024,37.52522],[-1.52486,37.52494],[-1.52784,37.51999],[-1.52606,37.51792],[-1.52424,37.50969],[-1.51682,37.5058],[-1.51271,37.49887],[-1.50868,37.49593],[-1.49224,37.49127],[-1.4725,37.47521],[-1.46841,37.47362],[-1.46508,37.48124],[-1.46055,37.48143],[-1.46212,37.48359],[-1.46034,37.48347],[-1.45991,37.48635],[-1.45621,37.48813],[-1.45324,37.49162],[-1.45024,37.49173],[-1.4463,37.49491],[-1.44288,37.49491],[-1.44058,37.49851],[-1.43087,37.5007],[-1.42807,37.50369],[-1.42219,37.5026],[-1.41549,37.50702],[-1.40159,37.50722],[-1.40175,37.50978],[-1.39659,37.51738],[-1.43324,37.54091],[-1.44137,37.53923],[-1.448,37.55288],[-1.4548,37.55438],[-1.46179,37.56246],[-1.4574,37.57187],[-1.4525,37.57288],[-1.44649,37.58268],[-1.45008,37.59577],[-1.46146,37.62086],[-1.47604,37.62881],[-1.45415,37.63498],[-1.4521,37.6455],[-1.45354,37.64897],[-1.45298,37.6502],[-1.44908,37.65081],[-1.45133,37.65187],[-1.44999,37.65409],[-1.4525,37.65316],[-1.45527,37.6552],[-1.45713,37.66081],[-1.45418,37.66102],[-1.45319,37.6651],[-1.45579,37.67121],[-1.45946,37.67272],[-1.46237,37.67951],[-1.47349,37.6795],[-1.47617,37.68071],[-1.51267,37.66755],[-1.54334,37.70692],[-1.55024,37.72576],[-1.5663,37.73898],[-1.60736,37.75027],[-1.61517,37.74863],[-1.62216,37.74223],[-1.62994,37.7457],[-1.63491,37.73946],[-1.64511,37.73634],[-1.66022,37.75609],[-1.66099,37.79714],[-1.67156,37.82503],[-1.66724,37.84315],[-1.66509,37.86358],[-1.67947,37.88054],[-1.67483,37.89812],[-1.69091,37.90886],[-1.70054,37.92376],[-1.70525,37.92819],[-1.71166,37.93061],[-1.72064,37.93834],[-1.72108,37.94063],[-1.73357,37.94889],[-1.74608,37.94479],[-1.77941,37.94957],[-1.7923,37.95346],[-1.81945,37.96937],[-1.82257,37.96964],[-1.85305,37.95779],[-1.87876,37.93752],[-1.96607,37.88465],[-1.97218,37.87996],[-1.97342,37.87507],[-1.97223,37.87137],[-1.97419,37.86955],[-1.97739,37.86033],[-1.98856,37.85334],[-1.99183,37.84846],[-1.99565,37.84023],[-1.99951,37.82314],[-1.99648,37.81901],[-2.00171,37.80491],[-2.00884,37.77495],[-2.00607,37.76666],[-2.00468,37.76612],[-2.00254,37.74778],[-1.99583,37.72805],[-1.99925,37.72334],[-2.00212,37.72198],[-2.00408,37.72254],[-2.00765,37.71979],[-2.00786,37.71207],[-2.01265,37.7006],[-2.01042,37.69878],[-2.01151,37.6925],[-2.00977,37.68679],[-2.01192,37.67254],[-2.00787,37.66951],[-2.002,37.65561],[-1.99581,37.65029],[-1.99316,37.64447],[-1.99277,37.6433]]]}},{"type":"Feature","properties":{"mun_code":"30025","mun_name":"Lorquí","mun_name_local":null,"prov_code":"30","prov_name":"Murcia","acom_code":"14","acom_name":"Región de Murcia","geo_point_2d":{"lon":-1.2508394156540643,"lat":38.10125393762753}},"geometry":{"type":"Polygon","coordinates":[[[-1.27714,38.10388],[-1.27238,38.10372],[-1.2694,38.09656],[-1.2644,38.09578],[-1.26217,38.09394],[-1.26519,38.09082],[-1.25879,38.08649],[-1.25911,38.08208],[-1.2611,38.07961],[-1.26072,38.07595],[-1.25503,38.07445],[-1.2525,38.06934],[-1.24936,38.06933],[-1.24872,38.07207],[-1.2469,38.07284],[-1.24757,38.07394],[-1.24169,38.07874],[-1.23817,38.08559],[-1.22759,38.09682],[-1.22586,38.10722],[-1.23273,38.11368],[-1.23638,38.11389],[-1.24029,38.1189],[-1.25363,38.12225],[-1.25523,38.1241],[-1.26062,38.12567],[-1.26318,38.13011],[-1.26648,38.12905],[-1.27228,38.1064],[-1.2789,38.10732],[-1.27756,38.1046],[-1.27714,38.10388]]]}},{"type":"Feature","properties":{"mun_code":"30036","mun_name":"San Pedro del Pinatar","mun_name_local":null,"prov_code":"30","prov_name":"Murcia","acom_code":"14","acom_name":"Región de Murcia","geo_point_2d":{"lon":-0.7895447511527373,"lat":37.83351385978443}},"geometry":{"type":"MultiPolygon","coordinates":[[[[-0.76233,37.84663],[-0.77182,37.84383],[-0.78122,37.84468],[-0.78763,37.8467],[-0.79782,37.85307],[-0.80378,37.85929],[-0.82943,37.86397],[-0.84108,37.87236],[-0.84089,37.86946],[-0.84231,37.86817],[-0.82076,37.85318],[-0.82555,37.84512],[-0.81599,37.83784],[-0.80946,37.83473],[-0.81198,37.82797],[-0.81128,37.8221],[-0.80188,37.81696],[-0.79814,37.82001],[-0.79028,37.81366],[-0.7841,37.8142],[-0.78539,37.81746],[-0.78317,37.8194],[-0.77566,37.81906],[-0.76182,37.79974],[-0.76171,37.7945],[-0.74817,37.79067],[-0.75214,37.79514],[-0.75828,37.817],[-0.75289,37.82054],[-0.75753,37.81913],[-0.75747,37.82255],[-0.75542,37.82256],[-0.75492,37.82117],[-0.75496,37.82262],[-0.75192,37.82243],[-0.75063,37.82121],[-0.75163,37.82292],[-0.75777,37.82346],[-0.76242,37.84631],[-0.76233,37.84663]]]]}},{"type":"Feature","properties":{"mun_code":"30042","mun_name":"Villanueva del Río Segura","mun_name_local":null,"prov_code":"30","prov_name":"Murcia","acom_code":"14","acom_name":"Región de Murcia","geo_point_2d":{"lon":-1.3230663957254953,"lat":38.10044993114813}},"geometry":{"type":"Polygon","coordinates":[[[-1.3335,38.13457],[-1.33452,38.1331],[-1.32916,38.12567],[-1.33405,38.11819],[-1.33682,38.10916],[-1.33392,38.0955],[-1.33616,38.08596],[-1.32981,38.08149],[-1.32672,38.07486],[-1.33085,38.06707],[-1.33142,38.06115],[-1.31954,38.06091],[-1.30967,38.0723],[-1.31136,38.08122],[-1.3058,38.08266],[-1.30645,38.08605],[-1.3138,38.08977],[-1.32558,38.09006],[-1.32532,38.09538],[-1.32267,38.09704],[-1.32376,38.10272],[-1.31852,38.11088],[-1.30956,38.11541],[-1.31272,38.12051],[-1.31011,38.12132],[-1.30936,38.12794],[-1.31294,38.12936],[-1.31969,38.14015],[-1.32231,38.14204],[-1.32414,38.14178],[-1.33039,38.1344],[-1.33294,38.13432],[-1.3335,38.13457]]]}},{"type":"Feature","properties":{"mun_code":"30022","mun_name":"Jumilla","mun_name_local":null,"prov_code":"30","prov_name":"Murcia","acom_code":"14","acom_name":"Región de Murcia","geo_point_2d":{"lon":-1.3098087299611267,"lat":38.4692025331356}},"geometry":{"type":"Polygon","coordinates":[[[-1.49243,38.55154],[-1.49875,38.53207],[-1.49085,38.51621],[-1.48158,38.48932],[-1.47991,38.47979],[-1.47996,38.46672],[-1.47646,38.44711],[-1.47765,38.42115],[-1.47489,38.40888],[-1.47843,38.37644],[-1.45056,38.37228],[-1.43054,38.36148],[-1.39975,38.35014],[-1.3885,38.34443],[-1.35365,38.33453],[-1.31587,38.31231],[-1.31121,38.31229],[-1.30371,38.31558],[-1.29552,38.31435],[-1.28949,38.3182],[-1.28443,38.31938],[-1.27261,38.31638],[-1.26277,38.31623],[-1.2524,38.31981],[-1.23647,38.30743],[-1.21885,38.30528],[-1.21572,38.30192],[-1.20876,38.3009],[-1.20937,38.29879],[-1.19741,38.29009],[-1.19807,38.28792],[-1.19622,38.28808],[-1.19229,38.29223],[-1.18563,38.29285],[-1.18176,38.29823],[-1.17766,38.29914],[-1.17381,38.29842],[-1.16872,38.30312],[-1.16281,38.30429],[-1.1497,38.311],[-1.14517,38.31193],[-1.14053,38.31679],[-1.13433,38.31868],[-1.13107,38.31802],[-1.11954,38.32154],[-1.0843,38.3462],[-1.08806,38.36777],[-1.0867,38.39787],[-1.08776,38.40687],[-1.08537,38.42915],[-1.07721,38.43147],[-1.09412,38.43795],[-1.11427,38.44182],[-1.12288,38.44706],[-1.14023,38.45262],[-1.15554,38.47143],[-1.22966,38.5498],[-1.24762,38.57788],[-1.27985,38.60668],[-1.29361,38.6152],[-1.30058,38.62259],[-1.34308,38.67741],[-1.36655,38.70397],[-1.3838,38.69923],[-1.39584,38.69252],[-1.40212,38.69081],[-1.42169,38.67706],[-1.42822,38.66812],[-1.44768,38.64948],[-1.44335,38.63697],[-1.44781,38.615],[-1.45202,38.58146],[-1.46718,38.57559],[-1.48777,38.56321],[-1.49193,38.55286],[-1.49243,38.55154]]]}},{"type":"Feature","properties":{"mun_code":"30005","mun_name":"Alcantarilla","mun_name_local":null,"prov_code":"30","prov_name":"Murcia","acom_code":"14","acom_name":"Región de Murcia","geo_point_2d":{"lon":-1.2318191016937095,"lat":37.97179782599546}},"geometry":{"type":"Polygon","coordinates":[[[-1.19738,37.94968],[-1.19085,37.96007],[-1.19263,37.96268],[-1.20478,37.95938],[-1.20314,37.96118],[-1.20405,37.96541],[-1.19542,37.96899],[-1.19841,37.9763],[-1.19969,37.97623],[-1.19924,37.97968],[-1.20143,37.9795],[-1.2043,37.97703],[-1.20999,37.97932],[-1.2142,37.97944],[-1.21238,37.98372],[-1.2135,37.98514],[-1.22153,37.98432],[-1.23605,37.97995],[-1.24493,37.98478],[-1.24889,37.98882],[-1.25628,37.99197],[-1.26578,37.98798],[-1.26821,37.98469],[-1.27332,37.98234],[-1.24926,37.95648],[-1.2405,37.95989],[-1.22686,37.96767],[-1.22002,37.95987],[-1.22128,37.95975],[-1.20123,37.9509],[-1.19738,37.94968]]]}},{"type":"Feature","properties":{"mun_code":"30007","mun_name":"Alguazas","mun_name_local":null,"prov_code":"30","prov_name":"Murcia","acom_code":"14","acom_name":"Región de Murcia","geo_point_2d":{"lon":-1.2729936705498397,"lat":38.05742807899152}},"geometry":{"type":"Polygon","coordinates":[[[-1.31954,38.06091],[-1.31258,38.05626],[-1.30734,38.0503],[-1.30776,38.04863],[-1.30384,38.04569],[-1.29819,38.04619],[-1.28921,38.03967],[-1.28686,38.0416],[-1.2843,38.04054],[-1.27827,38.04412],[-1.27536,38.0403],[-1.26363,38.04081],[-1.26141,38.03729],[-1.25645,38.03622],[-1.25593,38.03891],[-1.25203,38.04002],[-1.2533,38.04225],[-1.2519,38.04604],[-1.24913,38.04568],[-1.24673,38.04791],[-1.24225,38.04903],[-1.23443,38.04544],[-1.22893,38.04509],[-1.22675,38.03991],[-1.22441,38.03819],[-1.21635,38.04304],[-1.21379,38.04736],[-1.21586,38.04883],[-1.2268,38.0505],[-1.22997,38.04832],[-1.23218,38.04928],[-1.23387,38.05103],[-1.23102,38.05417],[-1.23631,38.05939],[-1.24057,38.06804],[-1.24253,38.06969],[-1.24567,38.06749],[-1.2525,38.06934],[-1.25503,38.07445],[-1.26326,38.06984],[-1.26631,38.07276],[-1.31106,38.07763],[-1.30967,38.0723],[-1.31869,38.06125],[-1.31954,38.06091]]]}}]}