{"type":"FeatureCollection","features":[{"type":"Feature","properties":{"mun_code":"35013","mun_name":"Moya","mun_name_local":null,"prov_code":"35","prov_name":"Las Palmas","acom_code":"05","acom_name":"Canarias","geo_point_2d":{"lon":-15.592572450094314,"lat":28.08763595203779}},"geometry":{"type":"Polygon","coordinates":[[[-15.61865,28.03863],[-15.61903,28.03428],[-15.61747,28.03261],[-15.6159,28.02257],[-15.61728,28.0209],[-15.61383,28.01866],[-15.60457,28.03592],[-15.59914,28.04029],[-15.59989,28.04299],[-15.59689,28.04537],[-15.59885,28.04727],[-15.59844,28.04868],[-15.59602,28.05133],[-15.59557,28.0567],[-15.59168,28.0573],[-15.59203,28.05982],[-15.58881,28.06726],[-15.5907,28.06714],[-15.58965,28.06892],[-15.58327,28.07542],[-15.57711,28.07788],[-15.57735,28.08518],[-15.57404,28.09026],[-15.57536,28.0911],[-15.5745,28.09316],[-15.57272,28.09389],[-15.57585,28.09485],[-15.57618,28.09617],[-15.57569,28.09727],[-15.57266,28.09578],[-15.57113,28.09632],[-15.57155,28.09758],[-15.57439,28.09741],[-15.57484,28.09893],[-15.57294,28.10551],[-15.57054,28.10772],[-15.57154,28.10962],[-15.56957,28.11335],[-15.56559,28.11548],[-15.56166,28.12476],[-15.56261,28.12551],[-15.5604,28.12584],[-15.5617,28.12774],[-15.56071,28.13081],[-15.56162,28.13188],[-15.56033,28.13222],[-15.56464,28.13632],[-15.56406,28.13895],[-15.55909,28.14153],[-15.5594,28.1471],[-15.5619,28.1458],[-15.56727,28.14599],[-15.57034,28.14437],[-15.57348,28.14543],[-15.57525,28.14378],[-15.57706,28.14473],[-15.58054,28.14417],[-15.58863,28.14734],[-15.58719,28.14272],[-15.5916,28.13841],[-15.59033,28.13361],[-15.59117,28.13139],[-15.58936,28.12713],[-15.58966,28.12027],[-15.5909,28.11901],[-15.58949,28.11422],[-15.58719,28.11263],[-15.58554,28.10864],[-15.58577,28.10602],[-15.5874,28.10163],[-15.5921,28.10006],[-15.59152,28.09875],[-15.59415,28.09602],[-15.59796,28.09534],[-15.60011,28.09267],[-15.60179,28.09314],[-15.60155,28.09024],[-15.6049,28.08883],[-15.6096,28.08304],[-15.61363,28.07504],[-15.61545,28.07456],[-15.61613,28.07238],[-15.62214,28.06717],[-15.62154,28.06305],[-15.62292,28.06062],[-15.62176,28.05789],[-15.62452,28.05386],[-15.62167,28.04263],[-15.61888,28.03997],[-15.61865,28.03863]]]}},{"type":"Feature","properties":{"mun_code":"35028","mun_name":"Tías","mun_name_local":null,"prov_code":"35","prov_name":"Las Palmas","acom_code":"05","acom_name":"Canarias","geo_point_2d":{"lon":-13.662129747306805,"lat":28.956087367948875}},"geometry":{"type":"Polygon","coordinates":[[[-13.70046,28.9179],[-13.70012,28.91675],[-13.70689,28.91528],[-13.6909,28.91978],[-13.68537,28.91913],[-13.67603,28.92158],[-13.67334,28.92155],[-13.67498,28.92042],[-13.67181,28.92055],[-13.66813,28.9185],[-13.65737,28.91989],[-13.65426,28.91863],[-13.64843,28.91988],[-13.64355,28.9192],[-13.63925,28.92081],[-13.63238,28.92766],[-13.62608,28.92677],[-13.61938,28.93172],[-13.61581,28.93041],[-13.61171,28.93415],[-13.60861,28.93436],[-13.60847,28.937],[-13.60494,28.94183],[-13.64165,28.98555],[-13.64606,28.99245],[-13.64767,29.00032],[-13.65257,29.00647],[-13.66001,29.00693],[-13.6957,28.98572],[-13.69807,28.98228],[-13.70642,28.96263],[-13.70484,28.9406],[-13.70169,28.93523],[-13.70034,28.91824],[-13.70046,28.9179]]]}},{"type":"Feature","properties":{"mun_code":"35012","mun_name":"Mogán","mun_name_local":null,"prov_code":"35","prov_name":"Las Palmas","acom_code":"05","acom_name":"Canarias","geo_point_2d":{"lon":-15.716917279597906,"lat":27.857555612707994}},"geometry":{"type":"MultiPolygon","coordinates":[[[[-15.69653,27.77108],[-15.69569,27.77167],[-15.69719,27.77199],[-15.69698,27.77091],[-15.69653,27.77108]]],[[[-15.73461,27.93913],[-15.75285,27.91935],[-15.75495,27.91384],[-15.75132,27.91199],[-15.75255,27.90269],[-15.75801,27.9011],[-15.76077,27.8984],[-15.76242,27.89474],[-15.76853,27.88854],[-15.77325,27.87795],[-15.77712,27.87496],[-15.78148,27.86824],[-15.78716,27.86712],[-15.79725,27.86163],[-15.79923,27.85908],[-15.7987,27.85336],[-15.79543,27.85136],[-15.79582,27.84841],[-15.79154,27.84648],[-15.79169,27.84144],[-15.78747,27.83437],[-15.78149,27.82977],[-15.77896,27.82998],[-15.77346,27.82213],[-15.76735,27.8163],[-15.76357,27.8155],[-15.76697,27.81718],[-15.76391,27.81634],[-15.76323,27.81802],[-15.76281,27.81687],[-15.75392,27.81468],[-15.75011,27.80786],[-15.74865,27.80668],[-15.74543,27.80717],[-15.74563,27.80514],[-15.74273,27.80433],[-15.7415,27.80059],[-15.73946,27.80155],[-15.73852,27.79842],[-15.7347,27.79748],[-15.73148,27.79871],[-15.72782,27.79588],[-15.72718,27.79464],[-15.72859,27.79267],[-15.72663,27.78992],[-15.72607,27.79105],[-15.72421,27.79001],[-15.72532,27.78823],[-15.72018,27.78641],[-15.71565,27.78229],[-15.7141,27.78265],[-15.71605,27.78313],[-15.7153,27.78387],[-15.71239,27.7841],[-15.7134,27.78282],[-15.71205,27.78343],[-15.71297,27.78233],[-15.71136,27.77984],[-15.71247,27.78231],[-15.70939,27.78265],[-15.71107,27.78109],[-15.7038,27.77687],[-15.70096,27.77398],[-15.70029,27.77075],[-15.69603,27.76956],[-15.69859,27.7712],[-15.69557,27.77275],[-15.68999,27.77131],[-15.68712,27.76369],[-15.68544,27.7632],[-15.68382,27.7597],[-15.68221,27.75952],[-15.68271,27.75784],[-15.68467,27.75816],[-15.68335,27.7577],[-15.68467,27.75632],[-15.68663,27.75866],[-15.68555,27.75616],[-15.68299,27.75523],[-15.67583,27.75729],[-15.67112,27.76143],[-15.67045,27.76666],[-15.667,27.7693],[-15.66634,27.7725],[-15.6667,27.77871],[-15.67031,27.78236],[-15.66819,27.78673],[-15.67259,27.79243],[-15.66853,27.80036],[-15.66942,27.80349],[-15.66711,27.81018],[-15.66382,27.81488],[-15.6637,27.82001],[-15.6663,27.82395],[-15.6615,27.82646],[-15.66289,27.82983],[-15.66025,27.83054],[-15.6589,27.83589],[-15.66186,27.84222],[-15.66025,27.84588],[-15.66262,27.85132],[-15.66271,27.86175],[-15.6675,27.86676],[-15.67073,27.86804],[-15.67111,27.87718],[-15.66904,27.88253],[-15.67104,27.88727],[-15.66913,27.89287],[-15.67055,27.8988],[-15.66988,27.9023],[-15.66587,27.90659],[-15.66356,27.90709],[-15.66329,27.91209],[-15.67252,27.91773],[-15.67776,27.9114],[-15.67782,27.90872],[-15.68022,27.90996],[-15.68406,27.90965],[-15.68488,27.91553],[-15.68766,27.9181],[-15.68784,27.92668],[-15.68383,27.93067],[-15.68229,27.94101],[-15.6881,27.94788],[-15.69061,27.94913],[-15.69254,27.94962],[-15.69519,27.94729],[-15.70337,27.94799],[-15.70888,27.94557],[-15.71295,27.94551],[-15.7174,27.94625],[-15.72211,27.949],[-15.72472,27.94889],[-15.73396,27.93956],[-15.73461,27.93913]]]]}},{"type":"Feature","properties":{"mun_code":"35007","mun_name":"Betancuria","mun_name_local":null,"prov_code":"35","prov_name":"Las Palmas","acom_code":"05","acom_name":"Canarias","geo_point_2d":{"lon":-14.087168054478983,"lat":28.43441319243308}},"geometry":{"type":"MultiPolygon","coordinates":[[[[-14.08965,28.49449],[-14.09142,28.4942],[-14.09807,28.47897],[-14.10363,28.47232],[-14.10699,28.47168],[-14.11224,28.46503],[-14.1168,28.4619],[-14.1197,28.46115],[-14.1264,28.45615],[-14.12746,28.45662],[-14.13651,28.44663],[-14.13908,28.44644],[-14.14102,28.44205],[-14.14668,28.43894],[-14.14654,28.43432],[-14.15127,28.43015],[-14.1498,28.42088],[-14.15193,28.42041],[-14.15689,28.41166],[-14.15752,28.41233],[-14.15821,28.40678],[-14.1548,28.40497],[-14.15204,28.40598],[-14.13483,28.40418],[-14.12818,28.39906],[-14.12739,28.39785],[-14.12915,28.3953],[-14.12423,28.39185],[-14.12272,28.38813],[-14.10622,28.38699],[-14.1037,28.388],[-14.08973,28.37541],[-14.08245,28.3804],[-14.07658,28.3791],[-14.07299,28.38004],[-14.06431,28.37739],[-14.06266,28.37559],[-14.05965,28.37793],[-14.06007,28.38194],[-14.05706,28.39113],[-14.05288,28.39408],[-14.05045,28.39944],[-14.0451,28.40571],[-14.04583,28.41897],[-14.04479,28.42671],[-14.04677,28.43124],[-14.04738,28.43833],[-14.04347,28.44295],[-14.02962,28.44633],[-14.02592,28.44851],[-14.01707,28.44995],[-14.02824,28.46151],[-14.04335,28.47168],[-14.0436,28.47422],[-14.04056,28.47914],[-14.04142,28.48617],[-14.04378,28.48951],[-14.05163,28.48847],[-14.06008,28.49502],[-14.07034,28.49103],[-14.07231,28.49205],[-14.0766,28.49134],[-14.07831,28.4937],[-14.08448,28.49256],[-14.08937,28.49435],[-14.08965,28.49449]]]]}},{"type":"Feature","properties":{"mun_code":"35021","mun_name":"Santa Brígida","mun_name_local":null,"prov_code":"35","prov_name":"Las Palmas","acom_code":"05","acom_name":"Canarias","geo_point_2d":{"lon":-15.495383052207812,"lat":28.033213406890603}},"geometry":{"type":"Polygon","coordinates":[[[-15.53915,28.03834],[-15.53455,28.03341],[-15.53212,28.03382],[-15.5256,28.02118],[-15.52277,28.01775],[-15.51619,28.01371],[-15.51562,28.00961],[-15.5131,28.0078],[-15.50948,28.01393],[-15.50523,28.01453],[-15.50301,28.01347],[-15.49421,28.01646],[-15.48954,28.01616],[-15.48635,28.02135],[-15.48346,28.02271],[-15.474,28.02264],[-15.47294,28.02151],[-15.46846,28.02359],[-15.46574,28.02281],[-15.4586,28.02408],[-15.45653,28.02513],[-15.45612,28.02815],[-15.45291,28.02833],[-15.45082,28.03069],[-15.45412,28.03554],[-15.45593,28.03654],[-15.45995,28.03564],[-15.46215,28.03963],[-15.46797,28.04206],[-15.47005,28.0482],[-15.47422,28.05195],[-15.47809,28.0582],[-15.47982,28.05563],[-15.48583,28.05409],[-15.48819,28.05156],[-15.48851,28.05268],[-15.49798,28.05145],[-15.51262,28.04574],[-15.52139,28.04315],[-15.52402,28.04371],[-15.53566,28.03832],[-15.53826,28.03998],[-15.53878,28.03879],[-15.53915,28.03834]]]}},{"type":"Feature","properties":{"mun_code":"35022","mun_name":"Santa Lucía de Tirajana","mun_name_local":null,"prov_code":"35","prov_name":"Las Palmas","acom_code":"05","acom_name":"Canarias","geo_point_2d":{"lon":-15.488768332104035,"lat":27.869805611151435}},"geometry":{"type":"Polygon","coordinates":[[[-15.5433,27.95005],[-15.5426,27.94388],[-15.53923,27.94111],[-15.54134,27.93163],[-15.54603,27.9273],[-15.54946,27.92723],[-15.55273,27.92498],[-15.5562,27.92587],[-15.55784,27.9235],[-15.5506,27.91167],[-15.55265,27.907],[-15.54999,27.90575],[-15.55239,27.90271],[-15.55082,27.89853],[-15.55232,27.89736],[-15.55164,27.89539],[-15.5423,27.89067],[-15.5416,27.88772],[-15.53532,27.88444],[-15.53592,27.88108],[-15.53364,27.88097],[-15.53334,27.87896],[-15.53039,27.8777],[-15.53212,27.87466],[-15.53666,27.87367],[-15.53941,27.87156],[-15.53499,27.86955],[-15.53348,27.86324],[-15.52846,27.85729],[-15.52797,27.85492],[-15.52938,27.85271],[-15.52692,27.851],[-15.52024,27.85229],[-15.51553,27.85134],[-15.51224,27.84777],[-15.50082,27.8435],[-15.48817,27.84695],[-15.48536,27.84597],[-15.47715,27.85045],[-15.46668,27.84303],[-15.45,27.82423],[-15.43416,27.81292],[-15.42745,27.80561],[-15.42363,27.80881],[-15.42096,27.81517],[-15.42075,27.81806],[-15.42334,27.82219],[-15.42207,27.82387],[-15.42284,27.82532],[-15.42143,27.82569],[-15.42232,27.83101],[-15.4182,27.83445],[-15.41894,27.83907],[-15.4142,27.84663],[-15.41186,27.84808],[-15.40841,27.84777],[-15.40943,27.85191],[-15.42143,27.85979],[-15.42315,27.85926],[-15.43068,27.86272],[-15.44705,27.86433],[-15.4538,27.86828],[-15.46914,27.86857],[-15.47798,27.87272],[-15.48158,27.87167],[-15.48434,27.8729],[-15.49504,27.8733],[-15.50864,27.8784],[-15.51449,27.88515],[-15.51333,27.8893],[-15.51775,27.89815],[-15.52075,27.924],[-15.51788,27.92949],[-15.51868,27.9324],[-15.532,27.94061],[-15.53643,27.94601],[-15.53946,27.94676],[-15.54302,27.94994],[-15.5433,27.95005]]]}},{"type":"Feature","properties":{"mun_code":"35034","mun_name":"Yaiza","mun_name_local":null,"prov_code":"35","prov_name":"Las Palmas","acom_code":"05","acom_name":"Canarias","geo_point_2d":{"lon":-13.785132937656758,"lat":28.9351250797452}},"geometry":{"type":"MultiPolygon","coordinates":[[[[-13.6957,28.98572],[-13.74489,28.99804],[-13.80733,29.03719],[-13.80897,29.03489],[-13.81518,29.03331],[-13.81766,29.02539],[-13.82986,29.00714],[-13.83139,28.99819],[-13.83036,28.99652],[-13.83373,28.9899],[-13.8323,28.98224],[-13.82896,28.97709],[-13.83029,28.9747],[-13.83346,28.97322],[-13.83458,28.96972],[-13.83411,28.96418],[-13.83049,28.96029],[-13.83223,28.95748],[-13.83365,28.95748],[-13.83286,28.95437],[-13.83412,28.95403],[-13.83433,28.95149],[-13.83249,28.94941],[-13.83241,28.94463],[-13.83425,28.94035],[-13.82986,28.93377],[-13.82917,28.93035],[-13.83995,28.91804],[-13.8434,28.91588],[-13.84752,28.91543],[-13.84814,28.91219],[-13.85018,28.91207],[-13.85206,28.90719],[-13.85395,28.90733],[-13.85416,28.90539],[-13.85708,28.90417],[-13.85641,28.90078],[-13.85791,28.89741],[-13.86131,28.89545],[-13.86602,28.89566],[-13.86944,28.89388],[-13.87341,28.89387],[-13.88169,28.88616],[-13.88009,28.88181],[-13.87513,28.87715],[-13.87484,28.86911],[-13.87735,28.86346],[-13.87686,28.85956],[-13.87448,28.85653],[-13.87189,28.85493],[-13.86979,28.85542],[-13.86356,28.86041],[-13.8539,28.86189],[-13.84663,28.86074],[-13.84287,28.85675],[-13.84274,28.85799],[-13.83923,28.85543],[-13.8356,28.85876],[-13.8343,28.85813],[-13.83222,28.85936],[-13.8351,28.85914],[-13.83002,28.86238],[-13.82552,28.86194],[-13.82502,28.86083],[-13.82337,28.86206],[-13.82229,28.86067],[-13.81764,28.86036],[-13.81683,28.85916],[-13.81842,28.85761],[-13.81646,28.85711],[-13.81645,28.85888],[-13.81397,28.85842],[-13.8131,28.85613],[-13.81698,28.85631],[-13.81933,28.85789],[-13.81885,28.85696],[-13.8114,28.85602],[-13.81152,28.85469],[-13.80946,28.85684],[-13.805,28.85702],[-13.80265,28.85869],[-13.79924,28.85755],[-13.79807,28.85446],[-13.7952,28.8547],[-13.79102,28.84936],[-13.78961,28.84293],[-13.78829,28.84234],[-13.7896,28.83946],[-13.78744,28.83849],[-13.78545,28.83949],[-13.78405,28.84251],[-13.77858,28.84371],[-13.77874,28.84609],[-13.77442,28.84798],[-13.77467,28.85132],[-13.77116,28.85382],[-13.77175,28.85661],[-13.76683,28.85945],[-13.76652,28.86112],[-13.76232,28.86393],[-13.76047,28.86739],[-13.75837,28.86801],[-13.75409,28.87317],[-13.749,28.8747],[-13.74978,28.87695],[-13.7482,28.87794],[-13.74966,28.88228],[-13.74808,28.88609],[-13.74508,28.88873],[-13.74575,28.88997],[-13.74292,28.89568],[-13.74263,28.89995],[-13.7387,28.90494],[-13.73472,28.90713],[-13.728,28.90621],[-13.72103,28.91129],[-13.71052,28.91564],[-13.70046,28.9179],[-13.70169,28.93523],[-13.70484,28.9406],[-13.70642,28.96263],[-13.69807,28.98228],[-13.6957,28.98572]]]]}},{"type":"Feature","properties":{"mun_code":"35006","mun_name":"Arucas","mun_name_local":null,"prov_code":"35","prov_name":"Las Palmas","acom_code":"05","acom_name":"Canarias","geo_point_2d":{"lon":-15.522486990967797,"lat":28.120304667247268}},"geometry":{"type":"MultiPolygon","coordinates":[[[[-15.5594,28.1471],[-15.55909,28.14153],[-15.5643,28.1384],[-15.56317,28.13419],[-15.56121,28.13393],[-15.5637,28.13633],[-15.56207,28.13945],[-15.5521,28.14431],[-15.55025,28.14221],[-15.55014,28.14366],[-15.54799,28.14429],[-15.54454,28.14263],[-15.54557,28.14019],[-15.54329,28.13962],[-15.54367,28.13581],[-15.54089,28.12994],[-15.54196,28.12891],[-15.54166,28.12438],[-15.5451,28.12062],[-15.54851,28.11217],[-15.54885,28.11029],[-15.54465,28.10726],[-15.54424,28.10452],[-15.54676,28.09701],[-15.55146,28.09167],[-15.54941,28.08492],[-15.54259,28.08665],[-15.52992,28.08294],[-15.52088,28.08454],[-15.5171,28.09258],[-15.51427,28.09415],[-15.51489,28.09504],[-15.5045,28.10037],[-15.50543,28.10259],[-15.50424,28.10534],[-15.49938,28.10484],[-15.49986,28.11127],[-15.49714,28.11368],[-15.49819,28.11558],[-15.49699,28.1161],[-15.49728,28.1178],[-15.49544,28.11711],[-15.49471,28.11804],[-15.49686,28.1193],[-15.49618,28.12095],[-15.49748,28.12187],[-15.49269,28.12257],[-15.49168,28.12548],[-15.48921,28.12676],[-15.48702,28.12995],[-15.48724,28.13298],[-15.48592,28.13284],[-15.48476,28.13499],[-15.48641,28.13776],[-15.49001,28.14163],[-15.49199,28.14077],[-15.49629,28.14337],[-15.49564,28.14508],[-15.49936,28.14264],[-15.50283,28.1455],[-15.50748,28.14569],[-15.50753,28.14739],[-15.5092,28.14829],[-15.51255,28.14845],[-15.51506,28.14599],[-15.51595,28.14785],[-15.51716,28.14742],[-15.52111,28.15154],[-15.52244,28.15129],[-15.52176,28.15331],[-15.52635,28.15386],[-15.52681,28.15507],[-15.5323,28.1542],[-15.53213,28.15291],[-15.5347,28.15213],[-15.53545,28.15019],[-15.53897,28.15145],[-15.53918,28.14963],[-15.54078,28.14989],[-15.54411,28.14691],[-15.55611,28.14591],[-15.55884,28.14695],[-15.5594,28.1471]]]]}},{"type":"Feature","properties":{"mun_code":"35014","mun_name":"La Oliva","mun_name_local":null,"prov_code":"35","prov_name":"Las Palmas","acom_code":"05","acom_name":"Canarias","geo_point_2d":{"lon":-13.924952400463834,"lat":28.652126977704043}},"geometry":{"type":"MultiPolygon","coordinates":[[[[-13.81703,28.73752],[-13.81591,28.73721],[-13.81696,28.73759],[-13.81703,28.73752]]],[[[-13.82854,28.56456],[-13.82676,28.56867],[-13.82983,28.57221],[-13.83013,28.57574],[-13.82707,28.58402],[-13.8279,28.58574],[-13.82649,28.58561],[-13.82354,28.58936],[-13.82244,28.59304],[-13.82343,28.59622],[-13.82523,28.59692],[-13.82735,28.60565],[-13.82644,28.60846],[-13.82559,28.607],[-13.8244,28.60745],[-13.82346,28.61075],[-13.82513,28.61461],[-13.82404,28.61927],[-13.82633,28.62084],[-13.8256,28.62525],[-13.82856,28.62914],[-13.82824,28.63219],[-13.82988,28.63571],[-13.8305,28.65571],[-13.83207,28.66216],[-13.83078,28.66423],[-13.83246,28.66622],[-13.83388,28.67533],[-13.83166,28.6804],[-13.83247,28.68595],[-13.83072,28.68733],[-13.83187,28.69042],[-13.83089,28.69386],[-13.83705,28.70621],[-13.83794,28.71072],[-13.83625,28.71277],[-13.84174,28.72177],[-13.84244,28.72626],[-13.8452,28.72765],[-13.8525,28.72702],[-13.8582,28.73206],[-13.86155,28.73078],[-13.86612,28.73337],[-13.86755,28.73596],[-13.86599,28.74101],[-13.86436,28.74182],[-13.86374,28.74019],[-13.86062,28.74039],[-13.8638,28.74166],[-13.86518,28.74518],[-13.86717,28.74588],[-13.87434,28.74267],[-13.87273,28.74346],[-13.87398,28.74788],[-13.87751,28.75183],[-13.87979,28.75178],[-13.88704,28.75631],[-13.89088,28.75701],[-13.89357,28.75607],[-13.89517,28.75292],[-13.90013,28.75311],[-13.90763,28.74703],[-13.9136,28.74677],[-13.9157,28.74475],[-13.92336,28.7511],[-13.92659,28.75141],[-13.93405,28.74644],[-13.9357,28.74175],[-13.93877,28.74142],[-13.93777,28.73916],[-13.93921,28.7394],[-13.94171,28.74618],[-13.94313,28.74424],[-13.94804,28.74331],[-13.95156,28.74089],[-13.95715,28.73523],[-13.95879,28.73744],[-13.9594,28.73629],[-13.96178,28.73621],[-13.96204,28.73399],[-13.96472,28.73331],[-13.96887,28.7349],[-13.97073,28.73388],[-13.97163,28.73105],[-13.97682,28.73493],[-13.97826,28.7336],[-13.97706,28.73097],[-13.98011,28.73217],[-13.98238,28.73007],[-13.98064,28.72743],[-13.98326,28.72942],[-13.9853,28.72728],[-13.98732,28.72712],[-13.98711,28.72533],[-13.98875,28.72408],[-13.99163,28.72377],[-13.99145,28.72595],[-13.99389,28.72343],[-13.99881,28.7246],[-13.9992,28.72236],[-13.99771,28.72048],[-14.00146,28.7199],[-14.00259,28.71552],[-14.00613,28.71453],[-14.00437,28.71216],[-14.00528,28.71112],[-14.00722,28.71069],[-14.01038,28.71336],[-14.01139,28.71169],[-14.01266,28.71186],[-14.0134,28.71666],[-14.01743,28.71478],[-14.01433,28.71276],[-14.01726,28.71273],[-14.01932,28.70977],[-14.0177,28.70858],[-14.01452,28.70927],[-14.01446,28.70721],[-14.01622,28.70651],[-14.01886,28.7082],[-14.01898,28.70633],[-14.02105,28.70707],[-14.01872,28.70555],[-14.02012,28.70225],[-14.01773,28.701],[-14.01866,28.6987],[-14.01719,28.69864],[-14.0182,28.69485],[-14.02038,28.69619],[-14.0183,28.69423],[-14.0193,28.69273],[-14.01654,28.69374],[-14.01761,28.692],[-14.01436,28.6925],[-14.0123,28.68994],[-14.014,28.68994],[-14.01321,28.68847],[-14.01544,28.68688],[-14.01476,28.68521],[-14.01145,28.68366],[-14.0139,28.68311],[-14.01317,28.68109],[-14.01161,28.68123],[-14.00891,28.67715],[-14.01214,28.66586],[-14.01918,28.65571],[-14.01902,28.65056],[-14.02283,28.64634],[-14.02488,28.64628],[-14.02449,28.64317],[-14.02733,28.63949],[-14.02625,28.63891],[-14.02731,28.63772],[-14.02639,28.6354],[-14.02805,28.63349],[-14.03065,28.634],[-14.03241,28.63194],[-14.03101,28.63108],[-14.0317,28.62993],[-14.0301,28.6298],[-14.03288,28.62825],[-14.03162,28.62504],[-14.03373,28.62095],[-14.03717,28.61879],[-14.03719,28.61564],[-14.03864,28.61524],[-14.03767,28.61263],[-14.03861,28.61039],[-14.03375,28.60107],[-14.03318,28.59379],[-14.03615,28.58875],[-14.03856,28.58772],[-14.03872,28.58337],[-14.04449,28.57735],[-14.02323,28.56882],[-14.0217,28.56981],[-14.01771,28.56799],[-14.01079,28.5683],[-14.00155,28.56648],[-13.98189,28.56664],[-13.96839,28.57002],[-13.96474,28.57228],[-13.9521,28.57337],[-13.94194,28.57016],[-13.93507,28.56981],[-13.93229,28.57209],[-13.92359,28.57433],[-13.91758,28.57398],[-13.90942,28.57553],[-13.9082,28.57074],[-13.89728,28.56851],[-13.89174,28.5715],[-13.89009,28.57082],[-13.88908,28.57322],[-13.88132,28.57301],[-13.85011,28.56874],[-13.83259,28.56452],[-13.82854,28.56456]]],[[[-13.82225,28.73714],[-13.81917,28.73613],[-13.81899,28.73763],[-13.81445,28.73937],[-13.81597,28.74013],[-13.81406,28.74122],[-13.81471,28.74498],[-13.81126,28.75346],[-13.81321,28.75825],[-13.81274,28.76422],[-13.81445,28.76533],[-13.81766,28.76373],[-13.81915,28.76046],[-13.82305,28.76054],[-13.82576,28.75673],[-13.83193,28.75556],[-13.83132,28.75399],[-13.83572,28.75239],[-13.83015,28.74337],[-13.83045,28.73977],[-13.82711,28.73947],[-13.82767,28.74116],[-13.8255,28.74199],[-13.82251,28.73771],[-13.82225,28.73714]]]]}},{"type":"Feature","properties":{"mun_code":"35002","mun_name":"Agüimes","mun_name_local":null,"prov_code":"35","prov_name":"Las Palmas","acom_code":"05","acom_name":"Canarias","geo_point_2d":{"lon":-15.457326010011098,"lat":27.895100036678492}},"geometry":{"type":"MultiPolygon","coordinates":[[[[-15.38204,27.86172],[-15.38113,27.86115],[-15.38194,27.86182],[-15.38204,27.86172]]],[[[-15.38684,27.90249],[-15.40113,27.90468],[-15.40808,27.90796],[-15.41262,27.90688],[-15.41557,27.91087],[-15.41991,27.91198],[-15.42209,27.91007],[-15.42502,27.9098],[-15.42611,27.90806],[-15.43104,27.90709],[-15.44546,27.90846],[-15.45031,27.91122],[-15.46123,27.92563],[-15.46974,27.93398],[-15.48093,27.93308],[-15.48771,27.93687],[-15.50061,27.93588],[-15.50506,27.93749],[-15.50824,27.93735],[-15.5094,27.93446],[-15.51155,27.93439],[-15.51675,27.93942],[-15.51827,27.93894],[-15.52268,27.94486],[-15.52917,27.94539],[-15.53629,27.95088],[-15.54542,27.95367],[-15.5438,27.95197],[-15.54478,27.95097],[-15.54125,27.94947],[-15.53946,27.94676],[-15.5367,27.94624],[-15.532,27.94061],[-15.51868,27.9324],[-15.51788,27.92949],[-15.52075,27.924],[-15.51775,27.89815],[-15.51333,27.8893],[-15.51449,27.88515],[-15.50935,27.87893],[-15.49504,27.8733],[-15.48434,27.8729],[-15.48158,27.87167],[-15.47798,27.87272],[-15.47113,27.86902],[-15.4538,27.86828],[-15.44705,27.86433],[-15.43068,27.86272],[-15.42315,27.85926],[-15.42143,27.85979],[-15.40943,27.85191],[-15.40841,27.84777],[-15.40405,27.84851],[-15.39784,27.84484],[-15.39957,27.84217],[-15.39662,27.84565],[-15.40319,27.84929],[-15.39775,27.85661],[-15.39503,27.85632],[-15.39437,27.85502],[-15.38987,27.85493],[-15.38731,27.85746],[-15.38555,27.85737],[-15.38658,27.86035],[-15.384,27.86209],[-15.38388,27.8641],[-15.38673,27.86644],[-15.38652,27.87034],[-15.38276,27.87112],[-15.38307,27.873],[-15.3808,27.87523],[-15.38095,27.87608],[-15.38535,27.87574],[-15.38532,27.87798],[-15.38771,27.87776],[-15.38847,27.87949],[-15.39006,27.87971],[-15.39369,27.88778],[-15.39373,27.89151],[-15.39043,27.8943],[-15.387,27.90161],[-15.38684,27.90249]]]]}},{"type":"Feature","properties":{"mun_code":"35024","mun_name":"Teguise","mun_name_local":null,"prov_code":"35","prov_name":"Las Palmas","acom_code":"05","acom_name":"Canarias","geo_point_2d":{"lon":-13.547496264794042,"lat":29.094858906177794}},"geometry":{"type":"MultiPolygon","coordinates":[[[[-13.53036,29.1353],[-13.54296,29.1213],[-13.54865,29.11821],[-13.55798,29.11585],[-13.5628,29.11696],[-13.56614,29.11929],[-13.56548,29.12008],[-13.56941,29.12103],[-13.57339,29.12606],[-13.57534,29.1259],[-13.58549,29.13399],[-13.59655,29.13601],[-13.60421,29.13562],[-13.61055,29.13128],[-13.61207,29.12828],[-13.62085,29.12739],[-13.63028,29.11703],[-13.63282,29.11616],[-13.63967,29.11694],[-13.63914,29.11876],[-13.64078,29.11994],[-13.63997,29.1223],[-13.64169,29.12451],[-13.6432,29.12357],[-13.64534,29.12504],[-13.65178,29.12329],[-13.64186,29.08832],[-13.64118,29.07203],[-13.63888,29.06319],[-13.6453,29.03487],[-13.65053,29.02517],[-13.64249,29.02795],[-13.62831,29.02109],[-13.60908,29.02112],[-13.59687,29.01929],[-13.58467,29.00345],[-13.57716,29.00295],[-13.57611,29.00186],[-13.56696,29.00566],[-13.56136,29.00534],[-13.5566,29.00702],[-13.55426,29.00309],[-13.55181,29.00357],[-13.55428,28.9941],[-13.552,28.99151],[-13.55266,28.9892],[-13.54845,28.98382],[-13.54454,28.98237],[-13.51254,28.98108],[-13.50851,28.98595],[-13.50159,28.98805],[-13.49519,28.99285],[-13.48582,28.99241],[-13.48551,28.99582],[-13.48767,28.99536],[-13.48842,28.9979],[-13.48588,28.99963],[-13.48352,28.99843],[-13.48133,28.99902],[-13.48177,29.0015],[-13.47971,29.00107],[-13.47816,29.00455],[-13.47606,29.00537],[-13.47615,29.01379],[-13.47308,29.01525],[-13.46901,29.01495],[-13.46479,29.01913],[-13.46362,29.02449],[-13.46914,29.03405],[-13.46757,29.03624],[-13.46799,29.03984],[-13.46318,29.04536],[-13.46449,29.04899],[-13.46376,29.05084],[-13.46642,29.05507],[-13.46152,29.058],[-13.45854,29.06704],[-13.45365,29.07323],[-13.45151,29.08068],[-13.48202,29.09255],[-13.49369,29.0992],[-13.49823,29.10627],[-13.50476,29.10917],[-13.5049,29.11079],[-13.50754,29.11232],[-13.52817,29.11926],[-13.5302,29.13482],[-13.53036,29.1353]]],[[[-13.33812,29.27538],[-13.33496,29.27741],[-13.33753,29.27779],[-13.33968,29.27528],[-13.33899,29.27415],[-13.33845,29.27504],[-13.33812,29.27538]]],[[[-13.52773,29.31013],[-13.52667,29.31186],[-13.52781,29.31033],[-13.52773,29.31013]]],[[[-13.48845,29.24924],[-13.48861,29.25361],[-13.48392,29.25948],[-13.48059,29.2613],[-13.47807,29.25977],[-13.47426,29.26392],[-13.47207,29.26449],[-13.47136,29.2657],[-13.47335,29.27076],[-13.47503,29.27108],[-13.48265,29.27956],[-13.48981,29.28038],[-13.49501,29.2791],[-13.49863,29.28441],[-13.50125,29.28442],[-13.50238,29.28756],[-13.50697,29.29031],[-13.51003,29.28954],[-13.51108,29.29073],[-13.51545,29.28518],[-13.51634,29.2817],[-13.51514,29.27889],[-13.51684,29.27429],[-13.51931,29.27319],[-13.52374,29.26709],[-13.52052,29.25892],[-13.52374,29.25365],[-13.52827,29.25174],[-13.52642,29.24948],[-13.52745,29.24847],[-13.52638,29.24273],[-13.53367,29.23655],[-13.53824,29.23615],[-13.54584,29.23243],[-13.54868,29.22711],[-13.54763,29.2225],[-13.54334,29.21836],[-13.54348,29.22017],[-13.54191,29.22102],[-13.53739,29.22096],[-13.53625,29.21693],[-13.53403,29.2168],[-13.52929,29.22057],[-13.52438,29.21872],[-13.52204,29.21906],[-13.51331,29.22642],[-13.50507,29.2253],[-13.50464,29.22675],[-13.50215,29.22727],[-13.50426,29.22694],[-13.50376,29.23025],[-13.50191,29.22958],[-13.50147,29.22659],[-13.50085,29.23228],[-13.49984,29.23368],[-13.4972,29.23396],[-13.49436,29.23965],[-13.49243,29.24051],[-13.49238,29.24395],[-13.48911,29.24428],[-13.48855,29.24876],[-13.48845,29.24924]]],[[[-13.52952,29.30305],[-13.53129,29.30522],[-13.53392,29.30353],[-13.53538,29.30678],[-13.53968,29.30306],[-13.53957,29.29849],[-13.53732,29.29474],[-13.54015,29.28948],[-13.53458,29.28923],[-13.53264,29.29105],[-13.5313,29.29029],[-13.53102,29.2949],[-13.53276,29.2952],[-13.52961,29.29913],[-13.5295,29.3025],[-13.52952,29.30305]]],[[[-13.52351,29.41087],[-13.52307,29.40699],[-13.52512,29.40739],[-13.52489,29.40574],[-13.53121,29.40017],[-13.53191,29.39497],[-13.52935,29.38569],[-13.52339,29.38273],[-13.51698,29.38406],[-13.51583,29.386],[-13.5068,29.38448],[-13.5023,29.39076],[-13.49467,29.39373],[-13.48932,29.40293],[-13.48703,29.40245],[-13.48621,29.40339],[-13.48935,29.40388],[-13.48887,29.40518],[-13.48997,29.4043],[-13.49181,29.40499],[-13.49144,29.40595],[-13.49425,29.40794],[-13.49359,29.41023],[-13.49709,29.41142],[-13.49844,29.41342],[-13.50276,29.41275],[-13.50573,29.41601],[-13.51032,29.41572],[-13.51236,29.41377],[-13.51327,29.41461],[-13.51454,29.41214],[-13.51901,29.41015],[-13.52039,29.41177],[-13.52303,29.4109],[-13.52351,29.41087]]],[[[-13.51652,29.41282],[-13.51496,29.41274],[-13.51643,29.41298],[-13.51652,29.41282]]]]}},{"type":"Feature","properties":{"mun_code":"35032","mun_name":"Valleseco","mun_name_local":null,"prov_code":"35","prov_name":"Las Palmas","acom_code":"05","acom_name":"Canarias","geo_point_2d":{"lon":-15.583103866358343,"lat":28.044277943766268}},"geometry":{"type":"Polygon","coordinates":[[[-15.61383,28.01866],[-15.61262,28.01929],[-15.60432,28.01698],[-15.60003,28.01155],[-15.58626,28.01459],[-15.56917,28.02614],[-15.56885,28.02955],[-15.56453,28.03265],[-15.56522,28.03759],[-15.563,28.04035],[-15.56502,28.04445],[-15.56919,28.04761],[-15.56635,28.04867],[-15.56858,28.05168],[-15.56628,28.05882],[-15.56416,28.0592],[-15.5562,28.07471],[-15.55621,28.07825],[-15.57402,28.07768],[-15.57548,28.07661],[-15.57711,28.07788],[-15.58327,28.07542],[-15.58691,28.07213],[-15.5907,28.06714],[-15.58876,28.06758],[-15.59203,28.05982],[-15.59168,28.0573],[-15.59557,28.0567],[-15.59602,28.05133],[-15.59885,28.04727],[-15.59689,28.04537],[-15.59989,28.04299],[-15.59914,28.04029],[-15.60457,28.03592],[-15.61352,28.01917],[-15.61383,28.01866]]]}},{"type":"Feature","properties":{"mun_code":"35015","mun_name":"Pájara","mun_name_local":null,"prov_code":"35","prov_name":"Las Palmas","acom_code":"05","acom_name":"Canarias","geo_point_2d":{"lon":-14.240989390904716,"lat":28.205217157306}},"geometry":{"type":"MultiPolygon","coordinates":[[[[-14.51249,28.06793],[-14.51202,28.06887],[-14.51281,28.06798],[-14.51249,28.06793]]],[[[-14.1548,28.40497],[-14.15759,28.40006],[-14.15698,28.39737],[-14.15549,28.3969],[-14.15567,28.39461],[-14.15886,28.3921],[-14.16138,28.39235],[-14.16243,28.38976],[-14.16201,28.37748],[-14.16327,28.37539],[-14.16121,28.37274],[-14.16226,28.36873],[-14.16752,28.36328],[-14.17146,28.36195],[-14.17178,28.35593],[-14.17336,28.35561],[-14.17336,28.35308],[-14.17646,28.34965],[-14.1771,28.35024],[-14.17623,28.34795],[-14.1775,28.34578],[-14.1853,28.34022],[-14.18713,28.34021],[-14.18876,28.3375],[-14.19884,28.33397],[-14.20427,28.32724],[-14.20485,28.32018],[-14.20951,28.3104],[-14.20806,28.30476],[-14.20716,28.30508],[-14.20862,28.30416],[-14.20769,28.30445],[-14.20665,28.30178],[-14.21074,28.29833],[-14.21041,28.29603],[-14.21218,28.29538],[-14.21141,28.2902],[-14.21432,28.28748],[-14.2127,28.2872],[-14.2113,28.28474],[-14.21185,28.28192],[-14.20893,28.27465],[-14.20836,28.27065],[-14.21208,28.26518],[-14.20839,28.25996],[-14.21429,28.24694],[-14.21263,28.24326],[-14.21399,28.24191],[-14.21304,28.23382],[-14.21479,28.23189],[-14.21533,28.22628],[-14.21926,28.2207],[-14.22268,28.21936],[-14.22149,28.21759],[-14.22304,28.21513],[-14.22799,28.21092],[-14.23098,28.21016],[-14.23347,28.20622],[-14.24234,28.20101],[-14.24639,28.19419],[-14.26277,28.18364],[-14.2672,28.1789],[-14.28636,28.1651],[-14.29861,28.15919],[-14.30689,28.14992],[-14.32023,28.14136],[-14.34251,28.13039],[-14.35489,28.12558],[-14.35692,28.12557],[-14.35802,28.12698],[-14.35885,28.12331],[-14.37349,28.11667],[-14.40171,28.10882],[-14.41412,28.1059],[-14.41593,28.10643],[-14.42464,28.10313],[-14.44115,28.10076],[-14.44626,28.1016],[-14.45018,28.10013],[-14.45568,28.10544],[-14.46163,28.10142],[-14.46677,28.10224],[-14.46658,28.10381],[-14.46888,28.1043],[-14.47186,28.10274],[-14.47149,28.10395],[-14.47446,28.10483],[-14.4776,28.1016],[-14.48133,28.10028],[-14.4826,28.10328],[-14.48568,28.10387],[-14.48675,28.10535],[-14.4868,28.10877],[-14.49118,28.11103],[-14.49388,28.1037],[-14.49688,28.10385],[-14.49907,28.101],[-14.49249,28.09421],[-14.49409,28.09106],[-14.49215,28.08705],[-14.49247,28.08419],[-14.50126,28.0802],[-14.50214,28.07458],[-14.50555,28.07292],[-14.50678,28.06988],[-14.50991,28.0685],[-14.50962,28.06698],[-14.50695,28.06513],[-14.50236,28.07209],[-14.47779,28.07786],[-14.46447,28.07563],[-14.45778,28.07325],[-14.45238,28.07329],[-14.43785,28.06815],[-14.43432,28.06818],[-14.42972,28.06524],[-14.42417,28.06438],[-14.41989,28.06178],[-14.40954,28.05869],[-14.40014,28.05856],[-14.38553,28.055],[-14.38045,28.05245],[-14.37661,28.0522],[-14.36838,28.0544],[-14.36489,28.05306],[-14.36434,28.05072],[-14.36234,28.05],[-14.36412,28.05087],[-14.36359,28.05235],[-14.35848,28.04951],[-14.36107,28.04816],[-14.36507,28.04945],[-14.36108,28.04747],[-14.35199,28.04938],[-14.33819,28.0445],[-14.33193,28.04403],[-14.32259,28.04938],[-14.301,28.07423],[-14.28924,28.08327],[-14.28631,28.08416],[-14.28244,28.09019],[-14.27322,28.09843],[-14.26538,28.10953],[-14.25869,28.11189],[-14.25995,28.11053],[-14.25824,28.11106],[-14.25683,28.11345],[-14.25719,28.1117],[-14.25225,28.11614],[-14.2448,28.12941],[-14.23889,28.13693],[-14.23599,28.14387],[-14.2299,28.14985],[-14.22435,28.15994],[-14.21991,28.16428],[-14.21666,28.1654],[-14.21287,28.16411],[-14.20585,28.16728],[-14.20241,28.17169],[-14.19822,28.17392],[-14.19114,28.17422],[-14.18808,28.17273],[-14.18355,28.17506],[-14.17978,28.17368],[-14.1731,28.17529],[-14.16767,28.17397],[-14.16253,28.17741],[-14.15877,28.17588],[-14.15634,28.17952],[-14.15149,28.1829],[-14.14911,28.183],[-14.1478,28.18127],[-14.14575,28.18251],[-14.14312,28.18198],[-14.14273,28.1832],[-14.13916,28.18392],[-14.13625,28.18754],[-14.13178,28.18828],[-14.12947,28.18667],[-14.12823,28.18735],[-14.12794,28.19474],[-14.1375,28.20267],[-14.13978,28.21274],[-14.13965,28.21886],[-14.13588,28.22277],[-14.13954,28.23032],[-14.13747,28.23908],[-14.14107,28.24565],[-14.13994,28.24907],[-14.14315,28.25294],[-14.14123,28.25652],[-14.13928,28.25743],[-14.1383,28.26173],[-14.13992,28.26479],[-14.14231,28.26527],[-14.14776,28.27698],[-14.15863,28.28011],[-14.15989,28.28744],[-14.15496,28.28948],[-14.15237,28.28926],[-14.14683,28.29255],[-14.14079,28.29026],[-14.13483,28.29232],[-14.12835,28.29784],[-14.12678,28.3015],[-14.12388,28.30252],[-14.11781,28.30824],[-14.11363,28.3083],[-14.11194,28.30978],[-14.10584,28.31971],[-14.10127,28.31986],[-14.09513,28.32583],[-14.08647,28.32708],[-14.07598,28.33374],[-14.07388,28.33967],[-14.06375,28.34576],[-14.06135,28.34997],[-14.0582,28.35192],[-14.05839,28.35493],[-14.06221,28.35646],[-14.06389,28.3588],[-14.06446,28.366],[-14.06266,28.37559],[-14.06431,28.37739],[-14.07369,28.38019],[-14.07658,28.3791],[-14.08245,28.3804],[-14.08973,28.37541],[-14.1037,28.388],[-14.10622,28.38699],[-14.12272,28.38813],[-14.12423,28.39185],[-14.12915,28.3953],[-14.12739,28.39785],[-14.12818,28.39906],[-14.13483,28.40418],[-14.15204,28.40598],[-14.1542,28.40528],[-14.1548,28.40497]]]]}},{"type":"Feature","properties":{"mun_code":"35033","mun_name":"Vega de San Mateo","mun_name_local":null,"prov_code":"35","prov_name":"Las Palmas","acom_code":"05","acom_name":"Canarias","geo_point_2d":{"lon":-15.559598794608233,"lat":28.00006230650886}},"geometry":{"type":"Polygon","coordinates":[[[-15.60003,28.01155],[-15.59953,28.00497],[-15.5961,28.0003],[-15.5956,27.99398],[-15.59237,27.99088],[-15.59337,27.9879],[-15.5923,27.98512],[-15.58668,27.982],[-15.58562,27.97911],[-15.57177,27.96212],[-15.56893,27.96321],[-15.56236,27.96108],[-15.55685,27.95768],[-15.55428,27.95422],[-15.5491,27.96376],[-15.54798,27.9789],[-15.5501,27.98424],[-15.54875,27.98937],[-15.537,27.99847],[-15.53205,27.99836],[-15.5265,28.00268],[-15.51931,28.00141],[-15.51454,28.00466],[-15.5131,28.0078],[-15.51562,28.00961],[-15.51619,28.01371],[-15.52277,28.01775],[-15.5256,28.02118],[-15.53212,28.03382],[-15.53455,28.03341],[-15.53915,28.03834],[-15.54428,28.03303],[-15.55049,28.03105],[-15.56041,28.02483],[-15.57103,28.02561],[-15.57633,28.02061],[-15.58626,28.01459],[-15.59905,28.01206],[-15.60003,28.01155]]]}},{"type":"Feature","properties":{"mun_code":"35011","mun_name":"Ingenio","mun_name_local":null,"prov_code":"35","prov_name":"Las Palmas","acom_code":"05","acom_name":"Canarias","geo_point_2d":{"lon":-15.443482808775165,"lat":27.930665384027613}},"geometry":{"type":"Polygon","coordinates":[[[-15.54542,27.95367],[-15.53629,27.95088],[-15.52917,27.94539],[-15.52268,27.94486],[-15.51827,27.93894],[-15.51675,27.93942],[-15.51155,27.93439],[-15.5094,27.93446],[-15.50824,27.93735],[-15.50506,27.93749],[-15.50061,27.93588],[-15.48771,27.93687],[-15.48093,27.93308],[-15.46974,27.93398],[-15.46123,27.92563],[-15.45031,27.91122],[-15.44546,27.90846],[-15.43104,27.90709],[-15.42611,27.90806],[-15.42502,27.9098],[-15.42209,27.91007],[-15.41991,27.91198],[-15.41557,27.91087],[-15.41262,27.90688],[-15.40808,27.90796],[-15.40113,27.90468],[-15.38684,27.90249],[-15.38599,27.90794],[-15.38475,27.90829],[-15.38588,27.90833],[-15.38672,27.911],[-15.38537,27.91162],[-15.38672,27.91328],[-15.38571,27.91936],[-15.38414,27.92074],[-15.3848,27.92579],[-15.3799,27.93142],[-15.38777,27.93706],[-15.4059,27.94136],[-15.41132,27.93946],[-15.41409,27.94005],[-15.41497,27.9382],[-15.42222,27.93696],[-15.4279,27.93822],[-15.42883,27.94111],[-15.43116,27.94294],[-15.43236,27.94218],[-15.43629,27.94311],[-15.43774,27.94691],[-15.4481,27.94683],[-15.44979,27.94791],[-15.45268,27.94691],[-15.45795,27.94818],[-15.45924,27.95066],[-15.46119,27.95012],[-15.46579,27.95164],[-15.46884,27.95065],[-15.47194,27.95141],[-15.47596,27.9498],[-15.48,27.95075],[-15.48081,27.94885],[-15.49384,27.94859],[-15.49685,27.95043],[-15.50101,27.94982],[-15.50907,27.95239],[-15.51581,27.95047],[-15.51887,27.9505],[-15.51961,27.95165],[-15.52637,27.95142],[-15.5307,27.95334],[-15.53244,27.95661],[-15.5355,27.95515],[-15.54146,27.95649],[-15.54439,27.95505],[-15.54254,27.95374],[-15.54511,27.95365],[-15.54542,27.95367]]]}},{"type":"Feature","properties":{"mun_code":"35001","mun_name":"Agaete","mun_name_local":null,"prov_code":"35","prov_name":"Las Palmas","acom_code":"05","acom_name":"Canarias","geo_point_2d":{"lon":-15.69832814621925,"lat":28.069355342953077}},"geometry":{"type":"MultiPolygon","coordinates":[[[[-15.70526,28.11689],[-15.70679,28.11727],[-15.70735,28.11624],[-15.70537,28.11395],[-15.70628,28.10857],[-15.71128,28.10679],[-15.71344,28.10094],[-15.71161,28.09778],[-15.71217,28.10127],[-15.71065,28.0997],[-15.70881,28.09993],[-15.70727,28.09441],[-15.70707,28.0895],[-15.71034,28.08649],[-15.71076,28.08319],[-15.71997,28.07257],[-15.72024,28.07061],[-15.73097,28.06383],[-15.73403,28.06411],[-15.73784,28.05457],[-15.74605,28.05094],[-15.7457,28.04973],[-15.74849,28.04767],[-15.74793,28.04491],[-15.74466,28.04124],[-15.74498,28.03842],[-15.74192,28.03632],[-15.74405,28.03175],[-15.74242,28.0319],[-15.74089,28.02931],[-15.72501,28.02956],[-15.71665,28.03294],[-15.71477,28.03412],[-15.71443,28.03767],[-15.70832,28.04093],[-15.70872,28.04261],[-15.70626,28.04299],[-15.69548,28.05233],[-15.68934,28.04764],[-15.68015,28.05599],[-15.6756,28.05348],[-15.67048,28.04801],[-15.66856,28.0497],[-15.66206,28.04955],[-15.66197,28.05299],[-15.66018,28.05509],[-15.65911,28.05444],[-15.65823,28.05626],[-15.65464,28.05554],[-15.6538,28.05786],[-15.65132,28.05797],[-15.65254,28.06925],[-15.65448,28.07139],[-15.66035,28.07321],[-15.65858,28.07458],[-15.65973,28.07796],[-15.65866,28.07876],[-15.66037,28.08004],[-15.65815,28.08389],[-15.66469,28.08446],[-15.66299,28.08738],[-15.66428,28.08932],[-15.66891,28.08946],[-15.67132,28.09137],[-15.678,28.10061],[-15.6786,28.10378],[-15.68309,28.10881],[-15.68726,28.11072],[-15.68863,28.11397],[-15.69031,28.1133],[-15.69306,28.11646],[-15.69889,28.11478],[-15.69925,28.11619],[-15.70228,28.11625],[-15.70298,28.11738],[-15.70512,28.11676],[-15.70526,28.11689]]]]}},{"type":"Feature","properties":{"mun_code":"35018","mun_name":"San Bartolomé","mun_name_local":null,"prov_code":"35","prov_name":"Las Palmas","acom_code":"05","acom_name":"Canarias","geo_point_2d":{"lon":-13.61563812512611,"lat":28.990103603059477}},"geometry":{"type":"Polygon","coordinates":[[[-13.66001,29.00693],[-13.6511,29.00571],[-13.64767,29.00032],[-13.64606,28.99245],[-13.6437,28.98834],[-13.60494,28.94183],[-13.59783,28.94808],[-13.58364,28.95177],[-13.58929,29.00389],[-13.58467,29.00345],[-13.59687,29.01929],[-13.60908,29.02112],[-13.62831,29.02109],[-13.64249,29.02795],[-13.65289,29.02343],[-13.66002,29.00771],[-13.66001,29.00693]]]}},{"type":"Feature","properties":{"mun_code":"35023","mun_name":"Santa María de Guía de Gran Canaria","mun_name_local":null,"prov_code":"35","prov_name":"Las Palmas","acom_code":"05","acom_name":"Canarias","geo_point_2d":{"lon":-15.618398764660986,"lat":28.115946351045075}},"geometry":{"type":"Polygon","coordinates":[[[-15.64959,28.16552],[-15.64972,28.16295],[-15.64732,28.16185],[-15.64072,28.15211],[-15.63974,28.14681],[-15.64168,28.14406],[-15.64091,28.14267],[-15.63479,28.13889],[-15.63665,28.13696],[-15.64376,28.1354],[-15.6384,28.11984],[-15.63848,28.11453],[-15.63147,28.11183],[-15.63274,28.10957],[-15.63189,28.10763],[-15.63604,28.10648],[-15.63457,28.1049],[-15.63687,28.10365],[-15.63729,28.10033],[-15.63558,28.09953],[-15.63688,28.09588],[-15.63557,28.0934],[-15.63696,28.08887],[-15.63498,28.08514],[-15.63724,28.07892],[-15.63559,28.07096],[-15.63768,28.06692],[-15.63287,28.0623],[-15.63303,28.06095],[-15.62963,28.06062],[-15.62922,28.05181],[-15.62388,28.04571],[-15.62206,28.04096],[-15.61865,28.03863],[-15.62185,28.04311],[-15.62452,28.05386],[-15.62176,28.05789],[-15.62292,28.06062],[-15.62154,28.06305],[-15.62214,28.06717],[-15.61613,28.07238],[-15.61545,28.07456],[-15.61363,28.07504],[-15.6096,28.08304],[-15.6049,28.08883],[-15.60155,28.09024],[-15.60179,28.09314],[-15.60011,28.09267],[-15.59796,28.09534],[-15.59415,28.09602],[-15.59152,28.09875],[-15.5921,28.10006],[-15.5874,28.10163],[-15.58577,28.10602],[-15.58719,28.11263],[-15.59061,28.11701],[-15.58936,28.12713],[-15.59117,28.13139],[-15.59033,28.13361],[-15.5916,28.13841],[-15.58687,28.14386],[-15.58863,28.14734],[-15.59879,28.14432],[-15.60156,28.14469],[-15.60247,28.14684],[-15.60497,28.14702],[-15.60725,28.14897],[-15.6099,28.14756],[-15.61372,28.14771],[-15.61741,28.15429],[-15.62112,28.15367],[-15.6217,28.15716],[-15.62509,28.16018],[-15.62405,28.16263],[-15.62592,28.1631],[-15.63115,28.17007],[-15.63255,28.16761],[-15.63713,28.17185],[-15.63857,28.17174],[-15.63989,28.16876],[-15.64269,28.16675],[-15.64827,28.16477],[-15.64956,28.16563],[-15.64959,28.16552]]]}},{"type":"Feature","properties":{"mun_code":"35005","mun_name":"Artenara","mun_name_local":null,"prov_code":"35","prov_name":"Las Palmas","acom_code":"05","acom_name":"Canarias","geo_point_2d":{"lon":-15.697165227514885,"lat":28.01895289502613}},"geometry":{"type":"Polygon","coordinates":[[[-15.77285,28.03183],[-15.76636,28.0283],[-15.76519,28.02569],[-15.75832,28.0249],[-15.75821,28.02251],[-15.74847,28.01414],[-15.74846,28.00947],[-15.74643,28.00525],[-15.74988,27.9882],[-15.74041,27.9871],[-15.73975,27.98464],[-15.73527,27.98215],[-15.7266,27.9802],[-15.72249,27.98296],[-15.72148,27.98663],[-15.71601,27.98824],[-15.71482,27.98995],[-15.71202,27.98964],[-15.70839,27.99311],[-15.70712,27.99189],[-15.70547,27.99328],[-15.70135,27.99286],[-15.695,27.99049],[-15.69259,27.98751],[-15.69038,27.98933],[-15.69091,27.99185],[-15.68849,27.99308],[-15.6834,27.99209],[-15.68257,27.99332],[-15.67895,27.99355],[-15.67788,27.99715],[-15.67649,27.99642],[-15.67363,28.00113],[-15.67102,28.0013],[-15.67211,28.00276],[-15.6698,28.00453],[-15.66109,28.0043],[-15.65717,28.00187],[-15.64539,28.00175],[-15.6414,28.00384],[-15.63831,28.00372],[-15.6334,28.00922],[-15.62521,28.01412],[-15.62297,28.01735],[-15.61744,28.01614],[-15.61329,28.01707],[-15.62387,28.02735],[-15.63124,28.02968],[-15.63517,28.02956],[-15.64668,28.03505],[-15.65291,28.04036],[-15.65278,28.04197],[-15.65471,28.04353],[-15.65811,28.04335],[-15.66095,28.04553],[-15.66512,28.04555],[-15.66921,28.0495],[-15.67107,28.04805],[-15.6756,28.05348],[-15.68015,28.05599],[-15.68934,28.04764],[-15.69626,28.05202],[-15.70626,28.04299],[-15.70872,28.04261],[-15.70832,28.04093],[-15.71443,28.03767],[-15.71477,28.03412],[-15.72501,28.02956],[-15.73702,28.02886],[-15.74089,28.02931],[-15.74242,28.0319],[-15.74405,28.03175],[-15.74192,28.03632],[-15.74498,28.03842],[-15.74466,28.04124],[-15.7486,28.04701],[-15.7457,28.04973],[-15.74638,28.05102],[-15.76029,28.04508],[-15.7654,28.04622],[-15.76776,28.04311],[-15.76775,28.03727],[-15.77278,28.03205],[-15.77285,28.03183]]]}},{"type":"Feature","properties":{"mun_code":"35031","mun_name":"Valsequillo de Gran Canaria","mun_name_local":null,"prov_code":"35","prov_name":"Las Palmas","acom_code":"05","acom_name":"Canarias","geo_point_2d":{"lon":-15.50902924204531,"lat":27.984338491918784}},"geometry":{"type":"Polygon","coordinates":[[[-15.55428,27.95422],[-15.55022,27.95081],[-15.54554,27.94972],[-15.5433,27.95005],[-15.54542,27.95367],[-15.54254,27.95374],[-15.54439,27.95505],[-15.54146,27.95649],[-15.5355,27.95515],[-15.53244,27.95661],[-15.53161,27.95497],[-15.5259,27.95308],[-15.51766,27.95958],[-15.51115,27.95924],[-15.50877,27.96013],[-15.50685,27.96314],[-15.50413,27.96423],[-15.49983,27.96381],[-15.49192,27.96802],[-15.48826,27.97088],[-15.484,27.97827],[-15.47615,27.9787],[-15.4719,27.98124],[-15.46765,27.98101],[-15.46321,27.98337],[-15.46322,27.98592],[-15.46144,27.98718],[-15.4625,27.99001],[-15.45827,27.99212],[-15.46165,27.99765],[-15.46082,28.00607],[-15.46584,28.00844],[-15.47066,28.00874],[-15.48309,28.00652],[-15.4875,28.00787],[-15.4905,28.01045],[-15.48953,28.01234],[-15.49432,28.01404],[-15.49957,28.01257],[-15.50523,28.01453],[-15.50948,28.01393],[-15.51454,28.00466],[-15.51931,28.00141],[-15.5265,28.00268],[-15.53205,27.99836],[-15.537,27.99847],[-15.54875,27.98937],[-15.5501,27.98424],[-15.54798,27.9789],[-15.5491,27.96376],[-15.55407,27.95441],[-15.55428,27.95422]]]}},{"type":"Feature","properties":{"mun_code":"35004","mun_name":"Arrecife","mun_name_local":null,"prov_code":"35","prov_name":"Las Palmas","acom_code":"05","acom_name":"Canarias","geo_point_2d":{"lon":-13.562245418093948,"lat":28.97829594226533}},"geometry":{"type":"MultiPolygon","coordinates":[[[[-13.54936,28.95288],[-13.54389,28.9531],[-13.54377,28.95415],[-13.54529,28.9532],[-13.54764,28.95458],[-13.54719,28.95807],[-13.54978,28.95577],[-13.54807,28.95354],[-13.54904,28.95322],[-13.54936,28.95288]]],[[[-13.55341,28.95474],[-13.55508,28.95491],[-13.55416,28.95392],[-13.55205,28.95478],[-13.55317,28.95469],[-13.55341,28.95474]]],[[[-13.5156,28.98122],[-13.54454,28.98237],[-13.54845,28.98382],[-13.55266,28.9892],[-13.552,28.99151],[-13.55428,28.9941],[-13.55181,29.00357],[-13.55426,29.00309],[-13.5566,29.00702],[-13.56136,29.00534],[-13.56696,29.00566],[-13.57611,29.00186],[-13.57716,29.00295],[-13.58929,29.00389],[-13.58364,28.95177],[-13.58165,28.95342],[-13.57623,28.95207],[-13.57491,28.95479],[-13.57192,28.95437],[-13.57169,28.95333],[-13.57107,28.95441],[-13.56611,28.95438],[-13.55952,28.95623],[-13.55887,28.95824],[-13.55498,28.95666],[-13.55127,28.95693],[-13.54517,28.95997],[-13.54401,28.9588],[-13.54579,28.95728],[-13.54293,28.95697],[-13.53574,28.96557],[-13.5341,28.96481],[-13.5325,28.96728],[-13.53376,28.96807],[-13.53722,28.96584],[-13.54065,28.95974],[-13.54255,28.96242],[-13.53629,28.96976],[-13.52963,28.9733],[-13.53108,28.96843],[-13.53022,28.96718],[-13.52879,28.97135],[-13.52671,28.97184],[-13.52812,28.96416],[-13.52515,28.97557],[-13.52255,28.97692],[-13.52011,28.97448],[-13.51632,28.97672],[-13.51539,28.98069],[-13.5156,28.98122]]]]}},{"type":"Feature","properties":{"mun_code":"35003","mun_name":"Antigua","mun_name_local":null,"prov_code":"35","prov_name":"Las Palmas","acom_code":"05","acom_name":"Canarias","geo_point_2d":{"lon":-13.950280194416257,"lat":28.37778155475213}},"geometry":{"type":"Polygon","coordinates":[[[-14.05965,28.37793],[-13.98044,28.33494],[-13.92163,28.25203],[-13.92192,28.25039],[-13.91713,28.25214],[-13.91852,28.2544],[-13.91549,28.25616],[-13.91402,28.25992],[-13.91513,28.26208],[-13.90968,28.2712],[-13.90985,28.27393],[-13.90651,28.27587],[-13.90152,28.27452],[-13.90065,28.27587],[-13.90305,28.27758],[-13.89958,28.28055],[-13.89684,28.28817],[-13.89828,28.28887],[-13.89878,28.29475],[-13.90315,28.29718],[-13.90296,28.30305],[-13.89984,28.30479],[-13.89818,28.312],[-13.89399,28.31417],[-13.8935,28.31727],[-13.89606,28.31983],[-13.89464,28.32487],[-13.88835,28.32448],[-13.88603,28.32544],[-13.88637,28.32759],[-13.88363,28.33002],[-13.88596,28.33206],[-13.88314,28.33575],[-13.87914,28.33802],[-13.87817,28.34086],[-13.87908,28.34438],[-13.87654,28.3475],[-13.87658,28.35226],[-13.87822,28.355],[-13.87207,28.36207],[-13.8722,28.36529],[-13.87085,28.36551],[-13.86944,28.36374],[-13.86924,28.36978],[-13.86645,28.37309],[-13.86327,28.38603],[-13.86208,28.38726],[-13.86103,28.38671],[-13.86208,28.38794],[-13.85979,28.38894],[-13.86002,28.39291],[-13.85708,28.39493],[-13.85487,28.39198],[-13.85617,28.39132],[-13.85319,28.39233],[-13.85351,28.39827],[-13.85212,28.40059],[-13.84985,28.40073],[-13.85281,28.40307],[-13.84863,28.40999],[-13.85151,28.41796],[-13.8501,28.42129],[-13.85464,28.42332],[-13.90013,28.43276],[-13.90587,28.43714],[-13.92146,28.44062],[-13.92622,28.44442],[-13.94533,28.45429],[-13.9538,28.45458],[-13.96014,28.45165],[-13.9646,28.45178],[-13.96931,28.44979],[-13.9747,28.45012],[-13.97752,28.45358],[-13.98659,28.4496],[-13.9997,28.44902],[-14.00583,28.44702],[-14.01665,28.44804],[-14.01707,28.44995],[-14.02592,28.44851],[-14.02962,28.44633],[-14.04347,28.44295],[-14.04738,28.43833],[-14.04677,28.43124],[-14.04479,28.42671],[-14.04583,28.41897],[-14.0451,28.40571],[-14.05045,28.39944],[-14.05288,28.39408],[-14.05715,28.39097],[-14.06007,28.38194],[-14.05962,28.37839],[-14.05965,28.37793]]]}},{"type":"Feature","properties":{"mun_code":"35017","mun_name":"Puerto del Rosario","mun_name_local":null,"prov_code":"35","prov_name":"Las Palmas","acom_code":"05","acom_name":"Canarias","geo_point_2d":{"lon":-13.95065060187506,"lat":28.51079279922812}},"geometry":{"type":"MultiPolygon","coordinates":[[[[-14.07433,28.52733],[-14.07412,28.52855],[-14.07439,28.52756],[-14.07433,28.52733]]],[[[-14.04449,28.57735],[-14.04784,28.57211],[-14.05058,28.57058],[-14.05067,28.56883],[-14.05613,28.56503],[-14.05695,28.56061],[-14.05867,28.55934],[-14.05846,28.55558],[-14.06112,28.55349],[-14.06413,28.55407],[-14.06677,28.5504],[-14.06372,28.5432],[-14.0654,28.54139],[-14.06944,28.54083],[-14.06996,28.53817],[-14.06853,28.53775],[-14.07165,28.52971],[-14.074,28.52712],[-14.07388,28.52407],[-14.07878,28.51887],[-14.0802,28.51407],[-14.08278,28.51249],[-14.08388,28.50744],[-14.0867,28.5043],[-14.08735,28.50568],[-14.08794,28.50071],[-14.09021,28.4967],[-14.08965,28.49449],[-14.08448,28.49256],[-14.07831,28.4937],[-14.0766,28.49134],[-14.07231,28.49205],[-14.07034,28.49103],[-14.06008,28.49502],[-14.05163,28.48847],[-14.04378,28.48951],[-14.04142,28.48617],[-14.04056,28.47914],[-14.0436,28.47422],[-14.04335,28.47168],[-14.02322,28.45721],[-14.01665,28.44804],[-14.00583,28.44702],[-13.99872,28.44915],[-13.99002,28.44898],[-13.97752,28.45358],[-13.9747,28.45012],[-13.96715,28.4499],[-13.9646,28.45178],[-13.96014,28.45165],[-13.9538,28.45458],[-13.94533,28.45429],[-13.92622,28.44442],[-13.92146,28.44062],[-13.90587,28.43714],[-13.90013,28.43276],[-13.85464,28.42332],[-13.85041,28.4215],[-13.85198,28.42388],[-13.85799,28.42549],[-13.8586,28.42883],[-13.86232,28.43251],[-13.86236,28.43947],[-13.85668,28.44324],[-13.85885,28.45147],[-13.85694,28.45484],[-13.85682,28.46025],[-13.85901,28.46367],[-13.85939,28.46754],[-13.86574,28.4747],[-13.86757,28.48067],[-13.86255,28.49394],[-13.86115,28.49302],[-13.86155,28.49439],[-13.85876,28.49491],[-13.85813,28.49254],[-13.85813,28.49562],[-13.85983,28.49587],[-13.85784,28.49852],[-13.85639,28.49885],[-13.85499,28.49103],[-13.85341,28.49196],[-13.85471,28.49931],[-13.84795,28.49956],[-13.84265,28.50396],[-13.84377,28.50702],[-13.84229,28.50892],[-13.84369,28.51183],[-13.84002,28.51554],[-13.83924,28.5212],[-13.83489,28.526],[-13.83573,28.53135],[-13.83375,28.53512],[-13.83593,28.53477],[-13.83808,28.53647],[-13.83763,28.54222],[-13.83178,28.54509],[-13.82999,28.55027],[-13.82584,28.55275],[-13.82608,28.55704],[-13.8297,28.55906],[-13.82854,28.56456],[-13.88132,28.57301],[-13.88908,28.57322],[-13.89009,28.57082],[-13.89174,28.5715],[-13.89728,28.56851],[-13.9082,28.57074],[-13.90942,28.57553],[-13.91758,28.57398],[-13.92359,28.57433],[-13.93229,28.57209],[-13.93507,28.56981],[-13.94194,28.57016],[-13.9521,28.57337],[-13.96474,28.57228],[-13.96839,28.57002],[-13.98189,28.56664],[-14.00155,28.56648],[-14.01079,28.5683],[-14.01771,28.56799],[-14.0217,28.56981],[-14.02323,28.56882],[-14.04372,28.577],[-14.04449,28.57735]]]]}},{"type":"Feature","properties":{"mun_code":"35020","mun_name":"La Aldea de San Nicolás","mun_name_local":null,"prov_code":"35","prov_name":"Las Palmas","acom_code":"05","acom_name":"Canarias","geo_point_2d":{"lon":-15.787407490415495,"lat":27.94958699326762}},"geometry":{"type":"MultiPolygon","coordinates":[[[[-15.77285,28.03183],[-15.77884,28.0282],[-15.78025,28.02496],[-15.78631,28.02113],[-15.78884,28.02109],[-15.79013,28.01923],[-15.79246,28.01942],[-15.79195,28.01852],[-15.80546,28.01551],[-15.80874,28.01726],[-15.81424,28.01736],[-15.82283,28.01362],[-15.81881,28.00942],[-15.8194,28.00574],[-15.81788,28.0066],[-15.81742,28.0048],[-15.82138,27.99835],[-15.82078,27.99428],[-15.82301,27.99322],[-15.8231,27.98788],[-15.82573,27.98544],[-15.82746,27.9857],[-15.82637,27.98384],[-15.82723,27.98054],[-15.83324,27.97478],[-15.83439,27.97112],[-15.83284,27.96432],[-15.8339,27.96136],[-15.83076,27.95797],[-15.83091,27.95292],[-15.82793,27.94696],[-15.82817,27.94135],[-15.83012,27.93827],[-15.82952,27.93088],[-15.83156,27.92833],[-15.83151,27.92367],[-15.83438,27.91932],[-15.83312,27.91006],[-15.83074,27.9069],[-15.82814,27.9061],[-15.82592,27.90098],[-15.81806,27.89297],[-15.81231,27.87892],[-15.8064,27.87221],[-15.80152,27.86078],[-15.79923,27.85908],[-15.79191,27.86508],[-15.78148,27.86824],[-15.77712,27.87496],[-15.77325,27.87795],[-15.76853,27.88854],[-15.76242,27.89474],[-15.76077,27.8984],[-15.75801,27.9011],[-15.75255,27.90269],[-15.75132,27.91199],[-15.75495,27.91384],[-15.75285,27.91935],[-15.73461,27.93913],[-15.73613,27.94714],[-15.73857,27.95119],[-15.7382,27.95419],[-15.74796,27.96268],[-15.74749,27.98056],[-15.74838,27.98521],[-15.75106,27.9872],[-15.74842,27.9916],[-15.74782,28.00281],[-15.74643,28.00525],[-15.74846,28.00947],[-15.74836,28.01389],[-15.74965,28.0162],[-15.75821,28.02251],[-15.75832,28.0249],[-15.76519,28.02569],[-15.76636,28.0283],[-15.77234,28.03146],[-15.77285,28.03183]]]]}},{"type":"Feature","properties":{"mun_code":"35016","mun_name":"Las Palmas de Gran Canaria","mun_name_local":null,"prov_code":"35","prov_name":"Las Palmas","acom_code":"05","acom_name":"Canarias","geo_point_2d":{"lon":-15.454871626433613,"lat":28.09138709982729}},"geometry":{"type":"MultiPolygon","coordinates":[[[[-15.5045,28.10037],[-15.50363,28.09892],[-15.50503,28.09929],[-15.50614,28.09487],[-15.50794,28.09409],[-15.5067,28.09289],[-15.51009,28.09097],[-15.51323,28.08682],[-15.51214,28.08449],[-15.51449,28.08372],[-15.51024,28.08038],[-15.50739,28.08152],[-15.50652,28.07945],[-15.5166,28.07022],[-15.52184,28.0623],[-15.52092,28.05886],[-15.52725,28.05252],[-15.52472,28.0501],[-15.52082,28.05082],[-15.52101,28.04857],[-15.51926,28.04983],[-15.51602,28.05006],[-15.51541,28.04899],[-15.51095,28.05027],[-15.50987,28.04765],[-15.50544,28.04825],[-15.49751,28.05156],[-15.48851,28.05268],[-15.48735,28.05186],[-15.48583,28.05409],[-15.47982,28.05563],[-15.47777,28.05817],[-15.47422,28.05195],[-15.47005,28.0482],[-15.46797,28.04206],[-15.46215,28.03963],[-15.45995,28.03564],[-15.45593,28.03654],[-15.45142,28.03297],[-15.45176,28.02946],[-15.45673,28.02757],[-15.45534,28.02446],[-15.44705,28.02594],[-15.44682,28.02726],[-15.44436,28.02772],[-15.44311,28.03099],[-15.43899,28.03355],[-15.42928,28.0352],[-15.42117,28.03881],[-15.41708,28.0375],[-15.41647,28.03352],[-15.41434,28.03081],[-15.41081,28.03096],[-15.40698,28.02898],[-15.40219,28.02845],[-15.3949,28.03131],[-15.40584,28.03742],[-15.40997,28.04228],[-15.41008,28.04415],[-15.40891,28.04426],[-15.41185,28.04352],[-15.41603,28.04756],[-15.41334,28.0527],[-15.41445,28.05498],[-15.41572,28.05447],[-15.41719,28.0557],[-15.41979,28.06134],[-15.41701,28.06752],[-15.41698,28.07092],[-15.41448,28.07594],[-15.41333,28.07561],[-15.41642,28.08398],[-15.41549,28.0878],[-15.41242,28.09074],[-15.41115,28.1008],[-15.41454,28.11078],[-15.421,28.12091],[-15.42114,28.11957],[-15.42272,28.12226],[-15.4229,28.12093],[-15.42399,28.1216],[-15.4241,28.12294],[-15.42306,28.12242],[-15.42421,28.12331],[-15.42397,28.12813],[-15.42532,28.12684],[-15.4253,28.12342],[-15.42805,28.12886],[-15.42435,28.12946],[-15.42333,28.12837],[-15.42416,28.12953],[-15.4284,28.12903],[-15.4289,28.13058],[-15.42845,28.13273],[-15.42505,28.13279],[-15.42476,28.13377],[-15.42731,28.13282],[-15.4272,28.13421],[-15.42483,28.13452],[-15.42536,28.13899],[-15.42568,28.13643],[-15.42642,28.13728],[-15.42638,28.13637],[-15.427,28.13722],[-15.42872,28.13633],[-15.42769,28.14081],[-15.42531,28.14112],[-15.42119,28.13746],[-15.42378,28.14152],[-15.42582,28.14124],[-15.42752,28.1431],[-15.4277,28.14678],[-15.42516,28.14674],[-15.42523,28.14287],[-15.42422,28.14287],[-15.42414,28.14673],[-15.4227,28.1467],[-15.42298,28.14377],[-15.42261,28.1467],[-15.42119,28.14668],[-15.42128,28.14171],[-15.42025,28.1417],[-15.42017,28.14665],[-15.41764,28.14661],[-15.41765,28.12851],[-15.41198,28.12813],[-15.41181,28.13674],[-15.41542,28.13954],[-15.41496,28.14298],[-15.41175,28.14065],[-15.41169,28.14406],[-15.4156,28.14757],[-15.41232,28.15085],[-15.41034,28.15082],[-15.41026,28.15441],[-15.40857,28.15441],[-15.40803,28.15819],[-15.40691,28.15819],[-15.40793,28.13711],[-15.40762,28.13289],[-15.40463,28.13067],[-15.40456,28.12131],[-15.40441,28.13076],[-15.40716,28.13282],[-15.40679,28.1502],[-15.40524,28.15313],[-15.40501,28.16191],[-15.39848,28.16101],[-15.39847,28.15233],[-15.39814,28.16174],[-15.3986,28.16461],[-15.40154,28.16546],[-15.40127,28.16648],[-15.40505,28.16613],[-15.40443,28.16817],[-15.40573,28.16848],[-15.40434,28.16894],[-15.40576,28.16887],[-15.40374,28.17382],[-15.40701,28.17802],[-15.41037,28.17776],[-15.4142,28.17937],[-15.41331,28.17779],[-15.41514,28.17761],[-15.41631,28.17899],[-15.41878,28.17883],[-15.42025,28.18155],[-15.42012,28.18031],[-15.4223,28.18072],[-15.42561,28.1759],[-15.42882,28.17584],[-15.43121,28.17194],[-15.43316,28.17062],[-15.43536,28.17105],[-15.43708,28.1691],[-15.43943,28.1692],[-15.44008,28.16688],[-15.44231,28.1663],[-15.44123,28.16476],[-15.44244,28.16213],[-15.43969,28.16194],[-15.43555,28.15796],[-15.43305,28.15735],[-15.43219,28.15434],[-15.43356,28.15297],[-15.43152,28.15138],[-15.43343,28.14849],[-15.43121,28.14688],[-15.43749,28.13799],[-15.4457,28.13123],[-15.44873,28.13081],[-15.44937,28.13178],[-15.45365,28.12807],[-15.46153,28.12829],[-15.46788,28.12614],[-15.47119,28.12954],[-15.47277,28.12959],[-15.47276,28.13215],[-15.4754,28.13264],[-15.47916,28.13683],[-15.48476,28.13499],[-15.48592,28.13284],[-15.48724,28.13298],[-15.48702,28.12995],[-15.49002,28.12574],[-15.49187,28.12525],[-15.49232,28.12293],[-15.49748,28.12187],[-15.49481,28.11768],[-15.49728,28.1178],[-15.49699,28.1161],[-15.49819,28.11558],[-15.49714,28.11368],[-15.49986,28.11127],[-15.49938,28.10484],[-15.50424,28.10534],[-15.50543,28.10259],[-15.50461,28.10079],[-15.5045,28.10037]]],[[[-15.44178,28.13707],[-15.44128,28.13777],[-15.44226,28.13681],[-15.44178,28.13707]]],[[[-15.43873,28.14031],[-15.43457,28.14627],[-15.43901,28.14014],[-15.43873,28.14031]]]]}},{"type":"Feature","properties":{"mun_code":"35025","mun_name":"Tejeda","mun_name_local":null,"prov_code":"35","prov_name":"Las Palmas","acom_code":"05","acom_name":"Canarias","geo_point_2d":{"lon":-15.659951500396502,"lat":27.968057044198527}},"geometry":{"type":"Polygon","coordinates":[[[-15.74959,27.98801],[-15.75106,27.9872],[-15.74838,27.98521],[-15.74749,27.98056],[-15.74796,27.96268],[-15.7382,27.95419],[-15.73857,27.95119],[-15.73613,27.94714],[-15.73461,27.93913],[-15.72907,27.94339],[-15.72604,27.94794],[-15.72237,27.94903],[-15.71662,27.946],[-15.70911,27.94555],[-15.70337,27.94799],[-15.69519,27.94729],[-15.69227,27.94962],[-15.6881,27.94788],[-15.68306,27.9421],[-15.68367,27.93132],[-15.6876,27.92775],[-15.68781,27.92224],[-15.68766,27.9181],[-15.68488,27.91553],[-15.68425,27.90992],[-15.68268,27.90903],[-15.68051,27.90999],[-15.6777,27.90881],[-15.67776,27.9114],[-15.67252,27.91773],[-15.66329,27.91209],[-15.66068,27.9146],[-15.65471,27.91552],[-15.6497,27.92171],[-15.64499,27.92315],[-15.64396,27.9259],[-15.63767,27.93135],[-15.63664,27.9349],[-15.63017,27.94013],[-15.63223,27.94121],[-15.63088,27.94635],[-15.62859,27.949],[-15.62509,27.94857],[-15.61292,27.95304],[-15.60535,27.9646],[-15.60094,27.96551],[-15.59905,27.96335],[-15.6004,27.9593],[-15.58865,27.95205],[-15.58502,27.95265],[-15.58031,27.95588],[-15.57572,27.9622],[-15.57177,27.96212],[-15.58562,27.97911],[-15.58668,27.982],[-15.5923,27.98512],[-15.59337,27.9879],[-15.59237,27.99088],[-15.5956,27.99398],[-15.5961,28.0003],[-15.59953,28.00497],[-15.60119,28.01415],[-15.60432,28.01698],[-15.61262,28.01929],[-15.61383,28.01866],[-15.61329,28.01707],[-15.61598,28.01616],[-15.62297,28.01735],[-15.62521,28.01412],[-15.6334,28.00922],[-15.63831,28.00372],[-15.6414,28.00384],[-15.64539,28.00175],[-15.65764,28.00195],[-15.66358,28.00476],[-15.67037,28.00432],[-15.67211,28.00276],[-15.67102,28.0013],[-15.67363,28.00113],[-15.67649,27.99642],[-15.67788,27.99715],[-15.67895,27.99355],[-15.68257,27.99332],[-15.6834,27.99209],[-15.68849,27.99308],[-15.69091,27.99185],[-15.69038,27.98933],[-15.69259,27.98751],[-15.695,27.99049],[-15.70135,27.99286],[-15.70547,27.99328],[-15.70712,27.99189],[-15.70839,27.99311],[-15.71202,27.98964],[-15.71482,27.98995],[-15.71601,27.98824],[-15.72148,27.98663],[-15.72249,27.98296],[-15.72627,27.98018],[-15.73527,27.98215],[-15.73975,27.98464],[-15.74041,27.9871],[-15.74909,27.98808],[-15.74959,27.98801]]]}},{"type":"Feature","properties":{"mun_code":"35030","mun_name":"Tuineje","mun_name_local":null,"prov_code":"35","prov_name":"Las Palmas","acom_code":"05","acom_name":"Canarias","geo_point_2d":{"lon":-14.044338999281814,"lat":28.27206557320568}},"geometry":{"type":"Polygon","coordinates":[[[-14.1273,28.18901],[-14.12407,28.19092],[-14.11652,28.19168],[-14.11434,28.18905],[-14.11021,28.18889],[-14.10616,28.19271],[-14.09854,28.19472],[-14.0966,28.19477],[-14.09488,28.19233],[-14.09225,28.19431],[-14.08107,28.19785],[-14.07746,28.19745],[-14.07618,28.20038],[-14.07345,28.20158],[-14.06813,28.19891],[-14.06507,28.2012],[-14.06051,28.20229],[-14.05555,28.20187],[-14.05024,28.20336],[-14.04831,28.20218],[-14.0427,28.20243],[-14.03271,28.20725],[-14.02995,28.20708],[-14.02755,28.20531],[-14.02502,28.20635],[-14.02788,28.2056],[-14.02717,28.20755],[-14.0232,28.20877],[-14.02392,28.20521],[-14.02258,28.20643],[-14.02277,28.20989],[-14.01911,28.2111],[-14.01659,28.21103],[-14.01267,28.20768],[-14.00791,28.21001],[-14.00203,28.21582],[-13.99551,28.2181],[-13.98664,28.22818],[-13.98334,28.22702],[-13.97749,28.22902],[-13.95705,28.22712],[-13.94665,28.22821],[-13.94173,28.23193],[-13.93603,28.23359],[-13.93032,28.24039],[-13.92694,28.24149],[-13.92228,28.24776],[-13.92163,28.25203],[-13.98044,28.33494],[-14.05965,28.37793],[-14.06266,28.37559],[-14.06442,28.36521],[-14.06389,28.3588],[-14.06197,28.35629],[-14.05853,28.35522],[-14.0582,28.35192],[-14.06135,28.34997],[-14.06375,28.34576],[-14.07388,28.33967],[-14.07598,28.33374],[-14.08647,28.32708],[-14.09513,28.32583],[-14.10127,28.31986],[-14.10584,28.31971],[-14.11194,28.30978],[-14.11363,28.3083],[-14.11781,28.30824],[-14.12388,28.30252],[-14.12678,28.3015],[-14.12835,28.29784],[-14.13483,28.29232],[-14.14079,28.29026],[-14.14683,28.29255],[-14.15237,28.28926],[-14.15496,28.28948],[-14.15989,28.28744],[-14.15863,28.28011],[-14.14776,28.27698],[-14.14231,28.26527],[-14.13992,28.26479],[-14.1383,28.26173],[-14.13928,28.25743],[-14.14123,28.25652],[-14.14315,28.25294],[-14.13994,28.24907],[-14.14107,28.24565],[-14.13747,28.23908],[-14.13954,28.23032],[-14.13588,28.22277],[-14.13978,28.2181],[-14.13863,28.20492],[-14.13554,28.20072],[-14.12891,28.19614],[-14.12741,28.18967],[-14.1273,28.18901]]]}},{"type":"Feature","properties":{"mun_code":"35029","mun_name":"Tinajo","mun_name_local":null,"prov_code":"35","prov_name":"Las Palmas","acom_code":"05","acom_name":"Canarias","geo_point_2d":{"lon":-13.708209453814652,"lat":29.04550507078931}},"geometry":{"type":"MultiPolygon","coordinates":[[[[-13.65198,29.12245],[-13.65266,29.12139],[-13.65793,29.12371],[-13.66263,29.11816],[-13.6619,29.11622],[-13.65673,29.11327],[-13.65311,29.11647],[-13.65238,29.12015],[-13.65206,29.11385],[-13.65344,29.1144],[-13.65931,29.11226],[-13.66184,29.11321],[-13.665,29.10967],[-13.67574,29.10592],[-13.67706,29.10368],[-13.68081,29.10373],[-13.68213,29.10076],[-13.68072,29.09813],[-13.68293,29.09538],[-13.68796,29.09236],[-13.69119,29.09254],[-13.69201,29.09027],[-13.70166,29.09005],[-13.70778,29.0795],[-13.7096,29.0794],[-13.71215,29.08182],[-13.7151,29.081],[-13.72315,29.08499],[-13.72358,29.0837],[-13.72609,29.08378],[-13.72715,29.08126],[-13.73072,29.08233],[-13.73721,29.07993],[-13.74339,29.08013],[-13.7462,29.07779],[-13.75197,29.07903],[-13.75619,29.07761],[-13.76081,29.06738],[-13.76604,29.06549],[-13.76634,29.06395],[-13.76958,29.06643],[-13.77136,29.06298],[-13.77464,29.06247],[-13.77518,29.06346],[-13.77928,29.06193],[-13.78362,29.0561],[-13.79337,29.05188],[-13.79919,29.04229],[-13.80733,29.03719],[-13.74489,28.99804],[-13.6957,28.98572],[-13.66001,29.00693],[-13.65289,29.02343],[-13.64662,29.03062],[-13.63888,29.06319],[-13.64118,29.07203],[-13.64186,29.08832],[-13.65125,29.12212],[-13.65198,29.12245]]]]}},{"type":"Feature","properties":{"mun_code":"35010","mun_name":"Haría","mun_name_local":null,"prov_code":"35","prov_name":"Las Palmas","acom_code":"05","acom_name":"Canarias","geo_point_2d":{"lon":-13.475229735040218,"lat":29.161845184257313}},"geometry":{"type":"MultiPolygon","coordinates":[[[[-13.44003,29.21976],[-13.4395,29.22142],[-13.44079,29.2226],[-13.43995,29.21999],[-13.44003,29.21976]]],[[[-13.45151,29.08068],[-13.44761,29.08894],[-13.44942,29.0963],[-13.44873,29.10071],[-13.45547,29.10411],[-13.45504,29.10786],[-13.45661,29.10798],[-13.46372,29.11554],[-13.46285,29.12014],[-13.46479,29.12304],[-13.46422,29.12791],[-13.46165,29.12934],[-13.46024,29.13232],[-13.45848,29.13207],[-13.45551,29.13763],[-13.4521,29.13923],[-13.44963,29.14377],[-13.44597,29.14355],[-13.44542,29.14529],[-13.44691,29.14642],[-13.44475,29.14801],[-13.44283,29.14769],[-13.43508,29.15343],[-13.42891,29.15448],[-13.42721,29.16368],[-13.42423,29.16522],[-13.42487,29.16716],[-13.42758,29.16865],[-13.42555,29.16975],[-13.42625,29.17296],[-13.42209,29.17727],[-13.4202,29.18417],[-13.42178,29.19589],[-13.41925,29.19717],[-13.42063,29.20038],[-13.4195,29.20182],[-13.42429,29.20562],[-13.42396,29.2087],[-13.4276,29.20899],[-13.42891,29.20778],[-13.43057,29.20952],[-13.43398,29.20997],[-13.43815,29.21705],[-13.44095,29.21805],[-13.4443,29.21721],[-13.44596,29.22083],[-13.44882,29.22071],[-13.44833,29.22233],[-13.45186,29.22271],[-13.45168,29.22399],[-13.45446,29.22626],[-13.45832,29.22633],[-13.46136,29.22473],[-13.46605,29.22676],[-13.47021,29.24098],[-13.47289,29.23318],[-13.47754,29.22851],[-13.48767,29.22197],[-13.49703,29.21826],[-13.49784,29.20694],[-13.50294,29.20532],[-13.50362,29.20284],[-13.50609,29.20087],[-13.50647,29.19684],[-13.51016,29.19509],[-13.50976,29.19109],[-13.50854,29.1909],[-13.5111,29.18749],[-13.51175,29.18236],[-13.51374,29.18044],[-13.5132,29.17879],[-13.51682,29.17644],[-13.51654,29.17372],[-13.52206,29.16887],[-13.5218,29.15857],[-13.52277,29.15779],[-13.52107,29.15581],[-13.52222,29.15552],[-13.52192,29.15319],[-13.52405,29.14937],[-13.52458,29.14145],[-13.53036,29.1353],[-13.52817,29.11926],[-13.50754,29.11232],[-13.5049,29.11079],[-13.50476,29.10917],[-13.49823,29.10627],[-13.49369,29.0992],[-13.48678,29.0952],[-13.47159,29.08777],[-13.45475,29.08218],[-13.45151,29.08068]]]]}},{"type":"Feature","properties":{"mun_code":"35027","mun_name":"Teror","mun_name_local":null,"prov_code":"35","prov_name":"Las Palmas","acom_code":"05","acom_name":"Canarias","geo_point_2d":{"lon":-15.54027453650573,"lat":28.05994876282201}},"geometry":{"type":"Polygon","coordinates":[[[-15.56917,28.02614],[-15.56041,28.02483],[-15.55049,28.03105],[-15.54428,28.03303],[-15.53826,28.03998],[-15.53566,28.03832],[-15.52402,28.04371],[-15.52139,28.04315],[-15.50703,28.04824],[-15.50987,28.04765],[-15.51095,28.05027],[-15.51541,28.04899],[-15.51602,28.05006],[-15.51926,28.04983],[-15.52101,28.04857],[-15.52082,28.05082],[-15.52472,28.0501],[-15.52725,28.05252],[-15.52177,28.05739],[-15.52079,28.05916],[-15.52184,28.0623],[-15.5166,28.07022],[-15.50672,28.07901],[-15.50739,28.08152],[-15.51024,28.08038],[-15.51449,28.08372],[-15.51214,28.08449],[-15.51323,28.08682],[-15.51009,28.09097],[-15.5067,28.09289],[-15.50794,28.09409],[-15.50614,28.09487],[-15.50503,28.09929],[-15.50363,28.09892],[-15.5045,28.10037],[-15.51489,28.09504],[-15.51427,28.09415],[-15.5171,28.09258],[-15.52088,28.08454],[-15.52992,28.08294],[-15.53962,28.08638],[-15.54648,28.08621],[-15.54951,28.08486],[-15.55063,28.08226],[-15.55621,28.07825],[-15.5562,28.07471],[-15.56416,28.0592],[-15.56628,28.05882],[-15.56858,28.05168],[-15.56635,28.04867],[-15.56919,28.04761],[-15.56502,28.04445],[-15.563,28.04035],[-15.56522,28.03759],[-15.56453,28.03265],[-15.56885,28.02955],[-15.56917,28.02645],[-15.56917,28.02614]]]}},{"type":"Feature","properties":{"mun_code":"35009","mun_name":"Gáldar","mun_name_local":null,"prov_code":"35","prov_name":"Las Palmas","acom_code":"05","acom_name":"Canarias","geo_point_2d":{"lon":-15.66111542550457,"lat":28.109187845956}},"geometry":{"type":"Polygon","coordinates":[[[-15.64959,28.16552],[-15.65322,28.16583],[-15.65667,28.16347],[-15.65798,28.16395],[-15.6663,28.15814],[-15.66769,28.15954],[-15.66873,28.15867],[-15.67327,28.1596],[-15.67294,28.16109],[-15.67437,28.16187],[-15.67651,28.15941],[-15.67889,28.16299],[-15.6812,28.16222],[-15.68074,28.16691],[-15.6832,28.17061],[-15.68624,28.17066],[-15.68758,28.16875],[-15.69032,28.17001],[-15.69323,28.1649],[-15.69608,28.16508],[-15.69873,28.16309],[-15.70409,28.16424],[-15.70574,28.16599],[-15.70714,28.16515],[-15.70896,28.1659],[-15.70941,28.16258],[-15.70635,28.15738],[-15.69623,28.15165],[-15.69671,28.14799],[-15.69984,28.14788],[-15.70473,28.14258],[-15.70074,28.14035],[-15.70087,28.13757],[-15.69914,28.13572],[-15.69975,28.13177],[-15.7039,28.13115],[-15.7049,28.12539],[-15.70921,28.12074],[-15.70553,28.11876],[-15.70512,28.11676],[-15.70298,28.11738],[-15.70228,28.11625],[-15.69925,28.11619],[-15.69889,28.11478],[-15.69306,28.11646],[-15.69031,28.1133],[-15.68863,28.11397],[-15.68726,28.11072],[-15.68309,28.10881],[-15.6786,28.10378],[-15.678,28.10061],[-15.67132,28.09137],[-15.66891,28.08946],[-15.66428,28.08932],[-15.66299,28.08738],[-15.66469,28.08446],[-15.65802,28.0837],[-15.66037,28.08004],[-15.65866,28.07876],[-15.65973,28.07796],[-15.65855,28.07511],[-15.66035,28.07321],[-15.65448,28.07139],[-15.65254,28.06925],[-15.65132,28.05797],[-15.6538,28.05786],[-15.65464,28.05554],[-15.65823,28.05626],[-15.65911,28.05444],[-15.66018,28.05509],[-15.66197,28.05299],[-15.66206,28.04955],[-15.66914,28.04909],[-15.66512,28.04555],[-15.66095,28.04553],[-15.65811,28.04335],[-15.65471,28.04353],[-15.65278,28.04197],[-15.65291,28.04036],[-15.64332,28.0334],[-15.63517,28.02956],[-15.63124,28.02968],[-15.62387,28.02735],[-15.61728,28.0209],[-15.6159,28.02257],[-15.61747,28.03261],[-15.61903,28.03428],[-15.618,28.03806],[-15.62206,28.04096],[-15.62388,28.04571],[-15.62922,28.05181],[-15.62963,28.06062],[-15.63303,28.06095],[-15.63287,28.0623],[-15.63768,28.06692],[-15.63559,28.07096],[-15.63724,28.07892],[-15.63498,28.08514],[-15.63696,28.08887],[-15.63557,28.0934],[-15.63688,28.09588],[-15.63558,28.09953],[-15.63729,28.10033],[-15.63687,28.10365],[-15.63457,28.1049],[-15.63604,28.10648],[-15.63189,28.10763],[-15.63274,28.10957],[-15.63147,28.11183],[-15.63848,28.11453],[-15.6384,28.11984],[-15.64376,28.1354],[-15.63665,28.13696],[-15.63479,28.13889],[-15.64091,28.14267],[-15.64168,28.14406],[-15.63974,28.14681],[-15.64072,28.15211],[-15.64732,28.16185],[-15.64972,28.16295],[-15.64928,28.16485],[-15.64959,28.16552]]]}},{"type":"Feature","properties":{"mun_code":"35026","mun_name":"Telde","mun_name_local":null,"prov_code":"35","prov_name":"Las Palmas","acom_code":"05","acom_name":"Canarias","geo_point_2d":{"lon":-15.429310767346001,"lat":27.983104504559503}},"geometry":{"type":"MultiPolygon","coordinates":[[[[-15.36501,27.99346],[-15.36309,27.99258],[-15.36463,27.99338],[-15.36501,27.99346]]],[[[-15.50301,28.01347],[-15.49957,28.01257],[-15.49432,28.01404],[-15.48953,28.01234],[-15.4905,28.01045],[-15.4875,28.00787],[-15.48309,28.00652],[-15.47066,28.00874],[-15.46215,28.00708],[-15.46082,28.00607],[-15.46165,27.99765],[-15.45827,27.99212],[-15.4625,27.99001],[-15.46144,27.98718],[-15.46322,27.98592],[-15.46321,27.98337],[-15.46765,27.98101],[-15.4719,27.98124],[-15.47615,27.9787],[-15.484,27.97827],[-15.48842,27.97069],[-15.49777,27.96462],[-15.50444,27.96413],[-15.51115,27.95924],[-15.51766,27.95958],[-15.5259,27.95308],[-15.53195,27.95525],[-15.53001,27.95277],[-15.52637,27.95142],[-15.51961,27.95165],[-15.51868,27.95045],[-15.50907,27.95239],[-15.50101,27.94982],[-15.49685,27.95043],[-15.49384,27.94859],[-15.48081,27.94885],[-15.48,27.95075],[-15.47596,27.9498],[-15.47194,27.95141],[-15.46884,27.95065],[-15.46579,27.95164],[-15.46119,27.95012],[-15.45924,27.95066],[-15.45795,27.94818],[-15.45268,27.94691],[-15.44979,27.94791],[-15.4481,27.94683],[-15.43774,27.94691],[-15.43629,27.94311],[-15.43236,27.94218],[-15.43116,27.94294],[-15.42883,27.94111],[-15.4279,27.93822],[-15.42222,27.93696],[-15.41497,27.9382],[-15.41409,27.94005],[-15.41132,27.93946],[-15.4059,27.94136],[-15.40264,27.94109],[-15.38777,27.93706],[-15.3799,27.93142],[-15.37648,27.9348],[-15.37251,27.9358],[-15.3619,27.929],[-15.35961,27.92924],[-15.35886,27.93408],[-15.36107,27.93677],[-15.3696,27.93989],[-15.36834,27.94446],[-15.36943,27.94501],[-15.37135,27.94359],[-15.37234,27.94498],[-15.37492,27.94519],[-15.37422,27.94665],[-15.37811,27.94636],[-15.38108,27.95012],[-15.38101,27.95137],[-15.37732,27.95361],[-15.37779,27.95544],[-15.38187,27.95754],[-15.38041,27.96233],[-15.37876,27.9618],[-15.37822,27.96306],[-15.38042,27.96539],[-15.38221,27.96372],[-15.38276,27.96686],[-15.38434,27.96722],[-15.38232,27.97073],[-15.38358,27.97271],[-15.38096,27.97467],[-15.38118,27.97614],[-15.37774,27.97671],[-15.37652,27.97532],[-15.3757,27.97899],[-15.37815,27.98377],[-15.37514,27.98508],[-15.37482,27.98787],[-15.36921,27.98928],[-15.36797,27.99132],[-15.36855,27.98855],[-15.36712,27.99202],[-15.37062,27.99378],[-15.37016,27.99677],[-15.37335,27.99596],[-15.37499,27.99739],[-15.37427,28.00312],[-15.37689,28.00601],[-15.37321,28.0095],[-15.3777,28.0097],[-15.3811,28.01437],[-15.38533,28.01669],[-15.3852,28.02216],[-15.38795,28.02984],[-15.39071,28.02873],[-15.3949,28.03131],[-15.40219,28.02845],[-15.40698,28.02898],[-15.41081,28.03096],[-15.41434,28.03081],[-15.41647,28.03352],[-15.41708,28.0375],[-15.42117,28.03881],[-15.42928,28.0352],[-15.4393,28.03341],[-15.44336,28.03075],[-15.4445,28.02754],[-15.44946,28.02499],[-15.45502,28.02444],[-15.45722,28.02546],[-15.4586,28.02408],[-15.46574,28.02281],[-15.46846,28.02359],[-15.47294,28.02151],[-15.474,28.02264],[-15.47919,28.02319],[-15.48494,28.02241],[-15.48954,28.01616],[-15.49421,28.01646],[-15.50252,28.01362],[-15.50301,28.01347]]]]}},{"type":"Feature","properties":{"mun_code":"35019","mun_name":"San Bartolomé de Tirajana","mun_name_local":null,"prov_code":"35","prov_name":"Las Palmas","acom_code":"05","acom_name":"Canarias","geo_point_2d":{"lon":-15.582870282216332,"lat":27.84091703578389}},"geometry":{"type":"Polygon","coordinates":[[[-15.68041,27.75625],[-15.67702,27.75406],[-15.6741,27.74898],[-15.66908,27.74804],[-15.67301,27.74958],[-15.67128,27.75023],[-15.6721,27.75212],[-15.6707,27.75402],[-15.66001,27.75678],[-15.65149,27.7546],[-15.64698,27.75098],[-15.63793,27.75051],[-15.63672,27.74833],[-15.63434,27.74866],[-15.63254,27.74647],[-15.62844,27.74503],[-15.6211,27.74543],[-15.62539,27.74698],[-15.62187,27.74672],[-15.62166,27.74852],[-15.61982,27.74899],[-15.61198,27.74477],[-15.60617,27.73913],[-15.59889,27.73452],[-15.59129,27.73624],[-15.57604,27.73596],[-15.56945,27.73833],[-15.56631,27.75655],[-15.56032,27.76295],[-15.55875,27.76261],[-15.55253,27.76561],[-15.55085,27.76505],[-15.55144,27.76603],[-15.54994,27.7673],[-15.54339,27.7667],[-15.53873,27.77034],[-15.5339,27.77014],[-15.52811,27.77615],[-15.51725,27.78164],[-15.50875,27.78033],[-15.49592,27.78939],[-15.48746,27.79266],[-15.47376,27.7936],[-15.46426,27.79682],[-15.46315,27.79661],[-15.46378,27.79463],[-15.46273,27.79473],[-15.46292,27.79698],[-15.45839,27.79854],[-15.44623,27.79894],[-15.4356,27.80154],[-15.43378,27.80022],[-15.43528,27.80198],[-15.43425,27.80237],[-15.43281,27.80045],[-15.43373,27.79922],[-15.43245,27.80021],[-15.43359,27.8025],[-15.42745,27.80561],[-15.43416,27.81292],[-15.45,27.82423],[-15.46668,27.84303],[-15.47715,27.85045],[-15.48536,27.84597],[-15.48817,27.84695],[-15.50082,27.8435],[-15.51224,27.84777],[-15.51553,27.85134],[-15.52024,27.85229],[-15.52692,27.851],[-15.52938,27.85271],[-15.52797,27.85492],[-15.52846,27.85729],[-15.53348,27.86324],[-15.53499,27.86955],[-15.53941,27.87156],[-15.53666,27.87367],[-15.53212,27.87466],[-15.53039,27.8777],[-15.53334,27.87896],[-15.53364,27.88097],[-15.53592,27.88108],[-15.53532,27.88444],[-15.5416,27.88772],[-15.5423,27.89067],[-15.55164,27.89539],[-15.55232,27.89736],[-15.55082,27.89853],[-15.55239,27.90271],[-15.54999,27.90575],[-15.55265,27.907],[-15.5506,27.91167],[-15.55784,27.9235],[-15.5562,27.92587],[-15.55273,27.92498],[-15.54946,27.92723],[-15.54603,27.9273],[-15.54158,27.93119],[-15.53939,27.9421],[-15.5426,27.94388],[-15.5433,27.95005],[-15.55022,27.95081],[-15.55685,27.95768],[-15.56236,27.96108],[-15.56893,27.96321],[-15.57572,27.9622],[-15.58031,27.95588],[-15.58502,27.95265],[-15.58865,27.95205],[-15.6004,27.9593],[-15.59905,27.96335],[-15.60094,27.96551],[-15.60535,27.9646],[-15.61292,27.95304],[-15.62509,27.94857],[-15.62859,27.949],[-15.63088,27.94635],[-15.63223,27.94121],[-15.63017,27.94013],[-15.63664,27.9349],[-15.63767,27.93135],[-15.64396,27.9259],[-15.64499,27.92315],[-15.65024,27.92124],[-15.65471,27.91552],[-15.66094,27.9144],[-15.66399,27.91081],[-15.66356,27.90709],[-15.66587,27.90659],[-15.66988,27.9023],[-15.67055,27.8988],[-15.66913,27.89287],[-15.67104,27.88727],[-15.66904,27.88253],[-15.67137,27.87181],[-15.67065,27.86781],[-15.6675,27.86676],[-15.66271,27.86175],[-15.66262,27.85132],[-15.66025,27.84588],[-15.66186,27.84222],[-15.6589,27.83589],[-15.66025,27.83054],[-15.66289,27.82983],[-15.6615,27.82646],[-15.6663,27.82395],[-15.6637,27.82001],[-15.66382,27.81488],[-15.66711,27.81018],[-15.66942,27.80349],[-15.66853,27.80036],[-15.67259,27.79243],[-15.66819,27.78673],[-15.67031,27.78236],[-15.66656,27.77829],[-15.6669,27.76957],[-15.67045,27.76666],[-15.67112,27.76143],[-15.67583,27.75729],[-15.67813,27.75682],[-15.68041,27.75625]]]}},{"type":"Feature","properties":{"mun_code":"35008","mun_name":"Firgas","mun_name_local":null,"prov_code":"35","prov_name":"Las Palmas","acom_code":"05","acom_name":"Canarias","geo_point_2d":{"lon":-15.558283146641987,"lat":28.107903604089792}},"geometry":{"type":"Polygon","coordinates":[[[-15.57711,28.07788],[-15.57548,28.07661],[-15.57402,28.07768],[-15.55621,28.07825],[-15.54994,28.08338],[-15.54903,28.08625],[-15.55146,28.09167],[-15.54676,28.09701],[-15.54424,28.10452],[-15.54465,28.10726],[-15.54885,28.11029],[-15.54851,28.11217],[-15.5451,28.12062],[-15.54166,28.12438],[-15.54196,28.12891],[-15.54089,28.12994],[-15.54367,28.13581],[-15.54329,28.13962],[-15.54557,28.14019],[-15.54448,28.14242],[-15.54622,28.14379],[-15.54984,28.14385],[-15.55025,28.14221],[-15.5521,28.14431],[-15.56367,28.13803],[-15.56285,28.13444],[-15.56134,28.13428],[-15.56033,28.13222],[-15.56162,28.13188],[-15.56071,28.13081],[-15.5617,28.12774],[-15.5604,28.12584],[-15.56261,28.12551],[-15.56166,28.12476],[-15.56559,28.11548],[-15.56957,28.11335],[-15.57154,28.10962],[-15.57054,28.10772],[-15.57294,28.10551],[-15.57484,28.09893],[-15.57439,28.09741],[-15.57155,28.09758],[-15.57113,28.09632],[-15.57266,28.09578],[-15.57569,28.09727],[-15.57618,28.09617],[-15.57585,28.09485],[-15.57272,28.09389],[-15.5745,28.09316],[-15.57536,28.0911],[-15.57404,28.09026],[-15.57735,28.08518],[-15.57742,28.07802],[-15.57711,28.07788]]]}}]}