{"type":"FeatureCollection","features":[{"type":"Feature","properties":{"mun_code":"38045","mun_name":"Tazacorte","mun_name_local":null,"prov_code":"38","prov_name":"Santa Cruz de Tenerife","acom_code":"05","acom_name":"Canarias","geo_point_2d":{"lon":-17.92508095236527,"lat":28.624337472385893}},"geometry":{"type":"Polygon","coordinates":[[[-17.93799,28.66283],[-17.94465,28.65864],[-17.94997,28.65247],[-17.94897,28.65042],[-17.94858,28.65173],[-17.94689,28.65096],[-17.94556,28.64809],[-17.94476,28.63842],[-17.94484,28.6412],[-17.94308,28.64103],[-17.94376,28.64651],[-17.94169,28.64164],[-17.94057,28.64223],[-17.9384,28.63995],[-17.93741,28.63385],[-17.93365,28.62749],[-17.93407,28.6242],[-17.93215,28.62417],[-17.92932,28.62157],[-17.92598,28.61576],[-17.92838,28.61405],[-17.92914,28.61152],[-17.9242,28.60267],[-17.92398,28.60083],[-17.92626,28.59975],[-17.92594,28.59654],[-17.91884,28.59206],[-17.90514,28.59297],[-17.91193,28.61507],[-17.91366,28.62885],[-17.91626,28.63377],[-17.92333,28.63722],[-17.92512,28.6446],[-17.92408,28.64763],[-17.92565,28.64861],[-17.93435,28.64721],[-17.93609,28.649],[-17.94286,28.65038],[-17.93849,28.65263],[-17.93465,28.65683],[-17.9367,28.66109],[-17.93799,28.66283]]]}},{"type":"Feature","properties":{"mun_code":"38034","mun_name":"San Juan de la Rambla","mun_name_local":null,"prov_code":"38","prov_name":"Santa Cruz de Tenerife","acom_code":"05","acom_name":"Canarias","geo_point_2d":{"lon":-16.6248481016691,"lat":28.35523078466392}},"geometry":{"type":"MultiPolygon","coordinates":[[[[-16.62366,28.39587],[-16.63175,28.39595],[-16.63782,28.3942],[-16.64091,28.39777],[-16.64439,28.39854],[-16.64702,28.39613],[-16.6523,28.39648],[-16.65272,28.39212],[-16.65527,28.38862],[-16.6501,28.38205],[-16.64852,28.37209],[-16.64628,28.36929],[-16.64283,28.36806],[-16.64305,28.3658],[-16.64025,28.36398],[-16.63543,28.35686],[-16.63015,28.34163],[-16.60809,28.30687],[-16.59226,28.31466],[-16.59181,28.31595],[-16.59706,28.32546],[-16.60055,28.32811],[-16.60554,28.33598],[-16.60997,28.34627],[-16.61672,28.35325],[-16.61933,28.35759],[-16.62063,28.36512],[-16.62339,28.36717],[-16.62667,28.38835],[-16.62363,28.39555],[-16.62366,28.39587]]]]}},{"type":"Feature","properties":{"mun_code":"38023","mun_name":"San Cristóbal de La Laguna","mun_name_local":null,"prov_code":"38","prov_name":"Santa Cruz de Tenerife","acom_code":"05","acom_name":"Canarias","geo_point_2d":{"lon":-16.326316081176778,"lat":28.509878496002464}},"geometry":{"type":"MultiPolygon","coordinates":[[[[-16.27469,28.57215],[-16.2781,28.57131],[-16.28497,28.57648],[-16.28644,28.57608],[-16.2863,28.57298],[-16.29063,28.57013],[-16.29328,28.57161],[-16.29483,28.56966],[-16.29762,28.56902],[-16.29796,28.57041],[-16.30377,28.57079],[-16.3071,28.57447],[-16.31096,28.57129],[-16.31576,28.57103],[-16.31873,28.57797],[-16.323,28.57885],[-16.32909,28.57649],[-16.32913,28.57457],[-16.33356,28.57093],[-16.33153,28.5653],[-16.33389,28.55753],[-16.33692,28.55604],[-16.34429,28.55673],[-16.3497,28.55271],[-16.35407,28.55302],[-16.35442,28.54962],[-16.35676,28.55027],[-16.35781,28.54798],[-16.35962,28.54964],[-16.36268,28.54697],[-16.36384,28.54789],[-16.36546,28.54515],[-16.36823,28.54742],[-16.37281,28.54621],[-16.37636,28.54788],[-16.38007,28.54757],[-16.38069,28.54625],[-16.38317,28.54707],[-16.38419,28.54521],[-16.38544,28.54606],[-16.38678,28.54375],[-16.39514,28.54016],[-16.3956,28.53811],[-16.39768,28.53845],[-16.39872,28.53344],[-16.40205,28.53361],[-16.40354,28.53052],[-16.4107,28.52685],[-16.40564,28.52056],[-16.40002,28.50963],[-16.37467,28.49076],[-16.37247,28.47197],[-16.3771,28.47097],[-16.38338,28.45391],[-16.38296,28.45089],[-16.38048,28.45453],[-16.37744,28.45559],[-16.37623,28.46141],[-16.36845,28.46919],[-16.36283,28.46694],[-16.34953,28.46513],[-16.34436,28.46322],[-16.33951,28.45829],[-16.33054,28.45468],[-16.32641,28.45013],[-16.32126,28.45106],[-16.31521,28.45024],[-16.31226,28.44951],[-16.30934,28.44682],[-16.30485,28.44724],[-16.30095,28.44576],[-16.29905,28.44301],[-16.3008,28.44164],[-16.30067,28.43837],[-16.29647,28.43161],[-16.29417,28.43197],[-16.28991,28.46017],[-16.28214,28.46585],[-16.27029,28.49824],[-16.27185,28.50142],[-16.27796,28.50662],[-16.28449,28.50961],[-16.28645,28.51401],[-16.27974,28.52812],[-16.27911,28.53279],[-16.26894,28.53666],[-16.27003,28.538],[-16.26713,28.54355],[-16.27091,28.55056],[-16.27094,28.55314],[-16.26924,28.55519],[-16.2707,28.5558],[-16.2715,28.55983],[-16.27298,28.5602],[-16.27164,28.56234],[-16.27383,28.56327],[-16.27284,28.56686],[-16.27504,28.56986],[-16.27429,28.57149],[-16.27469,28.57215]],[[-16.32911,28.50832],[-16.33527,28.50458],[-16.33587,28.50266],[-16.34009,28.49954],[-16.35542,28.49045],[-16.35868,28.49075],[-16.3597,28.49301],[-16.36232,28.49296],[-16.36512,28.49708],[-16.37108,28.499],[-16.37298,28.50196],[-16.37172,28.50702],[-16.37203,28.51768],[-16.35111,28.52899],[-16.35206,28.53065],[-16.34939,28.53547],[-16.34414,28.54136],[-16.34135,28.54259],[-16.342,28.54506],[-16.335,28.54592],[-16.32944,28.54509],[-16.32456,28.54279],[-16.32132,28.54308],[-16.31944,28.54105],[-16.3143,28.54146],[-16.31012,28.53912],[-16.30367,28.53828],[-16.29886,28.53503],[-16.29318,28.53463],[-16.29231,28.53263],[-16.29557,28.52996],[-16.29493,28.5277],[-16.29988,28.51948],[-16.30753,28.51212],[-16.31596,28.51011],[-16.31563,28.50867],[-16.31785,28.50834],[-16.32048,28.50843],[-16.32441,28.51182],[-16.32844,28.50845],[-16.32911,28.50832]]]]}},{"type":"Feature","properties":{"mun_code":"38036","mun_name":"San Sebastián de la Gomera","mun_name_local":null,"prov_code":"38","prov_name":"Santa Cruz de Tenerife","acom_code":"05","acom_name":"Canarias","geo_point_2d":{"lon":-17.166260963880152,"lat":28.096877693819128}},"geometry":{"type":"MultiPolygon","coordinates":[[[[-17.1386,28.16051],[-17.14655,28.15151],[-17.15197,28.1474],[-17.16472,28.14889],[-17.16919,28.14819],[-17.17405,28.14336],[-17.17959,28.14401],[-17.18075,28.14226],[-17.18037,28.13816],[-17.1825,28.13547],[-17.1852,28.13518],[-17.18893,28.13144],[-17.19499,28.12879],[-17.1956,28.12704],[-17.20395,28.12387],[-17.21664,28.12172],[-17.21856,28.11797],[-17.21817,28.11171],[-17.22081,28.10808],[-17.22819,28.10953],[-17.23289,28.10675],[-17.23663,28.10739],[-17.23828,28.10635],[-17.23142,28.08755],[-17.2276,28.08301],[-17.22265,28.072],[-17.21842,28.0678],[-17.21647,28.0625],[-17.21091,28.05551],[-17.20966,28.05017],[-17.20364,28.04569],[-17.20269,28.04135],[-17.19753,28.03405],[-17.19211,28.02957],[-17.18531,28.02975],[-17.18314,28.0318],[-17.18405,28.03384],[-17.17952,28.03806],[-17.17375,28.03934],[-17.17082,28.03563],[-17.1678,28.03613],[-17.16762,28.04275],[-17.16332,28.04249],[-17.16265,28.0449],[-17.161,28.04474],[-17.1608,28.04791],[-17.15679,28.04892],[-17.15235,28.05506],[-17.14992,28.05569],[-17.1476,28.05357],[-17.14537,28.05426],[-17.14405,28.05577],[-17.14469,28.06074],[-17.14189,28.06435],[-17.12817,28.07385],[-17.12378,28.07258],[-17.11791,28.07558],[-17.11715,28.07846],[-17.1137,28.08114],[-17.11226,28.08447],[-17.11361,28.08659],[-17.11196,28.08858],[-17.10837,28.08828],[-17.10991,28.08869],[-17.1095,28.08987],[-17.10742,28.08929],[-17.10968,28.08242],[-17.10684,28.08777],[-17.10456,28.08927],[-17.10585,28.0898],[-17.10536,28.09109],[-17.09852,28.09559],[-17.09896,28.09799],[-17.1007,28.09754],[-17.10159,28.09876],[-17.10182,28.10399],[-17.10432,28.10371],[-17.10408,28.11058],[-17.10587,28.11083],[-17.10557,28.11237],[-17.10139,28.11437],[-17.10394,28.11418],[-17.10612,28.12268],[-17.10346,28.12835],[-17.10924,28.13042],[-17.1099,28.13249],[-17.11352,28.13446],[-17.11361,28.13681],[-17.11076,28.14161],[-17.11218,28.14429],[-17.11439,28.14345],[-17.11746,28.14513],[-17.1189,28.15341],[-17.12046,28.15349],[-17.12122,28.15193],[-17.12619,28.15222],[-17.12914,28.15477],[-17.13203,28.15477],[-17.13388,28.1579],[-17.13827,28.16056],[-17.1386,28.16051]]]]}},{"type":"Feature","properties":{"mun_code":"38050","mun_name":"Vallehermoso","mun_name_local":null,"prov_code":"38","prov_name":"Santa Cruz de Tenerife","acom_code":"05","acom_name":"Canarias","geo_point_2d":{"lon":-17.2844816847311,"lat":28.14241375480761}},"geometry":{"type":"MultiPolygon","coordinates":[[[[-17.23562,28.20387],[-17.23768,28.20288],[-17.23876,28.2036],[-17.24006,28.2018],[-17.24405,28.20069],[-17.24518,28.20094],[-17.24566,28.2046],[-17.24744,28.20394],[-17.2475,28.20252],[-17.24908,28.20315],[-17.249,28.20451],[-17.25151,28.20295],[-17.25297,28.20457],[-17.25226,28.20689],[-17.25398,28.20698],[-17.25256,28.20856],[-17.25387,28.21059],[-17.25648,28.21062],[-17.25784,28.21261],[-17.26046,28.21337],[-17.26058,28.21789],[-17.27083,28.21739],[-17.27322,28.21429],[-17.27617,28.21795],[-17.27855,28.21695],[-17.27857,28.21388],[-17.2812,28.21351],[-17.2818,28.21116],[-17.28332,28.21209],[-17.286,28.21035],[-17.28751,28.21266],[-17.29326,28.20715],[-17.29708,28.20697],[-17.29984,28.20831],[-17.30587,28.20337],[-17.30982,28.20234],[-17.31345,28.20252],[-17.31595,28.20439],[-17.31849,28.20375],[-17.31852,28.20118],[-17.32027,28.20135],[-17.32287,28.1977],[-17.32133,28.19459],[-17.32166,28.19157],[-17.32458,28.18854],[-17.32853,28.18798],[-17.32877,28.1845],[-17.33109,28.18325],[-17.33269,28.17991],[-17.33228,28.17802],[-17.33655,28.17471],[-17.33701,28.1727],[-17.33542,28.17009],[-17.33659,28.16597],[-17.3345,28.16304],[-17.33844,28.15999],[-17.33912,28.15685],[-17.34194,28.1559],[-17.34191,28.1539],[-17.33773,28.15168],[-17.33442,28.15252],[-17.33055,28.15162],[-17.31919,28.14302],[-17.3146,28.14464],[-17.30655,28.15158],[-17.2958,28.1501],[-17.28807,28.14647],[-17.28146,28.13852],[-17.28159,28.13634],[-17.27945,28.13338],[-17.27196,28.12959],[-17.26585,28.12879],[-17.27182,28.12676],[-17.28126,28.12754],[-17.28493,28.12618],[-17.28786,28.12311],[-17.28814,28.1188],[-17.30186,28.11296],[-17.3135,28.1044],[-17.31448,28.10245],[-17.32031,28.10024],[-17.32394,28.09498],[-17.32598,28.08905],[-17.32561,28.08398],[-17.3296,28.08089],[-17.32458,28.07998],[-17.32038,28.07575],[-17.31855,28.0699],[-17.32092,28.06494],[-17.31929,28.06356],[-17.3195,28.05876],[-17.31709,28.05999],[-17.31528,28.0575],[-17.31332,28.0571],[-17.31089,28.05252],[-17.30391,28.05146],[-17.30237,28.04911],[-17.29859,28.05005],[-17.29573,28.04753],[-17.29079,28.05805],[-17.28402,28.06171],[-17.27914,28.06666],[-17.27855,28.0692],[-17.26502,28.07723],[-17.26445,28.0812],[-17.25827,28.08535],[-17.25426,28.09079],[-17.25293,28.09622],[-17.24922,28.09756],[-17.24711,28.10483],[-17.2491,28.10814],[-17.24832,28.10995],[-17.24363,28.11153],[-17.2435,28.11515],[-17.25317,28.12663],[-17.25581,28.12572],[-17.25664,28.13153],[-17.25339,28.13383],[-17.25429,28.13713],[-17.25195,28.14334],[-17.25295,28.14492],[-17.25094,28.14841],[-17.2534,28.15108],[-17.25264,28.1539],[-17.24537,28.15733],[-17.24323,28.16183],[-17.24519,28.16306],[-17.24056,28.16772],[-17.2422,28.17205],[-17.23862,28.17394],[-17.2376,28.17767],[-17.23389,28.17892],[-17.22932,28.18518],[-17.22977,28.19042],[-17.23628,28.19692],[-17.2372,28.20038],[-17.23599,28.20312],[-17.23562,28.20387]]],[[[-17.27119,28.21761],[-17.26936,28.21837],[-17.27146,28.21791],[-17.27119,28.21761]]]]}},{"type":"Feature","properties":{"mun_code":"38024","mun_name":"Los Llanos de Aridane","mun_name_local":null,"prov_code":"38","prov_name":"Santa Cruz de Tenerife","acom_code":"05","acom_name":"Canarias","geo_point_2d":{"lon":-17.902412525592037,"lat":28.61669620201997}},"geometry":{"type":"Polygon","coordinates":[[[-17.93799,28.66283],[-17.93465,28.65683],[-17.93849,28.65263],[-17.94286,28.65038],[-17.93609,28.649],[-17.93435,28.64721],[-17.92565,28.64861],[-17.92408,28.64763],[-17.92512,28.6446],[-17.92333,28.63722],[-17.91626,28.63377],[-17.91366,28.62885],[-17.91193,28.61507],[-17.90514,28.59297],[-17.91884,28.59206],[-17.91092,28.5862],[-17.91028,28.58177],[-17.90794,28.58043],[-17.90553,28.57394],[-17.8993,28.57189],[-17.89845,28.56684],[-17.89379,28.56055],[-17.89362,28.55727],[-17.88885,28.55138],[-17.8765,28.55376],[-17.87465,28.55473],[-17.87659,28.55915],[-17.87571,28.5637],[-17.8792,28.57643],[-17.88057,28.57749],[-17.87953,28.58185],[-17.88089,28.58374],[-17.8809,28.58951],[-17.8792,28.59542],[-17.88394,28.60974],[-17.88354,28.61468],[-17.88599,28.61798],[-17.88577,28.62775],[-17.88874,28.63343],[-17.89283,28.63357],[-17.89768,28.64182],[-17.89781,28.64487],[-17.9004,28.64647],[-17.9019,28.65282],[-17.90525,28.65458],[-17.90403,28.65611],[-17.89768,28.65811],[-17.89285,28.65686],[-17.88961,28.65907],[-17.89038,28.66088],[-17.89295,28.66226],[-17.89653,28.66135],[-17.90086,28.66321],[-17.90503,28.66705],[-17.90448,28.66933],[-17.90924,28.6706],[-17.91125,28.67298],[-17.91795,28.66954],[-17.91938,28.66939],[-17.92078,28.67122],[-17.92343,28.66707],[-17.92517,28.67078],[-17.92824,28.67232],[-17.92439,28.67523],[-17.93087,28.67273],[-17.9372,28.66359],[-17.93799,28.66283]]]}},{"type":"Feature","properties":{"mun_code":"38046","mun_name":"Tegueste","mun_name_local":null,"prov_code":"38","prov_name":"Santa Cruz de Tenerife","acom_code":"05","acom_name":"Canarias","geo_point_2d":{"lon":-16.335847454456342,"lat":28.520047191817262}},"geometry":{"type":"Polygon","coordinates":[[[-16.32911,28.50832],[-16.32441,28.51182],[-16.32048,28.50843],[-16.31785,28.50834],[-16.31563,28.50867],[-16.31596,28.51011],[-16.30753,28.51212],[-16.29988,28.51948],[-16.29493,28.5277],[-16.29557,28.52996],[-16.29231,28.53263],[-16.29318,28.53463],[-16.29886,28.53503],[-16.30367,28.53828],[-16.31012,28.53912],[-16.3143,28.54146],[-16.31944,28.54105],[-16.32132,28.54308],[-16.32456,28.54279],[-16.32944,28.54509],[-16.335,28.54592],[-16.342,28.54506],[-16.34135,28.54259],[-16.34414,28.54136],[-16.34939,28.53547],[-16.35206,28.53065],[-16.35111,28.52899],[-16.37203,28.51768],[-16.37172,28.50702],[-16.37298,28.50196],[-16.37108,28.499],[-16.36537,28.49728],[-16.36232,28.49296],[-16.35943,28.49286],[-16.35789,28.49045],[-16.35493,28.49057],[-16.3496,28.49335],[-16.34784,28.49572],[-16.34009,28.49954],[-16.33587,28.50266],[-16.33527,28.50458],[-16.33008,28.50774],[-16.32911,28.50832]]]}},{"type":"Feature","properties":{"mun_code":"38048","mun_name":"Valverde","mun_name_local":null,"prov_code":"38","prov_name":"Santa Cruz de Tenerife","acom_code":"05","acom_name":"Canarias","geo_point_2d":{"lon":-17.94390753031897,"lat":27.785259863459938}},"geometry":{"type":"MultiPolygon","coordinates":[[[[-17.99208,27.82202],[-17.98413,27.81451],[-17.98337,27.81085],[-17.98076,27.809],[-17.97951,27.80375],[-17.97887,27.79368],[-17.98297,27.78355],[-17.98538,27.78102],[-17.98776,27.773],[-17.98387,27.77054],[-17.97903,27.75875],[-17.98927,27.74367],[-17.99258,27.74192],[-17.99279,27.73984],[-18.01511,27.7281],[-18.01828,27.72894],[-18.02506,27.72817],[-18.01945,27.72617],[-18.00421,27.72553],[-17.97724,27.73007],[-17.97483,27.73258],[-17.97131,27.71899],[-17.9689,27.7169],[-17.95997,27.69196],[-17.9588,27.69249],[-17.95955,27.69493],[-17.95832,27.69529],[-17.95954,27.7038],[-17.95736,27.70982],[-17.95826,27.71242],[-17.95733,27.71957],[-17.94883,27.7287],[-17.94241,27.73046],[-17.9372,27.7277],[-17.93167,27.72855],[-17.92726,27.73184],[-17.92669,27.73465],[-17.92517,27.73508],[-17.92677,27.73721],[-17.92391,27.74703],[-17.91368,27.7621],[-17.90957,27.76542],[-17.91426,27.77068],[-17.90898,27.7738],[-17.90489,27.77963],[-17.90413,27.78416],[-17.90156,27.78446],[-17.90279,27.78481],[-17.90171,27.78598],[-17.90107,27.78053],[-17.89985,27.78701],[-17.89801,27.78612],[-17.89577,27.78761],[-17.89668,27.78861],[-17.89174,27.79325],[-17.88874,27.79993],[-17.88461,27.80133],[-17.8828,27.80724],[-17.88427,27.80781],[-17.88349,27.81326],[-17.88682,27.81829],[-17.89348,27.8223],[-17.89401,27.82391],[-17.89576,27.82391],[-17.89253,27.82616],[-17.8947,27.83145],[-17.89386,27.83227],[-17.89877,27.83347],[-17.89882,27.83682],[-17.90312,27.83766],[-17.9037,27.84072],[-17.90184,27.84161],[-17.90616,27.841],[-17.90734,27.84309],[-17.90902,27.84252],[-17.90999,27.84375],[-17.91152,27.84259],[-17.91292,27.84463],[-17.91415,27.84332],[-17.91573,27.84396],[-17.91564,27.84556],[-17.91682,27.84535],[-17.91718,27.8479],[-17.92151,27.84717],[-17.92498,27.84927],[-17.92636,27.84834],[-17.9293,27.849],[-17.93012,27.84707],[-17.93355,27.84876],[-17.93583,27.84757],[-17.93697,27.84827],[-17.93775,27.84598],[-17.93999,27.84667],[-17.94314,27.84459],[-17.94605,27.84034],[-17.9579,27.84161],[-17.96001,27.83898],[-17.96306,27.83939],[-17.9637,27.83572],[-17.9655,27.83562],[-17.9651,27.83464],[-17.97156,27.82948],[-17.97253,27.82726],[-17.97687,27.82546],[-17.98277,27.82531],[-17.98378,27.8227],[-17.98819,27.8212],[-17.99176,27.82256],[-17.99208,27.82202]]]]}},{"type":"Feature","properties":{"mun_code":"38005","mun_name":"Arico","mun_name_local":null,"prov_code":"38","prov_name":"Santa Cruz de Tenerife","acom_code":"05","acom_name":"Canarias","geo_point_2d":{"lon":-16.504267187656957,"lat":28.192441009136022}},"geometry":{"type":"Polygon","coordinates":[[[-16.53765,28.28711],[-16.54226,28.28528],[-16.54645,28.28116],[-16.5445,28.27005],[-16.54616,28.26434],[-16.54926,28.263],[-16.54963,28.25741],[-16.55249,28.25069],[-16.55569,28.24823],[-16.55911,28.24758],[-16.56036,28.24437],[-16.57815,28.23621],[-16.58125,28.23127],[-16.58587,28.22835],[-16.58736,28.22527],[-16.59347,28.22007],[-16.59988,28.21818],[-16.58971,28.2044],[-16.58417,28.20111],[-16.57709,28.20024],[-16.57356,28.19599],[-16.57339,28.1938],[-16.57047,28.19215],[-16.56865,28.18687],[-16.56607,28.18558],[-16.56696,28.18379],[-16.56094,28.17434],[-16.55811,28.17455],[-16.5591,28.17314],[-16.55805,28.17162],[-16.55547,28.17135],[-16.55572,28.16898],[-16.55199,28.16787],[-16.55177,28.16555],[-16.54721,28.16412],[-16.54622,28.16188],[-16.54015,28.1596],[-16.53525,28.15574],[-16.53036,28.14812],[-16.52569,28.14366],[-16.52567,28.138],[-16.52011,28.13105],[-16.516,28.12923],[-16.5121,28.13008],[-16.5044,28.12612],[-16.50429,28.12302],[-16.49758,28.11661],[-16.49716,28.11371],[-16.49326,28.11175],[-16.49021,28.10706],[-16.48764,28.10572],[-16.48723,28.10156],[-16.48477,28.10026],[-16.48177,28.09536],[-16.48022,28.09951],[-16.47277,28.10434],[-16.47218,28.10834],[-16.46975,28.10917],[-16.46983,28.10787],[-16.46852,28.11098],[-16.46401,28.11154],[-16.46384,28.11319],[-16.46205,28.11404],[-16.46388,28.11837],[-16.46295,28.12065],[-16.46205,28.12015],[-16.45629,28.12515],[-16.45292,28.12553],[-16.44882,28.12948],[-16.44921,28.13437],[-16.44192,28.13502],[-16.44332,28.13676],[-16.4399,28.1423],[-16.43667,28.14268],[-16.43361,28.14115],[-16.43322,28.14302],[-16.43136,28.14267],[-16.43018,28.14522],[-16.42677,28.14744],[-16.42523,28.15038],[-16.4261,28.15188],[-16.42878,28.15229],[-16.42959,28.15377],[-16.43251,28.1529],[-16.43432,28.1569],[-16.43368,28.15922],[-16.43213,28.1594],[-16.43307,28.15983],[-16.43151,28.16456],[-16.42663,28.16428],[-16.42497,28.16811],[-16.43016,28.17368],[-16.42865,28.17475],[-16.42851,28.17882],[-16.42578,28.18108],[-16.42773,28.18456],[-16.42739,28.18886],[-16.42328,28.19344],[-16.42772,28.1996],[-16.43172,28.19996],[-16.43708,28.20432],[-16.4407,28.20524],[-16.44153,28.20868],[-16.44447,28.21218],[-16.44443,28.21488],[-16.44955,28.21532],[-16.4534,28.21833],[-16.4574,28.21841],[-16.47237,28.23357],[-16.47425,28.23728],[-16.48179,28.24158],[-16.48272,28.24501],[-16.50358,28.25879],[-16.51448,28.27064],[-16.53069,28.28211],[-16.53765,28.28711]]]}},{"type":"Feature","properties":{"mun_code":"38038","mun_name":"Santa Cruz de Tenerife","mun_name_local":null,"prov_code":"38","prov_name":"Santa Cruz de Tenerife","acom_code":"05","acom_name":"Canarias","geo_point_2d":{"lon":-16.225427438816336,"lat":28.517899906339867}},"geometry":{"type":"MultiPolygon","coordinates":[[[[-16.15965,28.59169],[-16.15879,28.59111],[-16.15864,28.59442],[-16.16112,28.59332],[-16.15979,28.59196],[-16.15965,28.59169]]],[[[-16.15588,28.60492],[-16.1574,28.60393],[-16.15748,28.60178],[-16.15472,28.60487],[-16.15565,28.60522],[-16.15588,28.60492]]],[[[-16.27469,28.57215],[-16.27504,28.56986],[-16.27284,28.56686],[-16.27383,28.56327],[-16.27164,28.56234],[-16.27298,28.5602],[-16.2715,28.55983],[-16.2707,28.5558],[-16.26926,28.55533],[-16.27091,28.55056],[-16.26713,28.54355],[-16.27003,28.538],[-16.26894,28.53666],[-16.27911,28.53279],[-16.27974,28.52812],[-16.28645,28.51401],[-16.28449,28.50961],[-16.27796,28.50662],[-16.27185,28.50142],[-16.27029,28.49824],[-16.28214,28.46585],[-16.28991,28.46017],[-16.29417,28.43197],[-16.29647,28.43161],[-16.30067,28.43837],[-16.3008,28.44164],[-16.29905,28.44301],[-16.30057,28.44555],[-16.30485,28.44724],[-16.30934,28.44682],[-16.31226,28.44951],[-16.31521,28.45024],[-16.32126,28.45106],[-16.32641,28.45013],[-16.33054,28.45468],[-16.33033,28.44845],[-16.33157,28.44628],[-16.34265,28.43117],[-16.34532,28.4294],[-16.33853,28.424],[-16.33624,28.41914],[-16.33285,28.41909],[-16.32873,28.4166],[-16.32038,28.41795],[-16.31951,28.42076],[-16.30918,28.41245],[-16.30755,28.40978],[-16.30498,28.41285],[-16.30073,28.41434],[-16.29643,28.42002],[-16.29399,28.42065],[-16.29358,28.42437],[-16.29181,28.42658],[-16.27723,28.43706],[-16.26978,28.44735],[-16.26609,28.44972],[-16.26478,28.45001],[-16.26451,28.44867],[-16.26446,28.45001],[-16.26021,28.45186],[-16.25401,28.45049],[-16.2527,28.45531],[-16.249,28.45453],[-16.24644,28.4629],[-16.24748,28.46332],[-16.24533,28.46523],[-16.24368,28.46446],[-16.24488,28.46763],[-16.24277,28.46807],[-16.24226,28.466],[-16.24704,28.45568],[-16.24196,28.46597],[-16.24267,28.46925],[-16.23565,28.47904],[-16.24342,28.46906],[-16.24447,28.4707],[-16.24486,28.46943],[-16.24633,28.4695],[-16.24624,28.47102],[-16.24074,28.47913],[-16.2406,28.47788],[-16.24047,28.48076],[-16.23885,28.48152],[-16.23721,28.48545],[-16.23394,28.48656],[-16.22918,28.48493],[-16.2301,28.48577],[-16.22701,28.48909],[-16.21967,28.48944],[-16.21978,28.48782],[-16.22834,28.48289],[-16.21895,28.48793],[-16.21466,28.49293],[-16.21313,28.49169],[-16.2139,28.49346],[-16.20272,28.49907],[-16.20195,28.49789],[-16.21111,28.49289],[-16.20513,28.49581],[-16.19576,28.49649],[-16.19525,28.49985],[-16.19249,28.50322],[-16.18822,28.50451],[-16.18913,28.50563],[-16.18636,28.50868],[-16.18128,28.51031],[-16.17942,28.50945],[-16.1805,28.50817],[-16.17299,28.51545],[-16.15641,28.52273],[-16.15117,28.52326],[-16.1433,28.52141],[-16.14319,28.52473],[-16.1385,28.52704],[-16.13976,28.52891],[-16.13783,28.5325],[-16.13069,28.53528],[-16.1257,28.53207],[-16.12589,28.53432],[-16.12957,28.53647],[-16.12663,28.54369],[-16.1276,28.54601],[-16.12662,28.54823],[-16.12093,28.5514],[-16.11968,28.55347],[-16.12082,28.5589],[-16.11992,28.55942],[-16.12292,28.55967],[-16.124,28.56098],[-16.12285,28.56159],[-16.12558,28.56188],[-16.12478,28.56341],[-16.12683,28.56376],[-16.1256,28.56765],[-16.12719,28.57146],[-16.13182,28.57482],[-16.13411,28.574],[-16.13518,28.57726],[-16.13396,28.58028],[-16.13626,28.5817],[-16.13612,28.58291],[-16.14739,28.58499],[-16.15048,28.58742],[-16.15403,28.58673],[-16.15811,28.58866],[-16.16815,28.58406],[-16.17223,28.58519],[-16.17442,28.58197],[-16.17988,28.58058],[-16.18055,28.57864],[-16.18484,28.57598],[-16.19022,28.57524],[-16.19272,28.57208],[-16.19985,28.57268],[-16.20451,28.57114],[-16.20636,28.56847],[-16.21695,28.56797],[-16.22301,28.56545],[-16.23343,28.5667],[-16.24318,28.57173],[-16.2481,28.57052],[-16.25157,28.57133],[-16.25706,28.56938],[-16.2614,28.57317],[-16.26756,28.57409],[-16.27209,28.57789],[-16.27375,28.57757],[-16.27216,28.57516],[-16.27441,28.57209],[-16.27469,28.57215]]]]}},{"type":"Feature","properties":{"mun_code":"38037","mun_name":"Santa Cruz de la Palma","mun_name_local":null,"prov_code":"38","prov_name":"Santa Cruz de Tenerife","acom_code":"05","acom_name":"Canarias","geo_point_2d":{"lon":-17.799968933757643,"lat":28.707543795129364}},"geometry":{"type":"Polygon","coordinates":[[[-17.83558,28.73468],[-17.83566,28.72697],[-17.83845,28.7238],[-17.83768,28.71808],[-17.83849,28.71617],[-17.8433,28.713],[-17.84609,28.70414],[-17.83732,28.69575],[-17.83358,28.68796],[-17.82265,28.68755],[-17.8202,28.68553],[-17.8073,28.68145],[-17.80344,28.67732],[-17.79606,28.67575],[-17.78667,28.67938],[-17.7798,28.6866],[-17.77173,28.68676],[-17.76946,28.68525],[-17.77325,28.67868],[-17.77334,28.67607],[-17.76849,28.67581],[-17.76874,28.67732],[-17.76638,28.67932],[-17.76618,28.67812],[-17.76795,28.67781],[-17.76589,28.67764],[-17.7639,28.6712],[-17.76562,28.68016],[-17.75959,28.6872],[-17.75915,28.69719],[-17.75227,28.7051],[-17.75728,28.70996],[-17.75905,28.71652],[-17.76155,28.71737],[-17.76394,28.72251],[-17.78437,28.73258],[-17.79261,28.7315],[-17.80046,28.73704],[-17.80833,28.73689],[-17.81659,28.73927],[-17.82202,28.7347],[-17.83109,28.73439],[-17.83558,28.73468]]]}},{"type":"Feature","properties":{"mun_code":"38008","mun_name":"Breña Alta","mun_name_local":null,"prov_code":"38","prov_name":"Santa Cruz de Tenerife","acom_code":"05","acom_name":"Canarias","geo_point_2d":{"lon":-17.80317880950072,"lat":28.656489871504487}},"geometry":{"type":"Polygon","coordinates":[[[-17.83452,28.61459],[-17.82902,28.61821],[-17.81147,28.6208],[-17.79828,28.63124],[-17.79729,28.63583],[-17.78411,28.64289],[-17.78426,28.64443],[-17.7812,28.64505],[-17.77783,28.6481],[-17.77556,28.65524],[-17.76968,28.65817],[-17.77012,28.66068],[-17.76616,28.66439],[-17.76817,28.66798],[-17.76739,28.66935],[-17.7688,28.66978],[-17.76849,28.67581],[-17.77334,28.67607],[-17.77325,28.67868],[-17.76946,28.68525],[-17.77511,28.68723],[-17.7798,28.6866],[-17.78667,28.67938],[-17.79606,28.67575],[-17.80344,28.67732],[-17.8073,28.68145],[-17.8202,28.68553],[-17.82265,28.68755],[-17.83358,28.68796],[-17.82969,28.68201],[-17.83023,28.67666],[-17.82758,28.67197],[-17.82646,28.66613],[-17.82461,28.64105],[-17.82699,28.63016],[-17.83212,28.62327],[-17.83504,28.61565],[-17.83452,28.61459]]]}},{"type":"Feature","properties":{"mun_code":"38025","mun_name":"La Matanza de Acentejo","mun_name_local":null,"prov_code":"38","prov_name":"Santa Cruz de Tenerife","acom_code":"05","acom_name":"Canarias","geo_point_2d":{"lon":-16.442170014329513,"lat":28.440749219557752}},"geometry":{"type":"Polygon","coordinates":[[[-16.45525,28.46594],[-16.45495,28.4621],[-16.4566,28.45943],[-16.4596,28.45785],[-16.46375,28.45938],[-16.46444,28.45842],[-16.46598,28.45991],[-16.46741,28.45527],[-16.47347,28.45495],[-16.47416,28.45304],[-16.46997,28.44876],[-16.47304,28.44486],[-16.47484,28.44529],[-16.47437,28.44327],[-16.45199,28.43551],[-16.44605,28.43102],[-16.43973,28.42841],[-16.4319,28.42652],[-16.42727,28.42673],[-16.42361,28.42499],[-16.41679,28.41585],[-16.41921,28.4092],[-16.40893,28.41414],[-16.40877,28.41911],[-16.41247,28.42346],[-16.41612,28.43227],[-16.4202,28.43738],[-16.42637,28.44132],[-16.42941,28.44847],[-16.44467,28.45608],[-16.45002,28.46323],[-16.45406,28.46549],[-16.45525,28.46594]]]}},{"type":"Feature","properties":{"mun_code":"38002","mun_name":"Agulo","mun_name_local":null,"prov_code":"38","prov_name":"Santa Cruz de Tenerife","acom_code":"05","acom_name":"Canarias","geo_point_2d":{"lon":-17.22507359586352,"lat":28.168715117277067}},"geometry":{"type":"MultiPolygon","coordinates":[[[[-17.23562,28.20387],[-17.2372,28.20038],[-17.23628,28.19692],[-17.22977,28.19042],[-17.22932,28.18518],[-17.23389,28.17892],[-17.2376,28.17767],[-17.23862,28.17394],[-17.2422,28.17205],[-17.24056,28.16772],[-17.24519,28.16306],[-17.24323,28.16183],[-17.24537,28.15733],[-17.25264,28.1539],[-17.2534,28.15108],[-17.25094,28.14841],[-17.25295,28.14492],[-17.25195,28.14334],[-17.25429,28.13713],[-17.25339,28.13383],[-17.25664,28.13153],[-17.25581,28.12572],[-17.25317,28.12663],[-17.2435,28.11515],[-17.24009,28.12219],[-17.2399,28.1249],[-17.24133,28.12605],[-17.23743,28.13109],[-17.23855,28.13564],[-17.23713,28.1394],[-17.2348,28.1433],[-17.22421,28.15255],[-17.21518,28.16593],[-17.20363,28.17386],[-17.19748,28.17487],[-17.19176,28.18221],[-17.18433,28.18144],[-17.18581,28.18813],[-17.19288,28.19328],[-17.19364,28.19738],[-17.19685,28.19804],[-17.19621,28.20007],[-17.19866,28.19929],[-17.2014,28.20066],[-17.20168,28.19931],[-17.20448,28.19885],[-17.20631,28.19689],[-17.20752,28.1983],[-17.20906,28.19784],[-17.2109,28.2021],[-17.21545,28.19965],[-17.21751,28.20167],[-17.21997,28.20058],[-17.22283,28.20202],[-17.22592,28.20003],[-17.22955,28.20287],[-17.23329,28.20046],[-17.23543,28.20368],[-17.23562,28.20387]]]]}},{"type":"Feature","properties":{"mun_code":"38022","mun_name":"Icod de los Vinos","mun_name_local":null,"prov_code":"38","prov_name":"Santa Cruz de Tenerife","acom_code":"05","acom_name":"Canarias","geo_point_2d":{"lon":-16.69345611061039,"lat":28.330765269151737}},"geometry":{"type":"MultiPolygon","coordinates":[[[[-16.684,28.39127],[-16.68801,28.39285],[-16.69316,28.39271],[-16.69273,28.39497],[-16.69397,28.3959],[-16.69503,28.39448],[-16.69463,28.38723],[-16.69927,28.38634],[-16.70144,28.38356],[-16.70934,28.38326],[-16.71274,28.38509],[-16.7132,28.38389],[-16.71883,28.38775],[-16.72009,28.38746],[-16.72024,28.38379],[-16.7242,28.38331],[-16.72247,28.38096],[-16.72579,28.37966],[-16.72382,28.37815],[-16.72595,28.37645],[-16.72876,28.37781],[-16.73093,28.37718],[-16.73227,28.38221],[-16.73431,28.38235],[-16.7359,28.37975],[-16.73854,28.38061],[-16.73738,28.36823],[-16.73935,28.36837],[-16.74016,28.3653],[-16.74001,28.35532],[-16.73842,28.35426],[-16.74194,28.3511],[-16.74453,28.34594],[-16.73328,28.30506],[-16.72859,28.30131],[-16.7275,28.29554],[-16.71916,28.2865],[-16.70072,28.27144],[-16.67733,28.26887],[-16.67464,28.27109],[-16.66933,28.29268],[-16.64073,28.29988],[-16.6328,28.30669],[-16.63412,28.30825],[-16.63327,28.31514],[-16.6384,28.32141],[-16.63903,28.32531],[-16.64178,28.32826],[-16.64413,28.33417],[-16.6437,28.33616],[-16.65369,28.34283],[-16.65672,28.34704],[-16.65632,28.3518],[-16.66166,28.36037],[-16.66137,28.36253],[-16.66359,28.36635],[-16.66743,28.36817],[-16.67371,28.37498],[-16.67319,28.37754],[-16.67486,28.38077],[-16.68332,28.38921],[-16.684,28.39127]]]]}},{"type":"Feature","properties":{"mun_code":"38014","mun_name":"Fuencaliente de la Palma","mun_name_local":null,"prov_code":"38","prov_name":"Santa Cruz de Tenerife","acom_code":"05","acom_name":"Canarias","geo_point_2d":{"lon":-17.846302440231568,"lat":28.50870082048059}},"geometry":{"type":"MultiPolygon","coordinates":[[[[-17.87465,28.55473],[-17.88765,28.55147],[-17.88422,28.54874],[-17.88308,28.54151],[-17.88004,28.54019],[-17.87877,28.52782],[-17.87753,28.52617],[-17.8801,28.52562],[-17.87849,28.52316],[-17.87525,28.52162],[-17.87639,28.51701],[-17.87497,28.51461],[-17.8769,28.51357],[-17.87462,28.51237],[-17.87468,28.50939],[-17.87725,28.50746],[-17.87611,28.507],[-17.87685,28.5046],[-17.87578,28.50336],[-17.87681,28.50121],[-17.87442,28.49649],[-17.87612,28.49478],[-17.87323,28.4917],[-17.87461,28.49068],[-17.87297,28.4905],[-17.87231,28.48778],[-17.86813,28.48384],[-17.87074,28.48115],[-17.86791,28.47812],[-17.86848,28.47324],[-17.86445,28.46788],[-17.85828,28.46401],[-17.85775,28.46138],[-17.85458,28.45862],[-17.8519,28.45896],[-17.84873,28.45652],[-17.84443,28.45595],[-17.84224,28.45263],[-17.84055,28.45282],[-17.83253,28.45791],[-17.83153,28.46556],[-17.82518,28.47332],[-17.82441,28.47788],[-17.82213,28.48086],[-17.82274,28.48227],[-17.8213,28.4833],[-17.82173,28.48509],[-17.82025,28.48515],[-17.82142,28.48665],[-17.81789,28.48986],[-17.81711,28.49463],[-17.81414,28.49872],[-17.80861,28.50203],[-17.8059,28.50685],[-17.8063,28.5085],[-17.80432,28.50995],[-17.80346,28.51298],[-17.80091,28.51449],[-17.80039,28.51807],[-17.79691,28.5183],[-17.80515,28.52565],[-17.81471,28.52947],[-17.84032,28.53655],[-17.83906,28.55339],[-17.83404,28.55433],[-17.83535,28.55723],[-17.83403,28.56143],[-17.83625,28.56179],[-17.83886,28.55526],[-17.85261,28.55385],[-17.87284,28.55447],[-17.87465,28.55473]]]]}},{"type":"Feature","properties":{"mun_code":"38033","mun_name":"San Andrés y Sauces","mun_name_local":null,"prov_code":"38","prov_name":"Santa Cruz de Tenerife","acom_code":"05","acom_name":"Canarias","geo_point_2d":{"lon":-17.79920487129599,"lat":28.776521660433655}},"geometry":{"type":"Polygon","coordinates":[[[-17.85334,28.75419],[-17.84966,28.75018],[-17.83926,28.74639],[-17.83824,28.74361],[-17.83006,28.74721],[-17.82574,28.74523],[-17.81161,28.74568],[-17.79628,28.75245],[-17.78972,28.75261],[-17.78811,28.75093],[-17.78536,28.75262],[-17.78166,28.75593],[-17.77814,28.76311],[-17.77498,28.76237],[-17.77185,28.76439],[-17.77179,28.76655],[-17.76133,28.77039],[-17.75879,28.77422],[-17.75848,28.77883],[-17.75343,28.78261],[-17.75565,28.78521],[-17.75454,28.78622],[-17.75792,28.78724],[-17.75709,28.78971],[-17.75839,28.79195],[-17.75912,28.80416],[-17.76163,28.80556],[-17.76115,28.80778],[-17.76358,28.81036],[-17.76219,28.81127],[-17.7655,28.81126],[-17.76533,28.81502],[-17.76848,28.81595],[-17.76976,28.81919],[-17.7757,28.81507],[-17.77581,28.81277],[-17.77815,28.81277],[-17.78042,28.80938],[-17.78252,28.81001],[-17.78298,28.80854],[-17.78941,28.80637],[-17.78947,28.80436],[-17.79389,28.80276],[-17.79786,28.804],[-17.8111,28.79955],[-17.81025,28.7982],[-17.81452,28.79498],[-17.81303,28.7934],[-17.82293,28.79012],[-17.82578,28.78367],[-17.82943,28.78184],[-17.84033,28.77062],[-17.84323,28.76541],[-17.85326,28.75471],[-17.85334,28.75419]]]}},{"type":"Feature","properties":{"mun_code":"38042","mun_name":"Los Silos","mun_name_local":null,"prov_code":"38","prov_name":"Santa Cruz de Tenerife","acom_code":"05","acom_name":"Canarias","geo_point_2d":{"lon":-16.81652559719987,"lat":28.35198625497476}},"geometry":{"type":"Polygon","coordinates":[[[-16.79367,28.37486],[-16.7947,28.37676],[-16.79929,28.37781],[-16.80265,28.37668],[-16.80454,28.37892],[-16.80657,28.37621],[-16.80912,28.37635],[-16.81447,28.37959],[-16.81492,28.38204],[-16.817,28.3817],[-16.81747,28.38353],[-16.82105,28.38447],[-16.82105,28.38615],[-16.8233,28.38804],[-16.82529,28.38702],[-16.82595,28.39216],[-16.8275,28.39211],[-16.82802,28.39355],[-16.83039,28.39236],[-16.83475,28.36606],[-16.83322,28.35784],[-16.83555,28.3529],[-16.83371,28.3479],[-16.83442,28.33663],[-16.83212,28.33241],[-16.83094,28.3253],[-16.82923,28.32455],[-16.82654,28.31907],[-16.82488,28.31879],[-16.82487,28.31682],[-16.81574,28.31203],[-16.81006,28.31146],[-16.80726,28.31354],[-16.80919,28.31828],[-16.80805,28.32422],[-16.80255,28.33302],[-16.79628,28.34881],[-16.79348,28.35223],[-16.7971,28.37144],[-16.7938,28.37447],[-16.79367,28.37486]]]}},{"type":"Feature","properties":{"mun_code":"38044","mun_name":"El Tanque","mun_name_local":null,"prov_code":"38","prov_name":"Santa Cruz de Tenerife","acom_code":"05","acom_name":"Canarias","geo_point_2d":{"lon":-16.78070099820647,"lat":28.33125481762727}},"geometry":{"type":"Polygon","coordinates":[[[-16.80726,28.31354],[-16.80327,28.31488],[-16.79341,28.31173],[-16.76567,28.29734],[-16.75623,28.29429],[-16.74368,28.28798],[-16.7575,28.30264],[-16.76409,28.31607],[-16.7681,28.33253],[-16.7649,28.35314],[-16.76707,28.36856],[-16.77302,28.3696],[-16.77964,28.36783],[-16.77931,28.36552],[-16.78231,28.36147],[-16.78923,28.35968],[-16.79313,28.36482],[-16.79574,28.36568],[-16.79332,28.3529],[-16.7995,28.34218],[-16.80533,28.32758],[-16.80805,28.32422],[-16.80919,28.31828],[-16.80721,28.31373],[-16.80726,28.31354]]]}},{"type":"Feature","properties":{"mun_code":"38041","mun_name":"El Sauzal","mun_name_local":null,"prov_code":"38","prov_name":"Santa Cruz de Tenerife","acom_code":"05","acom_name":"Canarias","geo_point_2d":{"lon":-16.423962172633626,"lat":28.45611722812443}},"geometry":{"type":"MultiPolygon","coordinates":[[[[-16.43059,28.48737],[-16.43818,28.48156],[-16.44437,28.48026],[-16.44323,28.47705],[-16.44496,28.47456],[-16.4466,28.4743],[-16.44713,28.47543],[-16.44805,28.47425],[-16.45128,28.47687],[-16.44959,28.4729],[-16.45582,28.4696],[-16.45674,28.46738],[-16.45002,28.46323],[-16.44467,28.45608],[-16.42941,28.44847],[-16.42637,28.44132],[-16.4202,28.43738],[-16.41612,28.43227],[-16.41247,28.42346],[-16.40877,28.41911],[-16.40893,28.41414],[-16.4069,28.41453],[-16.40632,28.42048],[-16.40423,28.42442],[-16.39626,28.42999],[-16.40634,28.44963],[-16.41045,28.46266],[-16.40954,28.46317],[-16.41874,28.47763],[-16.42669,28.48251],[-16.43031,28.48731],[-16.43059,28.48737]]]]}},{"type":"Feature","properties":{"mun_code":"38901","mun_name":"El Pinar de El Hierro","mun_name_local":null,"prov_code":"38","prov_name":"Santa Cruz de Tenerife","acom_code":"05","acom_name":"Canarias","geo_point_2d":{"lon":-18.025204239447767,"lat":27.6959608388515}},"geometry":{"type":"MultiPolygon","coordinates":[[[[-18.02484,27.7275],[-18.0452,27.72943],[-18.0493,27.72609],[-18.05352,27.72486],[-18.06541,27.72619],[-18.11546,27.71652],[-18.15732,27.71126],[-18.15048,27.70801],[-18.14593,27.70384],[-18.13776,27.70318],[-18.13297,27.70475],[-18.12472,27.70522],[-18.10748,27.70076],[-18.09932,27.70121],[-18.0852,27.69725],[-18.07231,27.69714],[-18.05058,27.69271],[-18.03777,27.68623],[-18.03151,27.67922],[-18.02883,27.67875],[-18.02789,27.67247],[-18.02897,27.67189],[-18.02647,27.67002],[-18.02516,27.67081],[-18.0228,27.66901],[-18.02344,27.66839],[-18.02052,27.66719],[-18.0196,27.6609],[-18.0093,27.64936],[-17.99832,27.64656],[-17.99614,27.64479],[-17.99574,27.64089],[-17.99169,27.63888],[-17.98362,27.63823],[-17.98436,27.63937],[-17.98147,27.63941],[-17.98095,27.64071],[-17.97952,27.63947],[-17.98179,27.63851],[-17.9781,27.63946],[-17.97036,27.64843],[-17.97236,27.67205],[-17.96661,27.67936],[-17.96705,27.68482],[-17.96443,27.68985],[-17.96066,27.69256],[-17.9689,27.7169],[-17.97131,27.71899],[-17.97483,27.73258],[-17.97724,27.73007],[-18.00421,27.72553],[-18.02475,27.7272],[-18.02484,27.7275]]]]}},{"type":"Feature","properties":{"mun_code":"38001","mun_name":"Adeje","mun_name_local":null,"prov_code":"38","prov_name":"Santa Cruz de Tenerife","acom_code":"05","acom_name":"Canarias","geo_point_2d":{"lon":-16.724130955217888,"lat":28.14002466295514}},"geometry":{"type":"MultiPolygon","coordinates":[[[[-16.6807,28.21278],[-16.68276,28.2093],[-16.69741,28.20134],[-16.70016,28.19689],[-16.70665,28.1921],[-16.71124,28.18573],[-16.71864,28.18232],[-16.72039,28.17875],[-16.7261,28.17838],[-16.7287,28.17583],[-16.7332,28.17549],[-16.74719,28.16771],[-16.75236,28.16689],[-16.7598,28.16766],[-16.76985,28.16365],[-16.7788,28.16377],[-16.788,28.16043],[-16.79294,28.16069],[-16.79597,28.1585],[-16.80238,28.15673],[-16.80198,28.15498],[-16.79874,28.15274],[-16.799,28.14973],[-16.79756,28.1467],[-16.79469,28.14476],[-16.79519,28.14277],[-16.79405,28.143],[-16.79357,28.14016],[-16.78864,28.13727],[-16.78772,28.1344],[-16.78669,28.13454],[-16.78651,28.13031],[-16.78394,28.12846],[-16.78388,28.1263],[-16.78178,28.12716],[-16.78015,28.1214],[-16.77807,28.12164],[-16.77905,28.11974],[-16.77584,28.11952],[-16.77732,28.11884],[-16.77694,28.11728],[-16.77439,28.11825],[-16.77302,28.11297],[-16.7684,28.11368],[-16.76925,28.10962],[-16.76312,28.11017],[-16.7606,28.10764],[-16.76172,28.10473],[-16.75815,28.10517],[-16.75936,28.10127],[-16.75553,28.10068],[-16.75631,28.09864],[-16.75255,28.09843],[-16.74978,28.09275],[-16.74845,28.09341],[-16.74305,28.0894],[-16.74058,28.08984],[-16.74048,28.08751],[-16.73892,28.08804],[-16.73629,28.08337],[-16.73746,28.08234],[-16.73666,28.0802],[-16.7356,28.08006],[-16.73721,28.07898],[-16.73598,28.07815],[-16.73685,28.07719],[-16.7379,28.08018],[-16.73804,28.07779],[-16.73278,28.07274],[-16.73379,28.07175],[-16.73422,28.07251],[-16.73273,28.06932],[-16.7342,28.06837],[-16.73478,28.06931],[-16.73345,28.06704],[-16.7297,28.06738],[-16.7268,28.0654],[-16.72518,28.06762],[-16.72199,28.06617],[-16.71472,28.07296],[-16.711,28.07536],[-16.70944,28.07511],[-16.7047,28.0835],[-16.69901,28.0848],[-16.69117,28.09583],[-16.6904,28.10525],[-16.69164,28.1079],[-16.68428,28.11939],[-16.68691,28.12237],[-16.68739,28.12981],[-16.68896,28.13039],[-16.68744,28.13915],[-16.67964,28.15291],[-16.67807,28.15916],[-16.67442,28.16492],[-16.67445,28.16792],[-16.66832,28.17427],[-16.66042,28.2013],[-16.66358,28.20571],[-16.67431,28.2083],[-16.67949,28.21274],[-16.6807,28.21278]]]]}},{"type":"Feature","properties":{"mun_code":"38009","mun_name":"Breña Baja","mun_name_local":null,"prov_code":"38","prov_name":"Santa Cruz de Tenerife","acom_code":"05","acom_name":"Canarias","geo_point_2d":{"lon":-17.790558236774864,"lat":28.63125926063052}},"geometry":{"type":"MultiPolygon","coordinates":[[[[-17.83452,28.61459],[-17.83406,28.61152],[-17.83696,28.60839],[-17.83699,28.60626],[-17.841,28.60436],[-17.83935,28.59963],[-17.84048,28.59642],[-17.83171,28.59847],[-17.82351,28.6081],[-17.81852,28.60965],[-17.81235,28.61444],[-17.80319,28.61698],[-17.80148,28.61944],[-17.79347,28.62236],[-17.79099,28.62618],[-17.78324,28.62872],[-17.78289,28.63025],[-17.77877,28.63223],[-17.77075,28.63197],[-17.76799,28.63351],[-17.76182,28.63082],[-17.75359,28.63056],[-17.75449,28.6375],[-17.75681,28.6377],[-17.75794,28.63995],[-17.75656,28.64071],[-17.7577,28.64285],[-17.75636,28.64308],[-17.75782,28.64442],[-17.7556,28.64653],[-17.75643,28.64947],[-17.76135,28.65374],[-17.76012,28.65449],[-17.76202,28.65503],[-17.75996,28.65723],[-17.7617,28.66059],[-17.76282,28.66052],[-17.76153,28.6624],[-17.76367,28.66216],[-17.76616,28.66439],[-17.77012,28.66068],[-17.76968,28.65817],[-17.77556,28.65524],[-17.77783,28.6481],[-17.7812,28.64505],[-17.78426,28.64443],[-17.78411,28.64289],[-17.79729,28.63583],[-17.79828,28.63124],[-17.81147,28.6208],[-17.82902,28.61821],[-17.83398,28.61567],[-17.83452,28.61459]]]]}},{"type":"Feature","properties":{"mun_code":"38018","mun_name":"La Guancha","mun_name_local":null,"prov_code":"38","prov_name":"Santa Cruz de Tenerife","acom_code":"05","acom_name":"Canarias","geo_point_2d":{"lon":-16.646302814508676,"lat":28.35306498203689}},"geometry":{"type":"Polygon","coordinates":[[[-16.65232,28.39621],[-16.65775,28.39915],[-16.65838,28.40152],[-16.65898,28.40039],[-16.66091,28.4012],[-16.66214,28.3986],[-16.66427,28.40008],[-16.66591,28.39894],[-16.66714,28.40115],[-16.66795,28.39981],[-16.66955,28.40096],[-16.67093,28.39889],[-16.67376,28.4018],[-16.67307,28.40063],[-16.67545,28.40072],[-16.67345,28.39798],[-16.67565,28.39912],[-16.67698,28.39799],[-16.67565,28.39668],[-16.67738,28.39696],[-16.67546,28.39462],[-16.67652,28.39307],[-16.68104,28.39039],[-16.684,28.39127],[-16.68293,28.38838],[-16.68021,28.38704],[-16.67899,28.38407],[-16.67486,28.38077],[-16.67319,28.37754],[-16.67371,28.37498],[-16.66743,28.36817],[-16.66359,28.36635],[-16.66137,28.36253],[-16.66166,28.36037],[-16.65632,28.3518],[-16.65672,28.34704],[-16.65267,28.34163],[-16.6437,28.33616],[-16.64413,28.33417],[-16.64178,28.32826],[-16.63903,28.32531],[-16.6384,28.32141],[-16.63327,28.31514],[-16.63412,28.30825],[-16.6328,28.30669],[-16.64087,28.29985],[-16.60809,28.30687],[-16.63015,28.34163],[-16.63543,28.35686],[-16.64025,28.36398],[-16.64305,28.3658],[-16.64283,28.36806],[-16.64628,28.36929],[-16.64852,28.37209],[-16.6501,28.38205],[-16.65527,28.38862],[-16.653,28.39147],[-16.65199,28.39594],[-16.65232,28.39621]]]}},{"type":"Feature","properties":{"mun_code":"38011","mun_name":"Candelaria","mun_name_local":null,"prov_code":"38","prov_name":"Santa Cruz de Tenerife","acom_code":"05","acom_name":"Canarias","geo_point_2d":{"lon":-16.392656523060925,"lat":28.381217948702144}},"geometry":{"type":"Polygon","coordinates":[[[-16.44546,28.39062],[-16.44751,28.38643],[-16.44659,28.38303],[-16.44383,28.38268],[-16.42931,28.37257],[-16.42265,28.36549],[-16.41721,28.36279],[-16.41496,28.35899],[-16.41146,28.35721],[-16.41,28.35334],[-16.40757,28.35329],[-16.40654,28.35087],[-16.40126,28.34927],[-16.39847,28.34583],[-16.39243,28.34556],[-16.39409,28.34418],[-16.39337,28.34296],[-16.38712,28.34169],[-16.38466,28.33941],[-16.38008,28.34063],[-16.37285,28.34034],[-16.37027,28.33887],[-16.36633,28.33967],[-16.36708,28.34505],[-16.36898,28.34644],[-16.36813,28.34937],[-16.36973,28.35442],[-16.36894,28.35755],[-16.3677,28.35726],[-16.36804,28.35613],[-16.36737,28.35716],[-16.36687,28.36025],[-16.36574,28.36119],[-16.36522,28.35963],[-16.36369,28.36194],[-16.36423,28.36458],[-16.36113,28.36871],[-16.36168,28.37594],[-16.36004,28.37723],[-16.36106,28.37863],[-16.35937,28.38024],[-16.35705,28.38009],[-16.35484,28.38371],[-16.34721,28.38672],[-16.34429,28.39154],[-16.33737,28.39627],[-16.34377,28.39938],[-16.35691,28.40056],[-16.3671,28.40614],[-16.3675,28.40902],[-16.37939,28.41376],[-16.3869,28.41421],[-16.39145,28.41221],[-16.3979,28.41146],[-16.40264,28.41489],[-16.40863,28.41428],[-16.41746,28.40932],[-16.42158,28.40855],[-16.42476,28.40291],[-16.42509,28.39958],[-16.42361,28.39809],[-16.42467,28.39658],[-16.4339,28.39496],[-16.44491,28.39045],[-16.44546,28.39062]]]}},{"type":"Feature","properties":{"mun_code":"38017","mun_name":"Granadilla de Abona","mun_name_local":null,"prov_code":"38","prov_name":"Santa Cruz de Tenerife","acom_code":"05","acom_name":"Canarias","geo_point_2d":{"lon":-16.563934875097317,"lat":28.112072236061746}},"geometry":{"type":"Polygon","coordinates":[[[-16.61853,28.21373],[-16.6199,28.20115],[-16.61471,28.19583],[-16.61338,28.18725],[-16.61407,28.17613],[-16.61122,28.17124],[-16.61643,28.1592],[-16.61269,28.15237],[-16.6166,28.14622],[-16.61944,28.14604],[-16.62112,28.14395],[-16.62154,28.13887],[-16.62007,28.13419],[-16.61245,28.12629],[-16.61272,28.12374],[-16.61086,28.12295],[-16.61202,28.12099],[-16.61044,28.11854],[-16.61205,28.11788],[-16.61084,28.11295],[-16.60859,28.11181],[-16.60701,28.108],[-16.60323,28.10567],[-16.60072,28.10029],[-16.60159,28.09517],[-16.59974,28.0937],[-16.60108,28.09285],[-16.60035,28.09162],[-16.60392,28.08287],[-16.60371,28.07234],[-16.60174,28.0677],[-16.60597,28.06129],[-16.60666,28.05139],[-16.60528,28.04967],[-16.6069,28.04577],[-16.60076,28.03931],[-16.59727,28.02799],[-16.5954,28.02926],[-16.59173,28.0275],[-16.58736,28.02958],[-16.57858,28.02925],[-16.57128,28.03119],[-16.56641,28.02908],[-16.55726,28.03128],[-16.55172,28.02974],[-16.55079,28.02612],[-16.54653,28.0249],[-16.54136,28.02896],[-16.53975,28.033],[-16.54312,28.03658],[-16.54132,28.04185],[-16.53709,28.04405],[-16.53491,28.04285],[-16.53552,28.04208],[-16.53431,28.04268],[-16.53226,28.04898],[-16.52586,28.05017],[-16.5226,28.05279],[-16.52064,28.05953],[-16.51797,28.06036],[-16.51561,28.05941],[-16.51597,28.06187],[-16.51376,28.06325],[-16.51478,28.06389],[-16.51193,28.06532],[-16.51043,28.06477],[-16.50681,28.06769],[-16.50677,28.07095],[-16.50311,28.07696],[-16.49923,28.07762],[-16.49448,28.06974],[-16.49642,28.07169],[-16.49522,28.07277],[-16.49616,28.07262],[-16.49707,28.07815],[-16.4935,28.07886],[-16.49162,28.07701],[-16.49033,28.07867],[-16.48994,28.07755],[-16.48824,28.07864],[-16.48642,28.07731],[-16.49134,28.08166],[-16.49008,28.08499],[-16.49103,28.0858],[-16.48919,28.08481],[-16.49111,28.0876],[-16.4884,28.09164],[-16.48418,28.09306],[-16.48197,28.09593],[-16.48477,28.10026],[-16.48723,28.10156],[-16.48764,28.10572],[-16.49021,28.10706],[-16.49326,28.11175],[-16.49716,28.11371],[-16.49758,28.11661],[-16.50429,28.12302],[-16.5044,28.12612],[-16.5121,28.13008],[-16.516,28.12923],[-16.52011,28.13105],[-16.52567,28.138],[-16.52569,28.14366],[-16.53036,28.14812],[-16.53525,28.15574],[-16.54015,28.1596],[-16.54622,28.16188],[-16.54721,28.16412],[-16.55215,28.16586],[-16.55199,28.16787],[-16.5559,28.16919],[-16.55572,28.17169],[-16.55782,28.17153],[-16.55902,28.17285],[-16.55811,28.17455],[-16.56094,28.17434],[-16.56696,28.18379],[-16.56607,28.18558],[-16.56865,28.18687],[-16.57047,28.19215],[-16.57339,28.1938],[-16.57356,28.19599],[-16.57776,28.20088],[-16.58417,28.20111],[-16.58971,28.2044],[-16.59988,28.21818],[-16.61492,28.21499],[-16.61853,28.21373]]]}},{"type":"Feature","properties":{"mun_code":"38021","mun_name":"Hermigua","mun_name_local":null,"prov_code":"38","prov_name":"Santa Cruz de Tenerife","acom_code":"05","acom_name":"Canarias","geo_point_2d":{"lon":-17.197934988808726,"lat":28.147812076482147}},"geometry":{"type":"MultiPolygon","coordinates":[[[[-17.2435,28.11515],[-17.24363,28.11153],[-17.24485,28.11104],[-17.24379,28.10859],[-17.24116,28.10841],[-17.23828,28.10635],[-17.23663,28.10739],[-17.23289,28.10675],[-17.22819,28.10953],[-17.22081,28.10808],[-17.21817,28.11171],[-17.21856,28.11797],[-17.21664,28.12172],[-17.20395,28.12387],[-17.1956,28.12704],[-17.19499,28.12879],[-17.18893,28.13144],[-17.1852,28.13518],[-17.1825,28.13547],[-17.18037,28.13816],[-17.18075,28.14226],[-17.17959,28.14401],[-17.17405,28.14336],[-17.16919,28.14819],[-17.16472,28.14889],[-17.15197,28.1474],[-17.14655,28.15151],[-17.1386,28.16051],[-17.14265,28.16196],[-17.14612,28.16149],[-17.15062,28.1634],[-17.15185,28.16578],[-17.15309,28.16499],[-17.1557,28.16662],[-17.15522,28.16815],[-17.15685,28.16901],[-17.15565,28.17338],[-17.16397,28.17174],[-17.16609,28.1726],[-17.16628,28.17625],[-17.16457,28.17835],[-17.16611,28.17787],[-17.16785,28.18084],[-17.17637,28.17739],[-17.18325,28.17992],[-17.18433,28.18144],[-17.19176,28.18221],[-17.19748,28.17487],[-17.20363,28.17386],[-17.21518,28.16593],[-17.22421,28.15255],[-17.2348,28.1433],[-17.23855,28.13564],[-17.23743,28.13109],[-17.24139,28.1259],[-17.2399,28.1249],[-17.24005,28.12246],[-17.2427,28.11679],[-17.2435,28.11515]]]]}},{"type":"Feature","properties":{"mun_code":"38020","mun_name":"Güímar","mun_name_local":null,"prov_code":"38","prov_name":"Santa Cruz de Tenerife","acom_code":"05","acom_name":"Canarias","geo_point_2d":{"lon":-16.432539180144794,"lat":28.29521844843435}},"geometry":{"type":"MultiPolygon","coordinates":[[[[-16.48414,28.33504],[-16.48587,28.33297],[-16.48516,28.32993],[-16.49148,28.32423],[-16.49522,28.31691],[-16.49828,28.31497],[-16.49908,28.30968],[-16.51218,28.30015],[-16.50371,28.28486],[-16.48312,28.2782],[-16.46238,28.2686],[-16.4567,28.26189],[-16.45612,28.25853],[-16.4516,28.25785],[-16.45102,28.25576],[-16.4458,28.25112],[-16.44111,28.25076],[-16.4262,28.24489],[-16.41661,28.23691],[-16.4072,28.23424],[-16.40402,28.23982],[-16.40175,28.24104],[-16.4022,28.24438],[-16.3971,28.25003],[-16.39412,28.2566],[-16.39471,28.25806],[-16.39293,28.2584],[-16.3873,28.26453],[-16.38712,28.26864],[-16.38399,28.27242],[-16.38429,28.27587],[-16.38268,28.27719],[-16.38408,28.27876],[-16.38375,28.28473],[-16.37934,28.28857],[-16.38052,28.28627],[-16.37925,28.28711],[-16.37378,28.29556],[-16.37241,28.29426],[-16.37286,28.29548],[-16.36981,28.29971],[-16.36501,28.30128],[-16.36168,28.30439],[-16.35935,28.31965],[-16.36302,28.32638],[-16.3625,28.33029],[-16.37578,28.32758],[-16.38225,28.32784],[-16.39533,28.32947],[-16.40819,28.33435],[-16.43622,28.33229],[-16.45266,28.33607],[-16.46705,28.33492],[-16.48414,28.33504]]],[[[-16.377,28.28964],[-16.37667,28.29053],[-16.37717,28.28976],[-16.377,28.28964]]],[[[-16.37607,28.29109],[-16.37527,28.29209],[-16.37612,28.29113],[-16.37607,28.29109]]]]}},{"type":"Feature","properties":{"mun_code":"38004","mun_name":"Arafo","mun_name_local":null,"prov_code":"38","prov_name":"Santa Cruz de Tenerife","acom_code":"05","acom_name":"Canarias","geo_point_2d":{"lon":-16.433267520117454,"lat":28.350603765535965}},"geometry":{"type":"Polygon","coordinates":[[[-16.48414,28.33504],[-16.45266,28.33607],[-16.43622,28.33229],[-16.40819,28.33435],[-16.39533,28.32947],[-16.37578,28.32758],[-16.3625,28.33029],[-16.36216,28.33141],[-16.36633,28.33967],[-16.37027,28.33887],[-16.37285,28.34034],[-16.38008,28.34063],[-16.38466,28.33941],[-16.38712,28.34169],[-16.39337,28.34296],[-16.39409,28.34418],[-16.39243,28.34556],[-16.39847,28.34583],[-16.40126,28.34927],[-16.40654,28.35087],[-16.40757,28.35329],[-16.41,28.35334],[-16.41146,28.35721],[-16.41496,28.35899],[-16.41721,28.36279],[-16.42265,28.36549],[-16.42931,28.37257],[-16.44383,28.38268],[-16.44659,28.38303],[-16.44751,28.38643],[-16.44546,28.39062],[-16.44921,28.3897],[-16.44993,28.38733],[-16.45759,28.38242],[-16.46113,28.37679],[-16.46087,28.37454],[-16.46295,28.3736],[-16.46501,28.3689],[-16.46443,28.36597],[-16.46668,28.36159],[-16.46687,28.35537],[-16.47102,28.3529],[-16.47594,28.35241],[-16.48202,28.34747],[-16.482,28.34098],[-16.48377,28.33677],[-16.48414,28.33504]]]}},{"type":"Feature","properties":{"mun_code":"38010","mun_name":"Buenavista del Norte","mun_name_local":null,"prov_code":"38","prov_name":"Santa Cruz de Tenerife","acom_code":"05","acom_name":"Canarias","geo_point_2d":{"lon":-16.86309533247658,"lat":28.33503732638364}},"geometry":{"type":"MultiPolygon","coordinates":[[[[-16.83039,28.39236],[-16.83289,28.39299],[-16.83874,28.39014],[-16.84139,28.39052],[-16.84109,28.38809],[-16.84275,28.38682],[-16.8452,28.38872],[-16.84892,28.38799],[-16.85106,28.38514],[-16.85444,28.3841],[-16.85557,28.38071],[-16.86047,28.37888],[-16.86031,28.37563],[-16.87023,28.37547],[-16.87128,28.371],[-16.87444,28.36994],[-16.87568,28.37091],[-16.88193,28.3673],[-16.88508,28.36894],[-16.88683,28.36501],[-16.88945,28.36575],[-16.89108,28.36359],[-16.89628,28.36256],[-16.90048,28.36521],[-16.90203,28.36413],[-16.90507,28.36483],[-16.90768,28.36251],[-16.91063,28.36323],[-16.91099,28.3619],[-16.91739,28.36104],[-16.92364,28.35352],[-16.92406,28.34969],[-16.92065,28.34297],[-16.9253,28.34152],[-16.92217,28.34203],[-16.92055,28.34082],[-16.91913,28.34194],[-16.91989,28.34276],[-16.91573,28.34228],[-16.91031,28.33854],[-16.90815,28.33964],[-16.90525,28.33864],[-16.89998,28.33255],[-16.89654,28.33207],[-16.89751,28.32876],[-16.89484,28.32674],[-16.89473,28.32373],[-16.88899,28.31767],[-16.8807,28.31307],[-16.88172,28.30892],[-16.88036,28.30342],[-16.87597,28.30005],[-16.87089,28.29963],[-16.87068,28.29634],[-16.865,28.29146],[-16.86638,28.29012],[-16.8614,28.28747],[-16.8614,28.28515],[-16.86346,28.28326],[-16.85942,28.27489],[-16.85498,28.27298],[-16.85257,28.27316],[-16.84695,28.2811],[-16.8466,28.28349],[-16.8439,28.2829],[-16.84318,28.28488],[-16.84216,28.28396],[-16.83967,28.28651],[-16.83425,28.28781],[-16.83189,28.2905],[-16.83346,28.29159],[-16.82191,28.29282],[-16.82118,28.2941],[-16.82397,28.29958],[-16.82361,28.30394],[-16.82699,28.30647],[-16.82427,28.31057],[-16.8188,28.31447],[-16.82372,28.31561],[-16.82488,28.31879],[-16.82654,28.31907],[-16.82923,28.32455],[-16.83094,28.3253],[-16.83212,28.33241],[-16.83442,28.33663],[-16.83371,28.3479],[-16.83555,28.3529],[-16.83322,28.35784],[-16.83475,28.36606],[-16.83075,28.39023],[-16.83039,28.39236]]]]}},{"type":"Feature","properties":{"mun_code":"38053","mun_name":"Villa de Mazo","mun_name_local":null,"prov_code":"38","prov_name":"Santa Cruz de Tenerife","acom_code":"05","acom_name":"Canarias","geo_point_2d":{"lon":-17.797256054412077,"lat":28.579683575320374}},"geometry":{"type":"MultiPolygon","coordinates":[[[[-17.75359,28.63056],[-17.76182,28.63082],[-17.76799,28.63351],[-17.77075,28.63197],[-17.77877,28.63223],[-17.78289,28.63025],[-17.78324,28.62872],[-17.79099,28.62618],[-17.79347,28.62236],[-17.80148,28.61944],[-17.80319,28.61698],[-17.81235,28.61444],[-17.81852,28.60965],[-17.82351,28.6081],[-17.83171,28.59847],[-17.84048,28.59642],[-17.83693,28.59153],[-17.83801,28.58666],[-17.83667,28.58024],[-17.8386,28.5777],[-17.83605,28.57659],[-17.83949,28.57433],[-17.83784,28.57066],[-17.83896,28.56725],[-17.8367,28.56068],[-17.83625,28.56179],[-17.83403,28.56143],[-17.83535,28.55723],[-17.83404,28.55433],[-17.83906,28.55339],[-17.84032,28.53655],[-17.81471,28.52947],[-17.80515,28.52565],[-17.79656,28.51848],[-17.79282,28.52923],[-17.7903,28.5312],[-17.78973,28.53709],[-17.78673,28.54363],[-17.78278,28.54767],[-17.78078,28.54806],[-17.77678,28.55306],[-17.77186,28.55561],[-17.77123,28.55837],[-17.76749,28.56139],[-17.76627,28.56525],[-17.76009,28.56987],[-17.75935,28.57377],[-17.76097,28.57625],[-17.75981,28.57923],[-17.76093,28.5815],[-17.75977,28.58381],[-17.75569,28.58644],[-17.75798,28.58817],[-17.75462,28.59326],[-17.75679,28.59437],[-17.75493,28.59761],[-17.75597,28.60079],[-17.75463,28.60141],[-17.75603,28.60179],[-17.75596,28.60324],[-17.75452,28.60367],[-17.75589,28.6039],[-17.75509,28.60693],[-17.7566,28.60795],[-17.75529,28.60913],[-17.75681,28.61177],[-17.75193,28.61635],[-17.7501,28.62062],[-17.75112,28.621],[-17.75006,28.62438],[-17.75183,28.62541],[-17.75113,28.62482],[-17.75064,28.62602],[-17.753,28.62685],[-17.75378,28.63033],[-17.75359,28.63056]]]]}},{"type":"Feature","properties":{"mun_code":"38013","mun_name":"Frontera","mun_name_local":null,"prov_code":"38","prov_name":"Santa Cruz de Tenerife","acom_code":"05","acom_name":"Canarias","geo_point_2d":{"lon":-18.066690775924272,"lat":27.74783984526928}},"geometry":{"type":"MultiPolygon","coordinates":[[[[-18.00134,27.82241],[-18.0005,27.82272],[-18.00158,27.82254],[-18.00134,27.82241]]],[[[-17.99371,27.82225],[-17.99304,27.82293],[-17.99381,27.82232],[-17.99371,27.82225]]],[[[-17.99727,27.82408],[-17.99641,27.82295],[-17.99517,27.82355],[-17.99604,27.8253],[-17.99728,27.82439],[-17.99727,27.82408]]],[[[-17.99208,27.82202],[-17.98653,27.81007],[-17.98629,27.80736],[-17.98926,27.79938],[-17.99145,27.79704],[-17.99261,27.79757],[-17.99173,27.79628],[-17.99273,27.7966],[-17.99332,27.79437],[-17.99612,27.79337],[-17.9977,27.79084],[-18.00178,27.79086],[-18.00189,27.78945],[-18.00613,27.78871],[-18.01458,27.78305],[-18.01872,27.77491],[-18.02621,27.77023],[-18.02856,27.77023],[-18.02877,27.76871],[-18.03258,27.76718],[-18.03657,27.76202],[-18.04543,27.76141],[-18.05127,27.75909],[-18.05558,27.75895],[-18.06011,27.75597],[-18.06996,27.75323],[-18.08227,27.75313],[-18.0905,27.75548],[-18.09173,27.7546],[-18.10295,27.75702],[-18.10585,27.75661],[-18.11406,27.75945],[-18.12101,27.76463],[-18.1216,27.76928],[-18.12286,27.76865],[-18.13218,27.77126],[-18.1365,27.76683],[-18.139,27.76572],[-18.14003,27.76644],[-18.14071,27.76259],[-18.14345,27.76288],[-18.14401,27.76162],[-18.14448,27.76271],[-18.14692,27.75956],[-18.15162,27.7605],[-18.15073,27.7584],[-18.15429,27.75531],[-18.15532,27.75043],[-18.15166,27.74764],[-18.1519,27.73197],[-18.15341,27.72954],[-18.15898,27.72932],[-18.15831,27.72611],[-18.16026,27.72547],[-18.16073,27.71631],[-18.15748,27.71199],[-18.11546,27.71652],[-18.06541,27.72619],[-18.05352,27.72486],[-18.0493,27.72609],[-18.0452,27.72943],[-18.02484,27.7275],[-18.02245,27.72874],[-18.01511,27.7281],[-17.99279,27.73984],[-17.99258,27.74192],[-17.98927,27.74367],[-17.97903,27.75875],[-17.98387,27.77054],[-17.98776,27.773],[-17.98538,27.78102],[-17.98297,27.78355],[-17.97887,27.79368],[-17.97951,27.80375],[-17.98076,27.809],[-17.98337,27.81085],[-17.98413,27.81451],[-17.99156,27.82181],[-17.99208,27.82202]]]]}},{"type":"Feature","properties":{"mun_code":"38030","mun_name":"Puntallana","mun_name_local":null,"prov_code":"38","prov_name":"Santa Cruz de Tenerife","acom_code":"05","acom_name":"Canarias","geo_point_2d":{"lon":-17.765762328260692,"lat":28.742296974454444}},"geometry":{"type":"MultiPolygon","coordinates":[[[[-17.75343,28.78261],[-17.75848,28.77883],[-17.75879,28.77422],[-17.76133,28.77039],[-17.77179,28.76655],[-17.77185,28.76439],[-17.77498,28.76237],[-17.77814,28.76311],[-17.78166,28.75593],[-17.78811,28.75093],[-17.78972,28.75261],[-17.79628,28.75245],[-17.79891,28.75046],[-17.81332,28.74552],[-17.82574,28.74523],[-17.83006,28.74721],[-17.83824,28.74361],[-17.83569,28.74161],[-17.83558,28.73468],[-17.82202,28.7347],[-17.81659,28.73927],[-17.80833,28.73689],[-17.80046,28.73704],[-17.79261,28.7315],[-17.78437,28.73258],[-17.76394,28.72251],[-17.76155,28.71737],[-17.75905,28.71652],[-17.75728,28.70996],[-17.75227,28.7051],[-17.74682,28.71165],[-17.7438,28.71244],[-17.74156,28.71472],[-17.73873,28.71482],[-17.73256,28.72019],[-17.73205,28.72247],[-17.73337,28.72389],[-17.73091,28.72667],[-17.73138,28.72931],[-17.72729,28.73217],[-17.7242,28.73845],[-17.72542,28.74037],[-17.72476,28.74295],[-17.72769,28.74241],[-17.72989,28.74417],[-17.73081,28.7501],[-17.73428,28.75309],[-17.73333,28.75617],[-17.73499,28.75836],[-17.73649,28.75829],[-17.7368,28.76003],[-17.73895,28.75905],[-17.74194,28.76111],[-17.74473,28.76788],[-17.75006,28.77203],[-17.75303,28.77774],[-17.75227,28.7812],[-17.75333,28.78231],[-17.75343,28.78261]]]]}},{"type":"Feature","properties":{"mun_code":"38032","mun_name":"El Rosario","mun_name_local":null,"prov_code":"38","prov_name":"Santa Cruz de Tenerife","acom_code":"05","acom_name":"Canarias","geo_point_2d":{"lon":-16.35896432907315,"lat":28.430325359052638}},"geometry":{"type":"Polygon","coordinates":[[[-16.4069,28.41453],[-16.40264,28.41489],[-16.39772,28.41145],[-16.39145,28.41221],[-16.3869,28.41421],[-16.37939,28.41376],[-16.3675,28.40902],[-16.3671,28.40614],[-16.35691,28.40056],[-16.34377,28.39938],[-16.33737,28.39627],[-16.33541,28.39694],[-16.33378,28.40065],[-16.33031,28.4022],[-16.32015,28.40006],[-16.31772,28.40461],[-16.30755,28.40978],[-16.31882,28.42042],[-16.32021,28.42086],[-16.32038,28.41795],[-16.32873,28.4166],[-16.33285,28.41909],[-16.33624,28.41914],[-16.33853,28.424],[-16.34524,28.42864],[-16.33578,28.43965],[-16.33033,28.44845],[-16.33054,28.45468],[-16.33951,28.45829],[-16.34257,28.46213],[-16.34648,28.4641],[-16.36283,28.46694],[-16.36867,28.46923],[-16.37623,28.46141],[-16.37744,28.45559],[-16.38048,28.45453],[-16.38254,28.45038],[-16.38545,28.45037],[-16.38456,28.44612],[-16.39626,28.42999],[-16.40423,28.42442],[-16.40673,28.4166],[-16.4069,28.41453]]]}},{"type":"Feature","properties":{"mun_code":"38031","mun_name":"Los Realejos","mun_name_local":null,"prov_code":"38","prov_name":"Santa Cruz de Tenerife","acom_code":"05","acom_name":"Canarias","geo_point_2d":{"lon":-16.58568582691793,"lat":28.354577626933605}},"geometry":{"type":"MultiPolygon","coordinates":[[[[-16.57059,28.40751],[-16.57263,28.40414],[-16.57823,28.40512],[-16.58786,28.39805],[-16.59319,28.39778],[-16.5972,28.4004],[-16.60026,28.39594],[-16.60341,28.39401],[-16.61732,28.3941],[-16.62366,28.39587],[-16.62661,28.38957],[-16.62339,28.36717],[-16.62017,28.36415],[-16.61924,28.35734],[-16.60997,28.34627],[-16.60554,28.33598],[-16.60055,28.32811],[-16.59706,28.32546],[-16.59181,28.31595],[-16.58902,28.29287],[-16.56534,28.29808],[-16.55789,28.31043],[-16.55512,28.34506],[-16.55696,28.34856],[-16.55687,28.35637],[-16.55865,28.35838],[-16.56145,28.37059],[-16.56212,28.38119],[-16.56137,28.38581],[-16.55744,28.39159],[-16.55861,28.39399],[-16.56413,28.39391],[-16.5647,28.39638],[-16.56827,28.39986],[-16.57056,28.40721],[-16.57059,28.40751]]]]}},{"type":"Feature","properties":{"mun_code":"38006","mun_name":"Arona","mun_name_local":null,"prov_code":"38","prov_name":"Santa Cruz de Tenerife","acom_code":"05","acom_name":"Canarias","geo_point_2d":{"lon":-16.67603853020958,"lat":28.05526474327139}},"geometry":{"type":"Polygon","coordinates":[[[-16.68464,28.12064],[-16.68527,28.11685],[-16.68844,28.1144],[-16.68987,28.10918],[-16.69164,28.1079],[-16.6904,28.10525],[-16.69135,28.09538],[-16.69901,28.0848],[-16.7047,28.0835],[-16.70944,28.07511],[-16.711,28.07536],[-16.71472,28.07296],[-16.72199,28.06617],[-16.72518,28.06762],[-16.7268,28.0654],[-16.7297,28.06738],[-16.73463,28.06694],[-16.7332,28.06661],[-16.73261,28.06461],[-16.73661,28.05977],[-16.73728,28.05538],[-16.73334,28.05301],[-16.73347,28.05151],[-16.73302,28.05264],[-16.73091,28.05264],[-16.73109,28.05089],[-16.72825,28.05187],[-16.72677,28.05089],[-16.72701,28.0523],[-16.72446,28.05222],[-16.72221,28.05045],[-16.72274,28.04919],[-16.71731,28.0459],[-16.71971,28.04862],[-16.7182,28.05005],[-16.71146,28.04732],[-16.71189,28.04443],[-16.71036,28.04358],[-16.71159,28.04259],[-16.70956,28.04208],[-16.70887,28.04005],[-16.70938,28.03296],[-16.70638,28.03059],[-16.70457,28.02694],[-16.707,28.01995],[-16.70601,28.01613],[-16.70751,28.01067],[-16.702,28.00417],[-16.69538,28.00167],[-16.69394,27.99975],[-16.67894,27.99811],[-16.67152,28.00484],[-16.66672,28.00351],[-16.66615,28.00769],[-16.66438,28.00877],[-16.65927,28.00846],[-16.65887,28.00694],[-16.66139,28.00681],[-16.65822,28.00728],[-16.6559,28.00602],[-16.65162,28.008],[-16.64938,28.00762],[-16.64532,28.00367],[-16.63828,28.00655],[-16.63774,28.06082],[-16.64164,28.07122],[-16.63951,28.07895],[-16.64297,28.08961],[-16.64088,28.10023],[-16.64181,28.10454],[-16.65983,28.11297],[-16.67332,28.1124],[-16.68124,28.11862],[-16.68464,28.12064]]]}},{"type":"Feature","properties":{"mun_code":"38029","mun_name":"Puntagorda","mun_name_local":null,"prov_code":"38","prov_name":"Santa Cruz de Tenerife","acom_code":"05","acom_name":"Canarias","geo_point_2d":{"lon":-17.96509836932813,"lat":28.76206689976176}},"geometry":{"type":"MultiPolygon","coordinates":[[[[-17.98802,28.79566],[-17.99177,28.795],[-17.99497,28.79602],[-17.99631,28.79],[-17.99854,28.7875],[-18.00572,28.78457],[-18.00459,28.78355],[-18.00673,28.77607],[-18.00598,28.76683],[-18.0035,28.76317],[-18.0041,28.7606],[-18.00714,28.75792],[-18.00506,28.75577],[-18.00486,28.75314],[-18.00076,28.75185],[-18.00047,28.7473],[-17.99446,28.74395],[-17.99258,28.74029],[-17.98913,28.74418],[-17.97039,28.74623],[-17.96602,28.75059],[-17.96432,28.74938],[-17.9536,28.75027],[-17.95176,28.74655],[-17.94434,28.74695],[-17.9279,28.74295],[-17.91865,28.7427],[-17.91085,28.74055],[-17.90278,28.74148],[-17.90019,28.74063],[-17.89586,28.74501],[-17.89585,28.7475],[-17.89017,28.75039],[-17.89574,28.75405],[-17.90055,28.75528],[-17.90242,28.75419],[-17.91047,28.75437],[-17.91671,28.75166],[-17.92141,28.75322],[-17.92643,28.75811],[-17.92802,28.75795],[-17.93288,28.76126],[-17.93615,28.76631],[-17.93777,28.76514],[-17.94336,28.76724],[-17.94878,28.7664],[-17.95531,28.76894],[-17.95535,28.77018],[-17.95724,28.76975],[-17.95784,28.7715],[-17.96225,28.77249],[-17.96581,28.77701],[-17.96952,28.77835],[-17.96984,28.78042],[-17.97333,28.78134],[-17.97567,28.78597],[-17.97748,28.78603],[-17.97742,28.78714],[-17.98036,28.78867],[-17.98225,28.79381],[-17.9871,28.79497],[-17.98802,28.79566]]]]}},{"type":"Feature","properties":{"mun_code":"38026","mun_name":"La Orotava","mun_name_local":null,"prov_code":"38","prov_name":"Santa Cruz de Tenerife","acom_code":"05","acom_name":"Canarias","geo_point_2d":{"lon":-16.576930144119128,"lat":28.298936336042672}},"geometry":{"type":"Polygon","coordinates":[[[-16.67733,28.26887],[-16.68725,28.25426],[-16.6807,28.21278],[-16.67856,28.21232],[-16.67431,28.2083],[-16.66358,28.20571],[-16.66042,28.2013],[-16.64906,28.19901],[-16.64318,28.19838],[-16.63746,28.19985],[-16.62191,28.20691],[-16.62104,28.21188],[-16.61853,28.21373],[-16.60937,28.21694],[-16.59347,28.22007],[-16.58736,28.22527],[-16.58587,28.22835],[-16.58125,28.23127],[-16.57861,28.23587],[-16.56036,28.24437],[-16.55911,28.24758],[-16.55279,28.25041],[-16.54963,28.25741],[-16.54926,28.263],[-16.54616,28.26434],[-16.5445,28.27005],[-16.54473,28.27638],[-16.54666,28.27951],[-16.54558,28.28242],[-16.54198,28.28544],[-16.53391,28.28825],[-16.53134,28.29504],[-16.52509,28.29682],[-16.52341,28.30184],[-16.52105,28.30327],[-16.51643,28.30407],[-16.51218,28.30015],[-16.49908,28.30968],[-16.49828,28.31497],[-16.49522,28.31691],[-16.49148,28.32423],[-16.48516,28.32993],[-16.48587,28.33297],[-16.482,28.34098],[-16.48202,28.34747],[-16.47594,28.35241],[-16.47102,28.3529],[-16.46677,28.35571],[-16.46668,28.36159],[-16.46457,28.36528],[-16.46501,28.3689],[-16.46349,28.37206],[-16.46764,28.37436],[-16.47568,28.38475],[-16.47634,28.38811],[-16.48648,28.39264],[-16.49663,28.40354],[-16.5058,28.40742],[-16.50875,28.41057],[-16.50727,28.41451],[-16.50891,28.41539],[-16.50263,28.4235],[-16.50306,28.42463],[-16.50653,28.42266],[-16.50718,28.42337],[-16.50743,28.42192],[-16.51186,28.41955],[-16.51515,28.41882],[-16.5186,28.41985],[-16.52069,28.41755],[-16.52188,28.41858],[-16.52324,28.41485],[-16.52002,28.40791],[-16.53289,28.40538],[-16.53798,28.3971],[-16.55444,28.39758],[-16.5556,28.39386],[-16.56137,28.38581],[-16.56145,28.37059],[-16.55865,28.35838],[-16.55687,28.35637],[-16.55704,28.34908],[-16.55513,28.34465],[-16.55789,28.31043],[-16.56534,28.29808],[-16.58902,28.29287],[-16.59226,28.31466],[-16.60784,28.30693],[-16.66933,28.29268],[-16.67495,28.27075],[-16.67733,28.26887]]]}},{"type":"Feature","properties":{"mun_code":"38040","mun_name":"Santiago del Teide","mun_name_local":null,"prov_code":"38","prov_name":"Santa Cruz de Tenerife","acom_code":"05","acom_name":"Canarias","geo_point_2d":{"lon":-16.796500843607134,"lat":28.278488766308737}},"geometry":{"type":"MultiPolygon","coordinates":[[[[-16.8188,28.31447],[-16.82427,28.31057],[-16.82699,28.30647],[-16.82361,28.30394],[-16.82421,28.30057],[-16.82116,28.29549],[-16.82162,28.29292],[-16.83346,28.29159],[-16.83189,28.2905],[-16.83425,28.28781],[-16.83967,28.28651],[-16.84216,28.28396],[-16.84318,28.28488],[-16.8439,28.2829],[-16.8466,28.28349],[-16.84695,28.2811],[-16.85257,28.27316],[-16.84953,28.27183],[-16.85099,28.26884],[-16.85004,28.26803],[-16.84109,28.2644],[-16.84164,28.26257],[-16.83958,28.26144],[-16.83781,28.25585],[-16.83966,28.24825],[-16.84075,28.24717],[-16.84199,28.24832],[-16.8413,28.24738],[-16.8426,28.24629],[-16.84368,28.24736],[-16.84202,28.24872],[-16.84412,28.2474],[-16.84208,28.24283],[-16.84334,28.24262],[-16.84276,28.24062],[-16.84624,28.23947],[-16.84549,28.2376],[-16.84272,28.23697],[-16.84361,28.23581],[-16.84191,28.23349],[-16.84238,28.2302],[-16.84124,28.22981],[-16.84333,28.22852],[-16.8429,28.22656],[-16.8404,28.22665],[-16.8092,28.2557],[-16.79385,28.26317],[-16.77229,28.27064],[-16.7482,28.27389],[-16.70467,28.26853],[-16.67733,28.26887],[-16.70072,28.27144],[-16.70676,28.27356],[-16.72487,28.28069],[-16.73393,28.28589],[-16.74368,28.28798],[-16.75623,28.29429],[-16.76567,28.29734],[-16.79822,28.31334],[-16.80327,28.31488],[-16.81189,28.31128],[-16.8162,28.31219],[-16.81858,28.31438],[-16.8188,28.31447]]]]}},{"type":"Feature","properties":{"mun_code":"38049","mun_name":"Valle Gran Rey","mun_name_local":null,"prov_code":"38","prov_name":"Santa Cruz de Tenerife","acom_code":"05","acom_name":"Canarias","geo_point_2d":{"lon":-17.3186535836036,"lat":28.123420603777095}},"geometry":{"type":"MultiPolygon","coordinates":[[[[-17.3296,28.08089],[-17.32561,28.08398],[-17.32598,28.08905],[-17.32394,28.09498],[-17.32014,28.10037],[-17.31448,28.10245],[-17.3135,28.1044],[-17.30186,28.11296],[-17.28814,28.1188],[-17.28786,28.12311],[-17.28493,28.12618],[-17.28126,28.12754],[-17.27182,28.12676],[-17.26585,28.12879],[-17.27196,28.12959],[-17.27945,28.13338],[-17.28159,28.13634],[-17.28146,28.13852],[-17.28807,28.14647],[-17.2958,28.1501],[-17.30655,28.15158],[-17.3146,28.14464],[-17.31919,28.14302],[-17.3314,28.15194],[-17.33773,28.15168],[-17.34191,28.1539],[-17.34301,28.15231],[-17.34574,28.15198],[-17.34409,28.14969],[-17.34657,28.14801],[-17.34521,28.14526],[-17.34643,28.14312],[-17.34265,28.14033],[-17.34357,28.13679],[-17.34111,28.13142],[-17.34196,28.12766],[-17.34533,28.12378],[-17.34563,28.11982],[-17.3476,28.11839],[-17.34642,28.11499],[-17.34786,28.11265],[-17.3466,28.10536],[-17.34893,28.09837],[-17.34437,28.09447],[-17.34185,28.09447],[-17.3398,28.09022],[-17.33966,28.08607],[-17.33448,28.08223],[-17.33412,28.07943],[-17.33078,28.07788],[-17.33319,28.08045],[-17.33111,28.08017],[-17.33291,28.08142],[-17.33229,28.0824],[-17.33047,28.08162],[-17.3296,28.08089]]]]}},{"type":"Feature","properties":{"mun_code":"38027","mun_name":"El Paso","mun_name_local":null,"prov_code":"38","prov_name":"Santa Cruz de Tenerife","acom_code":"05","acom_name":"Canarias","geo_point_2d":{"lon":-17.867590175820972,"lat":28.66506434928062}},"geometry":{"type":"Polygon","coordinates":[[[-17.92439,28.67523],[-17.92824,28.67232],[-17.92517,28.67078],[-17.92343,28.66707],[-17.92078,28.67122],[-17.91938,28.66939],[-17.91795,28.66954],[-17.91125,28.67298],[-17.90924,28.6706],[-17.90448,28.66933],[-17.90527,28.66779],[-17.90302,28.66457],[-17.89653,28.66135],[-17.89125,28.66181],[-17.88961,28.65907],[-17.89285,28.65686],[-17.89768,28.65811],[-17.90403,28.65611],[-17.90525,28.65458],[-17.9019,28.65282],[-17.9004,28.64647],[-17.89781,28.64487],[-17.89768,28.64182],[-17.89283,28.63357],[-17.88874,28.63343],[-17.88577,28.62775],[-17.88599,28.61798],[-17.88354,28.61468],[-17.88394,28.60974],[-17.8792,28.59542],[-17.8809,28.58951],[-17.88089,28.58374],[-17.87953,28.58185],[-17.88057,28.57749],[-17.87712,28.56972],[-17.87571,28.5637],[-17.87659,28.55915],[-17.87465,28.55473],[-17.85261,28.55385],[-17.83886,28.55526],[-17.8367,28.56068],[-17.83949,28.57433],[-17.83605,28.57659],[-17.8386,28.5777],[-17.83667,28.58024],[-17.83801,28.58666],[-17.83693,28.59153],[-17.84045,28.59597],[-17.83935,28.59963],[-17.841,28.60436],[-17.83699,28.60626],[-17.83696,28.60839],[-17.83406,28.61152],[-17.83505,28.6161],[-17.83212,28.62327],[-17.82699,28.63016],[-17.82461,28.64105],[-17.82646,28.66613],[-17.82758,28.67197],[-17.83023,28.67666],[-17.83024,28.68369],[-17.83214,28.6849],[-17.83732,28.69575],[-17.84609,28.70414],[-17.8433,28.713],[-17.83849,28.71617],[-17.83752,28.71896],[-17.83845,28.7238],[-17.83566,28.72697],[-17.83569,28.74161],[-17.83926,28.74639],[-17.84966,28.75018],[-17.86038,28.75945],[-17.86692,28.76159],[-17.8705,28.76002],[-17.8754,28.76256],[-17.88275,28.7581],[-17.88487,28.75447],[-17.89265,28.74849],[-17.89585,28.7475],[-17.89586,28.74501],[-17.89995,28.74174],[-17.89984,28.73837],[-17.89834,28.73736],[-17.90214,28.73475],[-17.90282,28.72838],[-17.90851,28.7211],[-17.90906,28.71382],[-17.92347,28.69358],[-17.92385,28.68768],[-17.92059,28.68511],[-17.92241,28.67591],[-17.92439,28.67523]]]}},{"type":"Feature","properties":{"mun_code":"38051","mun_name":"La Victoria de Acentejo","mun_name_local":null,"prov_code":"38","prov_name":"Santa Cruz de Tenerife","acom_code":"05","acom_name":"Canarias","geo_point_2d":{"lon":-16.44814199219568,"lat":28.418654721899475}},"geometry":{"type":"MultiPolygon","coordinates":[[[[-16.47437,28.44327],[-16.4768,28.44073],[-16.48467,28.43967],[-16.48795,28.43738],[-16.48739,28.43489],[-16.47971,28.42647],[-16.47633,28.42811],[-16.4703,28.42614],[-16.46542,28.42286],[-16.46295,28.41926],[-16.46172,28.41945],[-16.46175,28.41569],[-16.45726,28.4066],[-16.44631,28.39757],[-16.44274,28.39073],[-16.4339,28.39496],[-16.42467,28.39658],[-16.42361,28.39809],[-16.42509,28.39958],[-16.42476,28.40291],[-16.42158,28.40855],[-16.41895,28.4094],[-16.41678,28.41554],[-16.42361,28.42499],[-16.42727,28.42673],[-16.4319,28.42652],[-16.43973,28.42841],[-16.44605,28.43102],[-16.45199,28.43551],[-16.47357,28.44297],[-16.47437,28.44327]]]]}},{"type":"Feature","properties":{"mun_code":"38012","mun_name":"Fasnia","mun_name_local":null,"prov_code":"38","prov_name":"Santa Cruz de Tenerife","acom_code":"05","acom_name":"Canarias","geo_point_2d":{"lon":-16.46704087047544,"lat":28.24962985802156}},"geometry":{"type":"MultiPolygon","coordinates":[[[[-16.51218,28.30015],[-16.51643,28.30407],[-16.52105,28.30327],[-16.52341,28.30184],[-16.52509,28.29682],[-16.53117,28.29524],[-16.53391,28.28825],[-16.53765,28.28711],[-16.51448,28.27064],[-16.50358,28.25879],[-16.48272,28.24501],[-16.48179,28.24158],[-16.47425,28.23728],[-16.47237,28.23357],[-16.4574,28.21841],[-16.4534,28.21833],[-16.44955,28.21532],[-16.44482,28.2152],[-16.4407,28.20524],[-16.43708,28.20432],[-16.43172,28.19996],[-16.42772,28.1996],[-16.42328,28.19344],[-16.42209,28.19373],[-16.42093,28.19852],[-16.42502,28.20209],[-16.42468,28.20457],[-16.42247,28.20599],[-16.42133,28.20981],[-16.41999,28.21],[-16.41744,28.21547],[-16.41572,28.21604],[-16.41272,28.22201],[-16.41118,28.22194],[-16.40927,28.22429],[-16.40991,28.22589],[-16.4072,28.23424],[-16.41661,28.23691],[-16.4262,28.24489],[-16.44111,28.25076],[-16.4458,28.25112],[-16.45102,28.25576],[-16.4516,28.25785],[-16.45612,28.25853],[-16.4567,28.26189],[-16.46238,28.2686],[-16.48312,28.2782],[-16.50371,28.28486],[-16.51218,28.30015]]]]}},{"type":"Feature","properties":{"mun_code":"38019","mun_name":"Guía de Isora","mun_name_local":null,"prov_code":"38","prov_name":"Santa Cruz de Tenerife","acom_code":"05","acom_name":"Canarias","geo_point_2d":{"lon":-16.758577030475436,"lat":28.220379037016716}},"geometry":{"type":"MultiPolygon","coordinates":[[[[-16.67733,28.26887],[-16.70467,28.26853],[-16.7482,28.27389],[-16.77229,28.27064],[-16.79385,28.26317],[-16.8092,28.2557],[-16.8404,28.22665],[-16.83834,28.22424],[-16.83978,28.22053],[-16.83621,28.21733],[-16.83644,28.21382],[-16.83823,28.21228],[-16.83601,28.21005],[-16.83749,28.20762],[-16.83487,28.20648],[-16.83205,28.20077],[-16.82981,28.20116],[-16.82812,28.19989],[-16.82925,28.19822],[-16.82639,28.19522],[-16.82808,28.19394],[-16.82349,28.19073],[-16.81965,28.18078],[-16.81426,28.17812],[-16.81559,28.17961],[-16.81297,28.18003],[-16.80694,28.17452],[-16.80836,28.1735],[-16.80459,28.17051],[-16.80698,28.16823],[-16.80518,28.16775],[-16.80598,28.16303],[-16.80349,28.1567],[-16.79597,28.1585],[-16.79294,28.16069],[-16.788,28.16043],[-16.7788,28.16377],[-16.77348,28.1631],[-16.76484,28.16487],[-16.7598,28.16766],[-16.75236,28.16689],[-16.74719,28.16771],[-16.7332,28.17549],[-16.7287,28.17583],[-16.7261,28.17838],[-16.72039,28.17875],[-16.71864,28.18232],[-16.71124,28.18573],[-16.70665,28.1921],[-16.70016,28.19689],[-16.69741,28.20134],[-16.68276,28.2093],[-16.6807,28.21278],[-16.68725,28.25426],[-16.67848,28.26727],[-16.67733,28.26887]]]]}},{"type":"Feature","properties":{"mun_code":"38016","mun_name":"Garafía","mun_name_local":null,"prov_code":"38","prov_name":"Santa Cruz de Tenerife","acom_code":"05","acom_name":"Canarias","geo_point_2d":{"lon":-17.912492643442068,"lat":28.801669211132772}},"geometry":{"type":"MultiPolygon","coordinates":[[[[-17.96789,28.82885],[-17.96919,28.82903],[-17.96791,28.82855],[-17.96789,28.82885]]],[[[-17.9611,28.8288],[-17.9626,28.83015],[-17.96122,28.82901],[-17.9611,28.8288]]],[[[-17.84807,28.83509],[-17.85816,28.83287],[-17.86219,28.83433],[-17.86211,28.83614],[-17.86819,28.83537],[-17.88087,28.83811],[-17.8835,28.83956],[-17.88353,28.8418],[-17.88549,28.84346],[-17.88578,28.84064],[-17.89021,28.84008],[-17.89605,28.84221],[-17.90036,28.84624],[-17.90453,28.84763],[-17.90348,28.8523],[-17.90565,28.85244],[-17.90502,28.8546],[-17.90656,28.8556],[-17.90969,28.85475],[-17.91058,28.85752],[-17.91408,28.85738],[-17.91685,28.85325],[-17.91982,28.85743],[-17.92267,28.85592],[-17.92262,28.85342],[-17.92547,28.85294],[-17.92315,28.84999],[-17.92505,28.84762],[-17.92665,28.84784],[-17.92651,28.8463],[-17.92826,28.84694],[-17.92937,28.84476],[-17.93883,28.84104],[-17.94138,28.84258],[-17.94256,28.84094],[-17.9464,28.84237],[-17.94612,28.83981],[-17.94883,28.84024],[-17.95005,28.83517],[-17.95414,28.83149],[-17.9629,28.82661],[-17.96778,28.82725],[-17.96687,28.82609],[-17.96822,28.82498],[-17.96668,28.82242],[-17.96852,28.8197],[-17.97066,28.82007],[-17.97049,28.81576],[-17.97276,28.81528],[-17.97207,28.814],[-17.97515,28.81113],[-17.97927,28.81231],[-17.97715,28.80815],[-17.97838,28.80462],[-17.98474,28.7985],[-17.98693,28.79878],[-17.98802,28.79566],[-17.98225,28.79381],[-17.98123,28.7898],[-17.97748,28.78603],[-17.97567,28.78597],[-17.97333,28.78134],[-17.96984,28.78042],[-17.96952,28.77835],[-17.96581,28.77701],[-17.96151,28.77202],[-17.95784,28.7715],[-17.95724,28.76975],[-17.95535,28.77018],[-17.95531,28.76894],[-17.94878,28.7664],[-17.94336,28.76724],[-17.93777,28.76514],[-17.93615,28.76631],[-17.93288,28.76126],[-17.91752,28.7516],[-17.91047,28.75437],[-17.90242,28.75419],[-17.90055,28.75528],[-17.89574,28.75405],[-17.89017,28.75039],[-17.88487,28.75447],[-17.88275,28.7581],[-17.87585,28.76245],[-17.8705,28.76002],[-17.86692,28.76159],[-17.86355,28.76067],[-17.85806,28.76683],[-17.857,28.76903],[-17.86184,28.77091],[-17.85973,28.78342],[-17.86159,28.78579],[-17.85819,28.79218],[-17.8582,28.79592],[-17.8563,28.79676],[-17.8581,28.79961],[-17.85432,28.8017],[-17.85459,28.80598],[-17.84976,28.80974],[-17.85071,28.81628],[-17.847,28.81706],[-17.8489,28.81835],[-17.84771,28.8209],[-17.85057,28.82332],[-17.8496,28.82444],[-17.84793,28.82366],[-17.84701,28.82621],[-17.84896,28.83091],[-17.84742,28.83424],[-17.84807,28.83509]]],[[[-17.95817,28.83059],[-17.95879,28.83196],[-17.95827,28.83082],[-17.95817,28.83059]]]]}},{"type":"Feature","properties":{"mun_code":"38003","mun_name":"Alajeró","mun_name_local":null,"prov_code":"38","prov_name":"Santa Cruz de Tenerife","acom_code":"05","acom_name":"Canarias","geo_point_2d":{"lon":-17.245308610105727,"lat":28.054997985244828}},"geometry":{"type":"Polygon","coordinates":[[[-17.24485,28.11104],[-17.24842,28.10984],[-17.24927,28.10694],[-17.24711,28.10483],[-17.24922,28.09756],[-17.25293,28.09622],[-17.25349,28.09213],[-17.25725,28.08647],[-17.26445,28.0812],[-17.26502,28.07723],[-17.27855,28.0692],[-17.27914,28.06666],[-17.28402,28.06171],[-17.29079,28.05805],[-17.29573,28.04753],[-17.29079,28.04623],[-17.28938,28.03802],[-17.2866,28.03923],[-17.28353,28.03779],[-17.28106,28.03872],[-17.27948,28.03667],[-17.27335,28.03606],[-17.27255,28.02708],[-17.26938,28.02496],[-17.25373,28.02587],[-17.25004,28.02499],[-17.24892,28.02177],[-17.24345,28.01986],[-17.23482,28.02231],[-17.23421,28.02507],[-17.22799,28.02659],[-17.21941,28.02517],[-17.21546,28.02731],[-17.21128,28.02727],[-17.20842,28.02426],[-17.19856,28.02393],[-17.19639,28.02669],[-17.19819,28.02593],[-17.19796,28.02763],[-17.19211,28.02957],[-17.19753,28.03405],[-17.20269,28.04135],[-17.20364,28.04569],[-17.20966,28.05017],[-17.21091,28.05551],[-17.21647,28.0625],[-17.21842,28.0678],[-17.22265,28.072],[-17.2276,28.08301],[-17.23142,28.08755],[-17.23828,28.10635],[-17.24116,28.10841],[-17.24379,28.10859],[-17.24439,28.1107],[-17.24485,28.11104]]]}},{"type":"Feature","properties":{"mun_code":"38028","mun_name":"Puerto de la Cruz","mun_name_local":null,"prov_code":"38","prov_name":"Santa Cruz de Tenerife","acom_code":"05","acom_name":"Canarias","geo_point_2d":{"lon":-16.547240543454148,"lat":28.4074852064305}},"geometry":{"type":"Polygon","coordinates":[[[-16.52329,28.41723],[-16.52718,28.41837],[-16.53297,28.41666],[-16.54034,28.41683],[-16.54157,28.41964],[-16.53955,28.42039],[-16.54335,28.4211],[-16.54602,28.41751],[-16.54743,28.41727],[-16.54834,28.41881],[-16.5507,28.41773],[-16.54981,28.41983],[-16.5548,28.41892],[-16.55967,28.41457],[-16.55939,28.41308],[-16.56332,28.41084],[-16.566,28.41277],[-16.56652,28.4101],[-16.57055,28.40795],[-16.56827,28.39986],[-16.5647,28.39638],[-16.56413,28.39391],[-16.55861,28.39399],[-16.55744,28.39159],[-16.55444,28.39758],[-16.53872,28.39673],[-16.53289,28.40538],[-16.52002,28.40791],[-16.52226,28.41089],[-16.52313,28.41681],[-16.52329,28.41723]]]}},{"type":"Feature","properties":{"mun_code":"38043","mun_name":"Tacoronte","mun_name_local":null,"prov_code":"38","prov_name":"Santa Cruz de Tenerife","acom_code":"05","acom_name":"Canarias","geo_point_2d":{"lon":-16.400488516953647,"lat":28.480948836996212}},"geometry":{"type":"MultiPolygon","coordinates":[[[[-16.4107,28.52685],[-16.41565,28.52105],[-16.42141,28.51764],[-16.41992,28.51225],[-16.42157,28.50909],[-16.42295,28.50905],[-16.42128,28.50753],[-16.42338,28.50745],[-16.42297,28.50499],[-16.42472,28.50546],[-16.42373,28.50429],[-16.42643,28.50276],[-16.42432,28.50034],[-16.42666,28.49992],[-16.42605,28.49518],[-16.43059,28.48737],[-16.42669,28.48251],[-16.41874,28.47763],[-16.40954,28.46317],[-16.41045,28.46266],[-16.40634,28.44963],[-16.3964,28.43032],[-16.38456,28.44612],[-16.38545,28.45037],[-16.38254,28.45038],[-16.38338,28.45391],[-16.3771,28.47097],[-16.37247,28.47197],[-16.37467,28.49076],[-16.40002,28.50963],[-16.40872,28.52432],[-16.4107,28.52685]]]]}},{"type":"Feature","properties":{"mun_code":"38035","mun_name":"San Miguel de Abona","mun_name_local":null,"prov_code":"38","prov_name":"Santa Cruz de Tenerife","acom_code":"05","acom_name":"Canarias","geo_point_2d":{"lon":-16.622094720329265,"lat":28.07058487811396}},"geometry":{"type":"Polygon","coordinates":[[[-16.62007,28.13419],[-16.62154,28.13229],[-16.6205,28.13021],[-16.62291,28.12743],[-16.63121,28.12311],[-16.63272,28.12093],[-16.64169,28.11539],[-16.64206,28.10382],[-16.64088,28.10023],[-16.64297,28.08961],[-16.63951,28.07895],[-16.64164,28.07122],[-16.63774,28.06082],[-16.6387,28.00845],[-16.63168,28.00956],[-16.63178,28.01264],[-16.62679,28.01568],[-16.62536,28.01865],[-16.61934,28.01841],[-16.61646,28.02072],[-16.61449,28.02006],[-16.61463,28.02096],[-16.61093,28.02209],[-16.61053,28.02078],[-16.61489,28.01924],[-16.61298,28.01894],[-16.61007,28.02079],[-16.61017,28.02262],[-16.60732,28.02265],[-16.59727,28.02799],[-16.60076,28.03931],[-16.6069,28.04577],[-16.60528,28.04967],[-16.60666,28.05139],[-16.60597,28.06129],[-16.60174,28.0677],[-16.60371,28.07234],[-16.60306,28.07931],[-16.60411,28.08032],[-16.60232,28.08861],[-16.60035,28.09162],[-16.60108,28.09285],[-16.5998,28.0933],[-16.60167,28.09544],[-16.60072,28.10029],[-16.60339,28.10587],[-16.60701,28.108],[-16.60859,28.11181],[-16.61084,28.11295],[-16.61205,28.11788],[-16.61044,28.11854],[-16.61202,28.12099],[-16.61086,28.12295],[-16.6126,28.12349],[-16.61245,28.12629],[-16.61953,28.13391],[-16.62007,28.13419]]]}},{"type":"Feature","properties":{"mun_code":"38007","mun_name":"Barlovento","mun_name_local":null,"prov_code":"38","prov_name":"Santa Cruz de Tenerife","acom_code":"05","acom_name":"Canarias","geo_point_2d":{"lon":-17.82211071527734,"lat":28.80921251803328}},"geometry":{"type":"MultiPolygon","coordinates":[[[[-17.84807,28.83509],[-17.84737,28.8338],[-17.84896,28.83091],[-17.84673,28.82747],[-17.84793,28.82366],[-17.8496,28.82444],[-17.85057,28.82332],[-17.84771,28.8209],[-17.8489,28.81835],[-17.847,28.81706],[-17.85071,28.81628],[-17.84976,28.80974],[-17.85459,28.80598],[-17.85432,28.8017],[-17.8581,28.79961],[-17.85623,28.79707],[-17.8582,28.79592],[-17.85819,28.79218],[-17.86159,28.78579],[-17.85973,28.78342],[-17.86184,28.77091],[-17.857,28.76903],[-17.86355,28.76067],[-17.85334,28.75419],[-17.85099,28.75827],[-17.84323,28.76541],[-17.84033,28.77062],[-17.82943,28.78184],[-17.82578,28.78367],[-17.8246,28.78852],[-17.82059,28.79145],[-17.81303,28.7934],[-17.81452,28.79498],[-17.81025,28.7982],[-17.8111,28.79955],[-17.79786,28.804],[-17.79389,28.80276],[-17.78947,28.80436],[-17.78941,28.80637],[-17.78298,28.80854],[-17.78252,28.81001],[-17.78042,28.80938],[-17.77815,28.81277],[-17.77581,28.81277],[-17.7757,28.81507],[-17.76976,28.81919],[-17.77105,28.82145],[-17.76952,28.82488],[-17.77039,28.82573],[-17.7724,28.82385],[-17.77315,28.82559],[-17.77446,28.82548],[-17.77313,28.83218],[-17.77486,28.83094],[-17.77607,28.8323],[-17.77607,28.83492],[-17.77815,28.83752],[-17.77746,28.84023],[-17.78036,28.83903],[-17.78199,28.84108],[-17.78267,28.84012],[-17.78334,28.84105],[-17.78697,28.84035],[-17.78857,28.84392],[-17.79283,28.8416],[-17.79511,28.84296],[-17.79466,28.8417],[-17.79591,28.84111],[-17.7974,28.84326],[-17.7995,28.84388],[-17.80064,28.84194],[-17.80358,28.84193],[-17.80923,28.84529],[-17.8092,28.84187],[-17.81447,28.83924],[-17.82224,28.83999],[-17.82575,28.83776],[-17.83739,28.83509],[-17.8422,28.83478],[-17.84334,28.8364],[-17.84365,28.83542],[-17.84785,28.83519],[-17.84807,28.83509]]]]}},{"type":"Feature","properties":{"mun_code":"38052","mun_name":"Vilaflor de Chasna","mun_name_local":null,"prov_code":"38","prov_name":"Santa Cruz de Tenerife","acom_code":"05","acom_name":"Canarias","geo_point_2d":{"lon":-16.64747836235684,"lat":28.155660129403607}},"geometry":{"type":"Polygon","coordinates":[[[-16.68464,28.12064],[-16.67332,28.1124],[-16.65983,28.11297],[-16.64181,28.10454],[-16.64129,28.11625],[-16.63392,28.12008],[-16.63121,28.12311],[-16.62735,28.12436],[-16.6205,28.13021],[-16.62154,28.13229],[-16.62007,28.13419],[-16.62154,28.13887],[-16.62119,28.14373],[-16.61944,28.14604],[-16.6166,28.14622],[-16.61269,28.15237],[-16.61643,28.1592],[-16.61119,28.17201],[-16.61407,28.17613],[-16.61338,28.18725],[-16.61471,28.19583],[-16.6199,28.20115],[-16.61853,28.21373],[-16.62104,28.21188],[-16.62191,28.20691],[-16.63746,28.19985],[-16.64394,28.19836],[-16.66042,28.2013],[-16.66832,28.17427],[-16.67445,28.16792],[-16.67442,28.16492],[-16.67807,28.15916],[-16.67964,28.15291],[-16.68744,28.13915],[-16.68896,28.13039],[-16.68739,28.12981],[-16.68691,28.12237],[-16.6848,28.12081],[-16.68464,28.12064]]]}},{"type":"Feature","properties":{"mun_code":"38015","mun_name":"Garachico","mun_name_local":null,"prov_code":"38","prov_name":"Santa Cruz de Tenerife","acom_code":"05","acom_name":"Canarias","geo_point_2d":{"lon":-16.751302039753764,"lat":28.33214126740548}},"geometry":{"type":"MultiPolygon","coordinates":[[[[-16.79367,28.37486],[-16.79695,28.37214],[-16.79689,28.3688],[-16.79574,28.36568],[-16.79204,28.36375],[-16.79004,28.35969],[-16.78231,28.36147],[-16.77931,28.36552],[-16.77964,28.36783],[-16.77302,28.3696],[-16.76707,28.36856],[-16.7649,28.35314],[-16.7681,28.33253],[-16.7613,28.30945],[-16.75319,28.2975],[-16.74368,28.28798],[-16.73393,28.28589],[-16.72487,28.28069],[-16.70072,28.27144],[-16.72058,28.28791],[-16.7275,28.29554],[-16.72927,28.30231],[-16.73328,28.30506],[-16.74453,28.34594],[-16.74194,28.3511],[-16.73842,28.35426],[-16.74001,28.35532],[-16.74016,28.3653],[-16.73935,28.36837],[-16.73738,28.36823],[-16.73891,28.38033],[-16.74138,28.37965],[-16.74038,28.37817],[-16.74283,28.37826],[-16.74278,28.3759],[-16.74466,28.37584],[-16.74925,28.3713],[-16.75157,28.3707],[-16.75563,28.37393],[-16.75143,28.3729],[-16.75501,28.37494],[-16.76042,28.37415],[-16.76409,28.37559],[-16.76622,28.37429],[-16.76637,28.37259],[-16.76824,28.37274],[-16.76828,28.37087],[-16.77011,28.37145],[-16.76915,28.37282],[-16.77405,28.37466],[-16.77766,28.37443],[-16.77946,28.37303],[-16.78222,28.37539],[-16.78352,28.37446],[-16.78822,28.37538],[-16.79161,28.37335],[-16.79346,28.3747],[-16.79367,28.37486]]],[[[-16.76284,28.37866],[-16.7617,28.37964],[-16.7626,28.38065],[-16.76298,28.37882],[-16.76284,28.37866]]]]}},{"type":"Feature","properties":{"mun_code":"38047","mun_name":"Tijarafe","mun_name_local":null,"prov_code":"38","prov_name":"Santa Cruz de Tenerife","acom_code":"05","acom_name":"Canarias","geo_point_2d":{"lon":-17.945636748980583,"lat":28.711065616804664}},"geometry":{"type":"Polygon","coordinates":[[[-17.99258,28.74029],[-17.9911,28.73937],[-17.99182,28.73768],[-17.98997,28.73629],[-17.98944,28.73322],[-17.9857,28.73232],[-17.98553,28.73086],[-17.98173,28.72883],[-17.97968,28.72228],[-17.98049,28.71774],[-17.97364,28.71018],[-17.97477,28.70412],[-17.97108,28.70043],[-17.97139,28.69636],[-17.96821,28.69295],[-17.96952,28.6923],[-17.96832,28.69171],[-17.96886,28.69062],[-17.96984,28.69079],[-17.96762,28.69008],[-17.96505,28.68268],[-17.96749,28.68066],[-17.96429,28.6783],[-17.96285,28.67512],[-17.96259,28.67098],[-17.96421,28.66785],[-17.95836,28.66417],[-17.95543,28.65787],[-17.94997,28.65247],[-17.94465,28.65864],[-17.9372,28.66359],[-17.93087,28.67273],[-17.92241,28.67591],[-17.92059,28.68511],[-17.92385,28.68768],[-17.92347,28.69358],[-17.91591,28.70334],[-17.91559,28.70549],[-17.9124,28.70796],[-17.90826,28.71615],[-17.90937,28.71841],[-17.90851,28.7211],[-17.90282,28.72838],[-17.90214,28.73475],[-17.89834,28.73736],[-17.90019,28.74063],[-17.90278,28.74148],[-17.91085,28.74055],[-17.91865,28.7427],[-17.9279,28.74295],[-17.94434,28.74695],[-17.95176,28.74655],[-17.95463,28.75049],[-17.96432,28.74938],[-17.96602,28.75059],[-17.97039,28.74623],[-17.98913,28.74418],[-17.99193,28.74111],[-17.99258,28.74029]]]}},{"type":"Feature","properties":{"mun_code":"38039","mun_name":"Santa Úrsula","mun_name_local":null,"prov_code":"38","prov_name":"Santa Cruz de Tenerife","acom_code":"05","acom_name":"Canarias","geo_point_2d":{"lon":-16.47736225656678,"lat":28.406917507222992}},"geometry":{"type":"MultiPolygon","coordinates":[[[[-16.48783,28.43752],[-16.4893,28.43991],[-16.49163,28.43864],[-16.4938,28.44058],[-16.49433,28.43872],[-16.49753,28.43774],[-16.49907,28.43339],[-16.49801,28.43201],[-16.50239,28.42899],[-16.50263,28.4235],[-16.50891,28.41539],[-16.50727,28.41451],[-16.50875,28.41057],[-16.5058,28.40742],[-16.49663,28.40354],[-16.48648,28.39264],[-16.47634,28.38811],[-16.47568,28.38475],[-16.46764,28.37436],[-16.46349,28.37206],[-16.46087,28.37454],[-16.46113,28.37679],[-16.45759,28.38242],[-16.44993,28.38733],[-16.44921,28.3897],[-16.44315,28.39044],[-16.44321,28.39222],[-16.44631,28.39757],[-16.45726,28.4066],[-16.46175,28.41569],[-16.46172,28.41945],[-16.46295,28.41926],[-16.46542,28.42286],[-16.4703,28.42614],[-16.47633,28.42811],[-16.47971,28.42647],[-16.48437,28.43078],[-16.48795,28.43738],[-16.48783,28.43752]]]]}}]}