{"type":"FeatureCollection","features":[{"type":"Feature","properties":{"mun_code":"51001","mun_name":"Ceuta","mun_name_local":null,"prov_code":"51","prov_name":"Ceuta","acom_code":"18","acom_name":"Ciudad Autónoma de Ceuta","geo_point_2d":{"lon":-5.342897585055409,"lat":35.893599228713896}},"geometry":{"type":"Polygon","coordinates":[[[-5.38206,35.9124],[-5.37692,35.90498],[-5.37782,35.89598],[-5.37496,35.89383],[-5.37575,35.8893],[-5.37184,35.88143],[-5.36075,35.87749],[-5.35597,35.87287],[-5.35149,35.87279],[-5.35017,35.87557],[-5.34797,35.87217],[-5.34349,35.87074],[-5.33813,35.87819],[-5.33329,35.87956],[-5.32796,35.87828],[-5.32357,35.88121],[-5.32463,35.88221],[-5.3223,35.88346],[-5.32235,35.88501],[-5.31997,35.88677],[-5.31863,35.88597],[-5.31872,35.88733],[-5.30867,35.88422],[-5.30554,35.88461],[-5.30031,35.88604],[-5.2966,35.88977],[-5.29421,35.88861],[-5.2868,35.89096],[-5.28298,35.8949],[-5.28057,35.89437],[-5.2783,35.89797],[-5.27863,35.9006],[-5.28391,35.90098],[-5.28367,35.90301],[-5.28582,35.9035],[-5.28844,35.90716],[-5.29037,35.9041],[-5.29797,35.90136],[-5.30125,35.89498],[-5.30793,35.89557],[-5.302,35.89472],[-5.30244,35.89276],[-5.30327,35.89367],[-5.30753,35.89295],[-5.30708,35.89137],[-5.30843,35.89075],[-5.30936,35.8921],[-5.30857,35.89073],[-5.31007,35.8901],[-5.31512,35.89098],[-5.31309,35.89005],[-5.31352,35.88907],[-5.31623,35.88952],[-5.31562,35.89046],[-5.31776,35.89003],[-5.31488,35.89365],[-5.31741,35.89128],[-5.31932,35.89176],[-5.31796,35.89202],[-5.32471,35.89681],[-5.32302,35.89856],[-5.32008,35.89856],[-5.31234,35.89545],[-5.31123,35.89615],[-5.32296,35.89903],[-5.32492,35.90094],[-5.3326,35.89608],[-5.33328,35.89424],[-5.33551,35.89424],[-5.33949,35.89636],[-5.34168,35.89972],[-5.34382,35.90012],[-5.34756,35.90754],[-5.3558,35.91092],[-5.3649,35.91727],[-5.3671,35.91795],[-5.36919,35.91666],[-5.37593,35.91612],[-5.37829,35.91712],[-5.38195,35.91281],[-5.38206,35.9124]]]}}]}