{"type":"FeatureCollection","features":[{"type":"Feature","properties":{"mun_code":"52001","mun_name":"Melilla","mun_name_local":null,"prov_code":"52","prov_name":"Melilla","acom_code":"19","acom_name":"Ciudad Autónoma de Melilla","geo_point_2d":{"lon":-2.9504617388786456,"lat":35.29104614433053}},"geometry":{"type":"Polygon","coordinates":[[[-2.95264,35.3203],[-2.96005,35.31595],[-2.96366,35.30966],[-2.96758,35.30167],[-2.9703,35.28868],[-2.96525,35.28843],[-2.96485,35.28717],[-2.96767,35.28611],[-2.96849,35.28196],[-2.95415,35.27274],[-2.95054,35.26549],[-2.93882,35.26745],[-2.92758,35.27353],[-2.92416,35.28007],[-2.92755,35.27438],[-2.92937,35.27454],[-2.93323,35.27607],[-2.93175,35.27787],[-2.93351,35.27674],[-2.93703,35.28152],[-2.93693,35.283],[-2.93461,35.28322],[-2.93747,35.2831],[-2.93699,35.28675],[-2.93613,35.28757],[-2.93314,35.28657],[-2.93168,35.28899],[-2.93297,35.2872],[-2.93548,35.28787],[-2.93535,35.28961],[-2.93282,35.28854],[-2.93285,35.28975],[-2.93604,35.2903],[-2.93502,35.29266],[-2.93379,35.29148],[-2.9349,35.29081],[-2.93244,35.29082],[-2.93108,35.29095],[-2.93172,35.293],[-2.92944,35.29284],[-2.92856,35.29061],[-2.92525,35.29142],[-2.92416,35.28857],[-2.92317,35.28885],[-2.92471,35.2931],[-2.93212,35.29363],[-2.93374,35.29605],[-2.93455,35.29441],[-2.93565,35.29481],[-2.93493,35.29717],[-2.93748,35.30229],[-2.93895,35.3037],[-2.94224,35.30392],[-2.94716,35.30889],[-2.94469,35.31507],[-2.94949,35.31647],[-2.95239,35.31986],[-2.95264,35.3203]]]}}]}