{"type":"FeatureCollection","features":[{"type":"Feature","properties":{"mun_code":"54005","mun_name":"Peñón de Alhucemas","mun_name_local":null,"prov_code":"54","prov_name":"Territorio no asociado a ninguna provincia","acom_code":"20","acom_name":"Territorio no asociado a ninguna autonomía","geo_point_2d":{"lon":-3.8893757954188444,"lat":35.21341181277973}},"geometry":{"type":"Polygon","coordinates":[[[-3.88966,35.21306],[-3.88822,35.21345],[-3.89042,35.21328],[-3.88966,35.21306]]]}},{"type":"Feature","properties":{"mun_code":"54003","mun_name":"Islas Chafarinas","mun_name_local":null,"prov_code":"54","prov_name":"Territorio no asociado a ninguna provincia","acom_code":"20","acom_name":"Territorio no asociado a ninguna autonomía","geo_point_2d":{"lon":-2.4331522897111113,"lat":35.180355709386035}},"geometry":{"type":"MultiPolygon","coordinates":[[[[-2.43882,35.17496],[-2.43771,35.17646],[-2.43969,35.17835],[-2.44004,35.18332],[-2.44505,35.17899],[-2.4431,35.17664],[-2.43979,35.17654],[-2.43923,35.17524],[-2.43882,35.17496]]],[[[-2.4207,35.17817],[-2.41869,35.17926],[-2.41937,35.18028],[-2.42263,35.18001],[-2.42245,35.18464],[-2.42388,35.18499],[-2.42482,35.18197],[-2.42091,35.17841],[-2.4207,35.17817]]],[[[-2.42957,35.18007],[-2.42657,35.18267],[-2.43205,35.18405],[-2.43168,35.18102],[-2.42984,35.18013],[-2.42957,35.18007]]]]}},{"type":"Feature","properties":{"mun_code":"54001","mun_name":"Isla del Perejil","mun_name_local":null,"prov_code":"54","prov_name":"Territorio no asociado a ninguna provincia","acom_code":"20","acom_name":"Territorio no asociado a ninguna autonomía","geo_point_2d":{"lon":-5.418581453792937,"lat":35.91376193009577}},"geometry":{"type":"Polygon","coordinates":[[[-5.41795,35.91194],[-5.41608,35.91275],[-5.41762,35.91658],[-5.42179,35.91294],[-5.41857,35.91197],[-5.41795,35.91194]]]}},{"type":"Feature","properties":{"mun_code":"54002","mun_name":"Peñón de Vélez de la Gomera","mun_name_local":null,"prov_code":"54","prov_name":"Territorio no asociado a ninguna provincia","acom_code":"20","acom_name":"Territorio no asociado a ninguna autonomía","geo_point_2d":{"lon":-4.299041714912062,"lat":35.171972114301845}},"geometry":{"type":"Polygon","coordinates":[[[-4.29788,35.17045],[-4.29653,35.17193],[-4.30115,35.17319],[-4.29787,35.17067],[-4.29788,35.17045]]]}},{"type":"Feature","properties":{"mun_code":"54004","mun_name":"Islas Alhucemas","mun_name_local":null,"prov_code":"54","prov_name":"Territorio no asociado a ninguna provincia","acom_code":"20","acom_name":"Territorio no asociado a ninguna autonomía","geo_point_2d":{"lon":-3.9018074381258083,"lat":35.21622531454106}},"geometry":{"type":"MultiPolygon","coordinates":[[[[-3.90166,35.21575],[-3.90353,35.21495],[-3.90159,35.21529],[-3.90166,35.21575]]],[[[-3.90052,35.21798],[-3.90214,35.21715],[-3.90018,35.2177],[-3.90052,35.21798]]]]}}]}