{"type":"FeatureCollection","features":[{"type":"Feature","properties":{"acom_code":"16","acom_name":"País Vasco","acom_iso3166_code":"PV"},"geometry":{"type":"MultiPolygon","coordinates":[[[[-3.41761,43.13332],[-3.27815,43.19433],[-3.2503,43.19689],[-3.22409,43.17013],[-3.14829,43.174],[-3.18179,43.12088],[-3.13394,43.09723],[-3.15809,43.07372],[-3.14019,43.06671],[-3.14186,43.02981],[-3.1778,43.02198],[-3.06152,43.00357],[-3.04187,42.96922],[-2.98142,42.93988],[-3.01891,42.90851],[-3.08952,42.899],[-3.14956,42.91732],[-3.14473,42.93468],[-3.22473,42.94969],[-3.28261,42.87551],[-3.20553,42.8274],[-3.22218,42.83864],[-3.19069,42.86946],[-3.16282,42.85674],[-3.11494,42.88925],[-3.11315,42.86106],[-3.15923,42.80459],[-3.12361,42.7888],[-3.14791,42.7567],[-3.04762,42.76504],[-3.04209,42.73958],[-3.01588,42.73999],[-2.9806,42.70348],[-2.93202,42.70848],[-2.9025,42.6936],[-2.89674,42.65478],[-2.84292,42.62972],[-2.8418,42.6086],[-2.81877,42.61272],[-2.84073,42.58082],[-2.82483,42.55463],[-2.77768,42.58225],[-2.76393,42.62244],[-2.68177,42.59539],[-2.70572,42.51666],[-2.67799,42.5265],[-2.64818,42.48366],[-2.60536,42.5035],[-2.5935,42.47236],[-2.5684,42.49408],[-2.5294,42.48405],[-2.51059,42.51993],[-2.51579,42.49068],[-2.42058,42.48923],[-2.42206,42.51172],[-2.3922,42.51695],[-2.39675,42.5991],[-2.42112,42.60712],[-2.45324,42.56711],[-2.46221,42.58739],[-2.4907,42.58769],[-2.50008,42.61648],[-2.48307,42.61216],[-2.4158,42.66268],[-2.37626,42.65071],[-2.38195,42.6343],[-2.28848,42.65507],[-2.32416,42.72231],[-2.31685,42.73935],[-2.26208,42.74898],[-2.28101,42.78513],[-2.23269,42.84382],[-2.25307,42.89277],[-2.23216,42.93179],[-2.19914,42.95118],[-2.18096,42.93513],[-2.11697,42.94227],[-2.09532,42.97227],[-2.03834,42.98099],[-2.02282,43.06519],[-1.90222,43.13551],[-1.92069,43.15063],[-1.91415,43.22517],[-1.88115,43.20784],[-1.86876,43.23024],[-1.86044,43.21285],[-1.79525,43.24632],[-1.78324,43.28682],[-1.72937,43.29382],[-1.73738,43.33016],[-1.78924,43.35298],[-1.79329,43.39423],[-1.86613,43.37151],[-1.92378,43.33204],[-1.9624,43.33815],[-1.98915,43.3166],[-2.03032,43.32101],[-2.1305,43.28746],[-2.18925,43.29237],[-2.20162,43.31159],[-2.35221,43.29871],[-2.45974,43.33557],[-2.50947,43.37723],[-2.61877,43.39192],[-2.64631,43.41594],[-2.69616,43.40699],[-2.75206,43.45695],[-2.80811,43.43056],[-2.94544,43.43567],[-2.94747,43.41184],[-3.03683,43.37396],[-3.01259,43.34774],[-3.02072,43.32554],[-3.07285,43.3599],[-3.04976,43.35945],[-3.10356,43.36373],[-3.08408,43.37797],[-3.11477,43.35048],[-3.15329,43.35332],[-3.15146,43.30717],[-3.20945,43.28361],[-3.33746,43.29804],[-3.33887,43.27834],[-3.45015,43.23621],[-3.42183,43.15125],[-3.41761,43.13332]],[[-2.86424,42.74391],[-2.83547,42.79627],[-2.82681,42.78445],[-2.7317,42.79449],[-2.64401,42.76468],[-2.60334,42.77013],[-2.58937,42.75032],[-2.5583,42.76273],[-2.60898,42.69586],[-2.57777,42.66821],[-2.52202,42.68403],[-2.5174,42.64633],[-2.63485,42.6478],[-2.65846,42.67239],[-2.7679,42.66601],[-2.7845,42.69894],[-2.86886,42.74014],[-2.86424,42.74391]],[[-3.27722,43.26351],[-3.24918,43.25965],[-3.28482,43.19717],[-3.30572,43.2527],[-3.27909,43.2619],[-3.27722,43.26351]]]]}},{"type":"Feature","properties":{"acom_code":"03","acom_name":"Principado de Asturias","acom_iso3166_code":"AS"},"geometry":{"type":"MultiPolygon","coordinates":[[[[-7.03319,43.54473],[-7.04707,43.47782],[-7.09022,43.45527],[-7.10269,43.42701],[-7.17284,43.43023],[-7.1824,43.39307],[-7.12753,43.3726],[-7.13075,43.33025],[-7.10127,43.30413],[-7.05978,43.30533],[-7.06159,43.24405],[-7.02055,43.21407],[-7.00958,43.22288],[-6.97102,43.20425],[-6.98069,43.16685],[-6.95727,43.1351],[-6.88588,43.15683],[-6.87111,43.18882],[-6.83891,43.16614],[-6.82761,43.12315],[-6.91555,43.07326],[-6.93947,43.08532],[-6.96885,43.05688],[-6.96507,43.03477],[-6.98217,43.04141],[-6.9969,43.01957],[-6.96188,42.99093],[-6.95678,43.03656],[-6.91,42.9899],[-6.87131,42.98869],[-6.83578,42.95771],[-6.83576,42.91634],[-6.77067,42.89862],[-6.77285,42.88254],[-6.72319,42.91738],[-6.63878,42.92546],[-6.54657,42.91215],[-6.4331,42.93976],[-6.43364,42.96416],[-6.47301,42.96775],[-6.47732,42.9919],[-6.42413,42.98762],[-6.39707,43.03808],[-6.36044,43.0584],[-6.32649,43.03133],[-6.28519,43.03637],[-6.22681,43.00891],[-6.2164,43.04696],[-6.1784,43.0478],[-6.13667,43.02099],[-6.09596,43.03128],[-6.08129,43.0759],[-6.02093,43.05379],[-5.98735,43.06747],[-5.96433,43.05642],[-5.95579,43.01721],[-5.91275,42.99242],[-5.80401,42.96262],[-5.76028,42.97267],[-5.72826,43.04249],[-5.6931,43.05634],[-5.56649,43.0217],[-5.4938,43.02124],[-5.47852,43.05491],[-5.39045,43.04934],[-5.36914,43.09458],[-5.28212,43.07743],[-5.2166,43.08449],[-5.1478,43.11512],[-5.10174,43.10185],[-5.07663,43.17895],[-5.02146,43.18351],[-4.99762,43.17026],[-4.98221,43.19875],[-4.90891,43.23786],[-4.87101,43.22802],[-4.84102,43.18078],[-4.74352,43.18443],[-4.72101,43.22951],[-4.73012,43.25505],[-4.63782,43.26706],[-4.60756,43.29863],[-4.55562,43.28823],[-4.53821,43.26921],[-4.51857,43.29404],[-4.53985,43.35587],[-4.51045,43.38175],[-4.51854,43.39574],[-4.65238,43.4007],[-4.83929,43.44657],[-5.04515,43.46169],[-5.12276,43.48447],[-5.21576,43.47482],[-5.29529,43.53507],[-5.38822,43.52974],[-5.41325,43.55487],[-5.49307,43.54427],[-5.61715,43.5578],[-5.67917,43.54123],[-5.70126,43.56615],[-5.67559,43.58669],[-5.7347,43.57343],[-5.79104,43.61466],[-5.78079,43.62885],[-5.82807,43.63945],[-5.84208,43.65937],[-5.87835,43.62568],[-5.91488,43.62362],[-5.95633,43.57976],[-5.9957,43.57418],[-6.01738,43.58793],[-6.11238,43.55566],[-6.18571,43.5637],[-6.18812,43.57946],[-6.24462,43.59514],[-6.2568,43.57747],[-6.35799,43.55116],[-6.42975,43.55276],[-6.47009,43.57115],[-6.4745,43.55026],[-6.53528,43.54621],[-6.62495,43.57235],[-6.80977,43.55455],[-6.94608,43.57498],[-6.97406,43.55675],[-7.02224,43.55935],[-7.03015,43.54429],[-7.03319,43.54473]]]]}},{"type":"Feature","properties":{"acom_code":"10","acom_name":"Comunitat Valenciana","acom_iso3166_code":"VC"},"geometry":{"type":"MultiPolygon","coordinates":[[[[-0.76233,37.84663],[-0.74917,37.89958],[-0.71953,37.91211],[-0.69651,37.96968],[-0.64765,38.00006],[-0.64405,38.10247],[-0.61558,38.17157],[-0.50972,38.20254],[-0.50921,38.32763],[-0.49448,38.32091],[-0.44607,38.36258],[-0.40403,38.35236],[-0.40457,38.40145],[-0.37501,38.44304],[-0.15008,38.53558],[-0.09666,38.524],[-0.04867,38.5636],[-0.06174,38.58205],[-0.01598,38.6266],[0.03053,38.62625],[0.05062,38.64125],[0.08202,38.63089],[0.09399,38.66952],[0.14887,38.67941],[0.16746,38.71056],[0.23336,38.73748],[0.22361,38.76405],[0.19072,38.77278],[0.19635,38.80484],[0.09491,38.85369],[-0.01691,38.87295],[-0.16111,38.99242],[-0.23864,39.14318],[-0.23832,39.17671],[-0.21628,39.18634],[-0.29667,39.31761],[-0.33693,39.4252],[-0.30915,39.42973],[-0.33029,39.43519],[-0.32308,39.45834],[-0.30275,39.43535],[-0.30424,39.46026],[-0.33142,39.45981],[-0.3227,39.50181],[-0.26118,39.61279],[-0.23695,39.63661],[-0.21559,39.62919],[-0.18145,39.73452],[-0.08638,39.85642],[-0.0115,39.90811],[0.01721,39.97436],[0.02927,39.9598],[0.05007,40.03569],[0.14755,40.08291],[0.19051,40.17043],[0.26369,40.20833],[0.27908,40.2448],[0.40845,40.35735],[0.41858,40.40149],[0.51314,40.51596],[0.43696,40.54793],[0.44394,40.57822],[0.40196,40.60238],[0.27904,40.6298],[0.26771,40.65816],[0.29227,40.68719],[0.26245,40.70592],[0.23964,40.70092],[0.22408,40.73233],[0.14456,40.71833],[0.11502,40.72774],[0.04217,40.69101],[0.01661,40.72771],[-0.0647,40.72741],[-0.16496,40.78863],[-0.19718,40.78446],[-0.22403,40.75416],[-0.23599,40.69111],[-0.307,40.6595],[-0.32882,40.68028],[-0.37796,40.66754],[-0.37048,40.61359],[-0.2933,40.61076],[-0.30216,40.51493],[-0.27151,40.47846],[-0.34698,40.44327],[-0.28233,40.36446],[-0.40007,40.29589],[-0.38373,40.26423],[-0.49452,40.22873],[-0.54419,40.25166],[-0.57864,40.13733],[-0.6287,40.1021],[-0.61347,40.06959],[-0.68143,40.04513],[-0.7545,40.04564],[-0.77765,39.99841],[-0.8378,39.97681],[-0.84042,39.92495],[-0.79769,39.88107],[-0.86356,39.84741],[-0.91205,39.87146],[-0.90266,39.93185],[-0.92045,39.9644],[-1.05758,39.98048],[-1.20412,39.94937],[-1.19998,39.85943],[-1.215,39.80877],[-1.27541,39.73864],[-1.2679,39.69115],[-1.31283,39.67048],[-1.36853,39.68961],[-1.41793,39.65494],[-1.46208,39.57662],[-1.52105,39.54996],[-1.50242,39.54611],[-1.49942,39.50266],[-1.52878,39.4544],[-1.52154,39.43239],[-1.49783,39.42927],[-1.49969,39.41542],[-1.48342,39.42257],[-1.47352,39.39143],[-1.45398,39.4003],[-1.45527,39.36249],[-1.43167,39.3774],[-1.42617,39.36318],[-1.41272,39.38044],[-1.33628,39.3338],[-1.31186,39.34272],[-1.22364,39.31607],[-1.20642,39.32598],[-1.16193,39.30557],[-1.18083,39.21182],[-1.25572,39.10617],[-1.2639,39.04509],[-1.22654,39.02467],[-1.14716,38.92912],[-0.95939,38.94429],[-0.92432,38.89159],[-0.92914,38.78365],[-0.9617,38.77452],[-0.91579,38.69596],[-0.96247,38.65693],[-1.0261,38.65567],[-1.00145,38.57263],[-1.026,38.52282],[-1.01396,38.49673],[-1.09412,38.43795],[-1.07721,38.43147],[-1.08806,38.36777],[-1.0843,38.3462],[-0.98899,38.32068],[-0.96765,38.27566],[-0.98887,38.19926],[-1.03675,38.13771],[-1.0226,38.07569],[-0.90018,37.92313],[-0.82943,37.86397],[-0.77012,37.84409],[-0.76233,37.84663]]],[[[-1.44886,40.14534],[-1.45621,40.13095],[-1.4076,40.1014],[-1.42029,40.09351],[-1.36434,40.01218],[-1.19175,40.00153],[-1.0717,40.05159],[-1.14985,40.11478],[-1.24551,40.11668],[-1.24548,40.14707],[-1.28434,40.1715],[-1.29652,40.21075],[-1.32299,40.18486],[-1.31659,40.14966],[-1.3546,40.12947],[-1.44555,40.14359],[-1.44886,40.14534]]]]}},{"type":"Feature","properties":{"acom_code":"18","acom_name":"Ciudad Autónoma de Ceuta","acom_iso3166_code":"CE"},"geometry":{"type":"Polygon","coordinates":[[[-5.38206,35.9124],[-5.37184,35.88143],[-5.34349,35.87074],[-5.2783,35.89797],[-5.2878,35.90694],[-5.31352,35.88907],[-5.37967,35.91463],[-5.38206,35.9124]]]}},{"type":"Feature","properties":{"acom_code":"19","acom_name":"Ciudad Autónoma de Melilla","acom_iso3166_code":"ML"},"geometry":{"type":"Polygon","coordinates":[[[-2.95264,35.3203],[-2.9703,35.28868],[-2.95054,35.26549],[-2.92947,35.2718],[-2.92524,35.29327],[-2.95052,35.31849],[-2.95264,35.3203]]]}},{"type":"Feature","properties":{"acom_code":"14","acom_name":"Región de Murcia","acom_iso3166_code":"MC"},"geometry":{"type":"MultiPolygon","coordinates":[[[[-1.63012,37.37523],[-1.51901,37.43178],[-1.48748,37.42224],[-1.45991,37.48635],[-1.32358,37.56336],[-1.2565,37.55759],[-1.24633,37.57604],[-1.21373,37.57532],[-1.17394,37.56297],[-1.16752,37.5427],[-1.11106,37.53408],[-1.12715,37.55213],[-1.1087,37.56933],[-1.07428,37.58412],[-1.01521,37.57395],[-0.98508,37.58542],[-0.99115,37.60082],[-0.95241,37.56789],[-0.97176,37.55965],[-0.91969,37.5542],[-0.87875,37.57635],[-0.82008,37.57501],[-0.73185,37.6015],[-0.68858,37.6358],[-0.73119,37.67784],[-0.73838,37.73341],[-0.72156,37.73982],[-0.74647,37.78075],[-0.72654,37.63557],[-0.80277,37.6582],[-0.85703,37.71336],[-0.79526,37.81126],[-0.77566,37.81906],[-0.75003,37.78995],[-0.76233,37.84663],[-0.85722,37.88522],[-1.0226,38.07569],[-1.03675,38.13771],[-0.98887,38.19926],[-0.96765,38.27566],[-0.98899,38.32068],[-1.0843,38.3462],[-1.07721,38.43147],[-1.09412,38.43795],[-1.01396,38.49673],[-1.026,38.52282],[-1.00145,38.57263],[-1.01604,38.63512],[-1.11578,38.71141],[-1.11967,38.73769],[-1.18378,38.75508],[-1.24969,38.73865],[-1.34308,38.67741],[-1.36655,38.70397],[-1.3838,38.69923],[-1.44768,38.64948],[-1.45202,38.58146],[-1.48799,38.56288],[-1.49875,38.53207],[-1.47843,38.37644],[-1.55876,38.32504],[-1.5895,38.3099],[-1.66971,38.31177],[-1.69323,38.33782],[-1.68771,38.36543],[-1.70396,38.3747],[-1.71976,38.36344],[-1.74392,38.3808],[-1.79451,38.36894],[-1.78408,38.35585],[-1.90745,38.2977],[-1.98258,38.28118],[-2.04857,38.30569],[-2.11288,38.23768],[-2.21329,38.20205],[-2.26567,38.10884],[-2.32899,38.06748],[-2.34188,38.0384],[-2.24738,37.93422],[-2.17215,37.88865],[-2.12261,37.9],[-2.09727,37.8769],[-2.02244,37.86877],[-1.99494,37.88027],[-1.97422,37.86847],[-1.99951,37.82314],[-1.99583,37.72805],[-2.01265,37.7006],[-1.97681,37.61873],[-1.84509,37.45502],[-1.80856,37.43353],[-1.81176,37.45156],[-1.73708,37.44263],[-1.64087,37.38239],[-1.63012,37.37523]]],[[[-0.77139,37.69099],[-0.77079,37.70275],[-0.77476,37.69294],[-0.77139,37.69099]]]]}},{"type":"Feature","properties":{"acom_code":"04","acom_name":"Illes Balears","acom_iso3166_code":"IB"},"geometry":{"type":"MultiPolygon","coordinates":[[[[1.21286,38.97726],[1.21364,38.99527],[1.21029,38.97859],[1.21286,38.97726]]],[[[1.43224,38.77482],[1.42199,38.79729],[1.43,38.77661],[1.43224,38.77482]]],[[[1.40977,38.89028],[1.43815,38.91576],[1.45661,38.90373],[1.45444,38.91663],[1.52758,38.94519],[1.53241,38.98133],[1.58134,38.98934],[1.58449,39.01487],[1.62123,39.02762],[1.58879,39.06073],[1.60848,39.0778],[1.59391,39.09674],[1.55714,39.09331],[1.53253,39.11839],[1.49688,39.09851],[1.48843,39.11054],[1.46364,39.1016],[1.44053,39.08051],[1.42636,39.09257],[1.37516,39.06227],[1.35811,39.07372],[1.29041,39.02723],[1.28446,38.99386],[1.30653,38.97241],[1.23062,38.97345],[1.21518,38.95862],[1.23648,38.93879],[1.21401,38.89801],[1.24851,38.85586],[1.27178,38.87944],[1.32215,38.85969],[1.34312,38.87108],[1.37154,38.83108],[1.38434,38.84238],[1.40531,38.83165],[1.40504,38.88132],[1.40977,38.89028]]],[[[1.38802,38.64102],[1.44718,38.68499],[1.53369,38.65173],[1.5706,38.6505],[1.58472,38.66978],[1.56906,38.69162],[1.53039,38.67282],[1.49265,38.69089],[1.43251,38.77131],[1.41803,38.72196],[1.39455,38.7338],[1.38014,38.71812],[1.38475,38.64206],[1.38802,38.64102]]],[[[1.47945,38.78835],[1.47576,38.80097],[1.47774,38.78985],[1.47945,38.78835]]],[[[2.30486,39.57248],[2.33757,39.59837],[2.30355,39.57261],[2.30486,39.57248]]],[[[2.59777,39.54798],[2.63212,39.54509],[2.64146,39.56882],[2.63437,39.55961],[2.67015,39.562],[2.73984,39.52015],[2.75145,39.5048],[2.722,39.47572],[2.74731,39.44147],[2.73919,39.41284],[2.78734,39.36306],[2.95949,39.36189],[2.9908,39.33677],[2.98624,39.31585],[3.06504,39.26565],[3.14132,39.32562],[3.23148,39.36124],[3.26096,39.42403],[3.27481,39.41587],[3.29638,39.49992],[3.37814,39.57519],[3.40329,39.57861],[3.38586,39.58873],[3.39393,39.62259],[3.43668,39.63512],[3.45671,39.70551],[3.47853,39.71521],[3.4532,39.72164],[3.45733,39.74409],[3.34812,39.78937],[3.32879,39.75975],[3.25259,39.72937],[3.13507,39.78267],[3.12066,39.83191],[3.17973,39.84188],[3.20334,39.8904],[3.10645,39.85761],[3.0803,39.90163],[3.20225,39.94383],[3.21338,39.96253],[3.06069,39.9203],[3.06056,39.93267],[3.02827,39.93509],[2.98278,39.90827],[2.95069,39.92009],[2.84501,39.86174],[2.77837,39.85559],[2.77609,39.84031],[2.69832,39.8092],[2.69474,39.79152],[2.66926,39.79209],[2.58583,39.7165],[2.52798,39.7016],[2.34463,39.58723],[2.34776,39.56365],[2.3901,39.54622],[2.36422,39.53135],[2.38813,39.53392],[2.38768,39.5209],[2.41284,39.53855],[2.42293,39.52313],[2.45548,39.53497],[2.47915,39.51854],[2.45798,39.50499],[2.47915,39.49194],[2.4762,39.46624],[2.50986,39.45832],[2.53886,39.52238],[2.59592,39.54686],[2.59777,39.54798]]],[[[2.94638,39.12564],[2.97653,39.15818],[2.95099,39.16571],[2.93009,39.14345],[2.91803,39.16074],[2.9195,39.12895],[2.94178,39.12766],[2.94638,39.12564]]],[[[2.96093,39.17588],[2.97162,39.18872],[2.95908,39.17839],[2.96093,39.17588]]],[[[4.15635,39.85505],[4.27539,39.80942],[4.30305,39.83188],[4.3074,39.86456],[4.2581,39.89528],[4.29499,39.89094],[4.31035,39.87004],[4.32774,39.877],[4.25475,39.96478],[4.26679,39.99839],[4.22166,39.99639],[4.20683,40.01267],[4.20139,39.99577],[4.19531,40.03221],[4.18171,40.02184],[4.1608,40.03348],[4.17262,40.06058],[4.13758,40.06729],[4.12778,40.02611],[4.13353,40.06325],[4.10336,40.04448],[4.08203,40.0894],[4.08952,40.06914],[4.05428,40.05219],[4.03041,40.06515],[3.97873,40.0511],[3.93225,40.06234],[3.92085,40.04537],[3.89897,40.05938],[3.82582,40.05275],[3.79228,40.01948],[3.79464,39.99999],[3.83478,39.97969],[3.82245,39.92319],[3.95721,39.93832],[4.15068,39.85834],[4.15635,39.85505]]]]}},{"type":"Feature","properties":{"acom_code":"12","acom_name":"Galicia","acom_iso3166_code":"GA"},"geometry":{"type":"MultiPolygon","coordinates":[[[[-7.03319,43.54473],[-7.05616,43.55872],[-7.15799,43.55393],[-7.23451,43.56886],[-7.25575,43.54689],[-7.24662,43.57517],[-7.33756,43.6313],[-7.3571,43.67121],[-7.47203,43.7041],[-7.46716,43.72324],[-7.51381,43.71913],[-7.52434,43.7368],[-7.5845,43.71184],[-7.5988,43.66343],[-7.63341,43.75084],[-7.70135,43.73561],[-7.66231,43.77481],[-7.68718,43.78987],[-7.72383,43.74971],[-7.81203,43.72641],[-7.82951,43.7094],[-7.81493,43.69515],[-7.83699,43.69639],[-7.83404,43.71105],[-7.85856,43.70664],[-7.84314,43.67252],[-7.88434,43.66276],[-7.90448,43.67135],[-7.87186,43.67199],[-7.89197,43.68471],[-7.87779,43.72119],[-7.84987,43.71765],[-7.872,43.73534],[-7.86487,43.76894],[-7.90457,43.76887],[-7.92273,43.74323],[-7.95059,43.74178],[-8.00039,43.70511],[-8.06392,43.70417],[-8.07585,43.66041],[-8.05387,43.64894],[-8.07672,43.64401],[-8.09296,43.66632],[-8.15551,43.61528],[-8.18775,43.62148],[-8.25946,43.55821],[-8.32483,43.56152],[-8.29633,43.53538],[-8.32854,43.5185],[-8.34079,43.45859],[-8.2669,43.46776],[-8.24786,43.49322],[-8.24859,43.47619],[-8.2007,43.47726],[-8.15313,43.51297],[-8.20201,43.45987],[-8.25517,43.46611],[-8.31652,43.44508],[-8.25628,43.41929],[-8.17355,43.41973],[-8.22068,43.39151],[-8.21042,43.32728],[-8.30702,43.40455],[-8.35,43.39683],[-8.33869,43.37165],[-8.35607,43.34354],[-8.38596,43.33899],[-8.40182,43.38924],[-8.40689,43.36999],[-8.43976,43.3815],[-8.47514,43.35302],[-8.49433,43.35967],[-8.53372,43.31644],[-8.60718,43.32234],[-8.71159,43.28997],[-8.78808,43.30537],[-8.84035,43.34514],[-8.84857,43.31949],[-8.91202,43.32055],[-8.90613,43.29527],[-8.92631,43.283],[-8.95556,43.29275],[-8.99129,43.27474],[-8.95395,43.26354],[-8.93975,43.22687],[-8.98084,43.22935],[-8.99391,43.21623],[-9.01015,43.23344],[-9.05947,43.18509],[-9.13037,43.19809],[-9.17272,43.1903],[-9.19909,43.15459],[-9.21371,43.16202],[-9.19293,43.12217],[-9.16486,43.15168],[-9.16687,43.1058],[-9.18928,43.08999],[-9.22126,43.1131],[-9.22082,43.08857],[-9.25771,43.09074],[-9.26223,43.04838],[-9.30134,43.04945],[-9.25723,43.00238],[-9.29791,42.92317],[-9.27549,42.91027],[-9.27374,42.88061],[-9.23332,42.94092],[-9.18905,42.91531],[-9.19099,42.9519],[-9.1734,42.94388],[-9.16061,42.91175],[-9.12553,42.90512],[-9.14945,42.86955],[-9.10819,42.8355],[-9.11218,42.81299],[-9.15105,42.79805],[-9.08943,42.73842],[-9.04789,42.76968],[-9.06388,42.78691],[-9.02055,42.80067],[-9.01822,42.78252],[-8.98196,42.77847],[-8.97424,42.79124],[-8.96312,42.77857],[-8.93513,42.80533],[-8.9088,42.79649],[-8.90125,42.82894],[-8.89044,42.81571],[-8.87813,42.82609],[-9.02953,42.70142],[-9.04154,42.63547],[-9.09104,42.57797],[-9.03926,42.56556],[-9.0426,42.51928],[-8.98927,42.53576],[-8.9883,42.56584],[-8.91987,42.58715],[-8.93715,42.60731],[-8.9012,42.64335],[-8.87349,42.63238],[-8.88835,42.6141],[-8.85716,42.60734],[-8.85893,42.6266],[-8.83817,42.63247],[-8.86107,42.64616],[-8.84245,42.68676],[-8.81482,42.66392],[-8.82237,42.64616],[-8.79462,42.63674],[-8.74743,42.65224],[-8.72555,42.68762],[-8.77803,42.61392],[-8.77222,42.59324],[-8.83003,42.57531],[-8.82861,42.51832],[-8.81369,42.52844],[-8.80553,42.50077],[-8.83068,42.48472],[-8.82003,42.45172],[-8.86992,42.4487],[-8.86334,42.49848],[-8.90926,42.47533],[-8.93639,42.47928],[-8.9407,42.46306],[-8.88257,42.45481],[-8.88107,42.4152],[-8.83869,42.38431],[-8.81332,42.40117],[-8.77471,42.38766],[-8.69518,42.43768],[-8.68137,42.42119],[-8.65195,42.42811],[-8.72547,42.38523],[-8.75536,42.33985],[-8.79113,42.32704],[-8.83655,42.34064],[-8.81684,42.27888],[-8.85652,42.30935],[-8.87307,42.25006],[-8.85519,42.26141],[-8.79399,42.24765],[-8.73148,42.28669],[-8.68967,42.28],[-8.65181,42.29775],[-8.66227,42.31071],[-8.63685,42.34743],[-8.61187,42.34521],[-8.614,42.28567],[-8.66119,42.28488],[-8.71274,42.24105],[-8.77505,42.2219],[-8.82251,42.15708],[-8.85069,42.15502],[-8.82013,42.14138],[-8.82662,42.11474],[-8.85232,42.12807],[-8.90057,42.11234],[-8.87304,41.86978],[-8.75451,41.93376],[-8.74512,41.96438],[-8.66428,42.00155],[-8.63574,42.04774],[-8.54605,42.05419],[-8.52365,42.078],[-8.33203,42.08372],[-8.32237,42.10172],[-8.19867,42.15429],[-8.1822,42.06508],[-8.11869,42.08232],[-8.08445,42.04734],[-8.08603,42.0165],[-8.16258,41.98284],[-8.21683,41.91345],[-8.19933,41.8737],[-8.1693,41.87652],[-8.16501,41.81812],[-8.1309,41.80887],[-8.01315,41.8295],[-7.98769,41.86922],[-7.92125,41.8778],[-7.90634,41.9271],[-7.88468,41.92432],[-7.89224,41.8602],[-7.87288,41.84661],[-7.84518,41.88128],[-7.70084,41.90767],[-7.65386,41.8812],[-7.58586,41.88186],[-7.61143,41.82919],[-7.52068,41.84216],[-7.50222,41.86939],[-7.45249,41.86509],[-7.428,41.80817],[-7.36578,41.85279],[-7.35644,41.84053],[-7.31501,41.84283],[-7.19673,41.87998],[-7.17342,41.91921],[-7.17942,41.97956],[-7.14145,41.99076],[-7.0875,41.97348],[-7.07343,41.95],[-7.00624,41.95057],[-6.96114,42.0272],[-6.97479,42.05516],[-7.01267,42.05271],[-7.03358,42.07424],[-7.00247,42.08436],[-6.98616,42.12403],[-6.94865,42.13559],[-6.94385,42.17186],[-6.90085,42.18947],[-6.88656,42.21454],[-6.84364,42.22831],[-6.78699,42.21591],[-6.80308,42.23904],[-6.74115,42.29866],[-6.73395,42.35911],[-6.84156,42.40288],[-6.81465,42.42694],[-6.8086,42.46945],[-6.82669,42.49296],[-6.86056,42.48909],[-6.9322,42.52054],[-6.96051,42.5175],[-6.97854,42.49325],[-7.07502,42.50817],[-7.06668,42.55356],[-7.03356,42.58409],[-7.047,42.6327],[-7.00436,42.64287],[-7.04519,42.69477],[-7.01089,42.72366],[-6.97288,42.72501],[-6.95948,42.75503],[-6.9356,42.74086],[-6.86743,42.78717],[-6.84134,42.83235],[-6.87128,42.87384],[-6.81405,42.87169],[-6.84198,42.90636],[-6.82419,42.91506],[-6.84183,42.92845],[-6.83578,42.95771],[-6.86476,42.98386],[-6.91,42.9899],[-6.95678,43.03656],[-6.96188,42.99093],[-6.9969,43.01957],[-6.98217,43.04141],[-6.96507,43.03477],[-6.96885,43.05688],[-6.93947,43.08532],[-6.91555,43.07326],[-6.87165,43.09102],[-6.82212,43.14333],[-6.86709,43.18966],[-6.88588,43.15683],[-6.95727,43.1351],[-6.98069,43.16685],[-6.97102,43.20425],[-7.00958,43.22288],[-7.02055,43.21407],[-7.06159,43.24405],[-7.05978,43.30533],[-7.10127,43.30413],[-7.13075,43.33025],[-7.12753,43.3726],[-7.1824,43.39307],[-7.17284,43.43023],[-7.10269,43.42701],[-7.09022,43.45527],[-7.04707,43.47782],[-7.03371,43.54324],[-7.03319,43.54473]]],[[[-9.01116,42.46378],[-9.01468,42.48461],[-9.01488,42.46426],[-9.01116,42.46378]]],[[[-8.93927,42.35601],[-8.9205,42.39937],[-8.94511,42.37998],[-8.94101,42.35809],[-8.93927,42.35601]]],[[[-8.89359,42.19154],[-8.91249,42.20593],[-8.89512,42.19322],[-8.89359,42.19154]]],[[[-8.91433,42.21209],[-8.89551,42.22754],[-8.91397,42.25146],[-8.91709,42.21293],[-8.91433,42.21209]]],[[[-8.87144,42.52537],[-8.85597,42.5661],[-8.87597,42.57474],[-8.87541,42.52859],[-8.87144,42.52537]]],[[[-8.84819,42.48213],[-8.84279,42.50056],[-8.85273,42.48324],[-8.84819,42.48213]]]]}},{"type":"Feature","properties":{"acom_code":"05","acom_name":"Canarias","acom_iso3166_code":"CN"},"geometry":{"type":"MultiPolygon","coordinates":[[[[-17.96104,27.69253],[-17.95733,27.71957],[-17.927,27.73226],[-17.8833,27.80415],[-17.91697,27.84761],[-17.99198,27.82225],[-17.98907,27.79973],[-18.03657,27.76202],[-18.08227,27.75313],[-18.13242,27.77116],[-18.15429,27.75531],[-18.15657,27.71091],[-18.05058,27.69271],[-17.98671,27.63773],[-17.96329,27.69128],[-17.96104,27.69253]]],[[[-17.88789,28.55158],[-17.86738,28.4719],[-17.84055,28.45282],[-17.76009,28.56987],[-17.75018,28.62208],[-17.76874,28.67732],[-17.72457,28.74209],[-17.77789,28.8396],[-17.85713,28.83271],[-17.91982,28.85743],[-18.00518,28.78448],[-18.00694,28.75746],[-17.88882,28.55164],[-17.88789,28.55158]]],[[[-17.1923,28.02954],[-17.09852,28.09559],[-17.11789,28.15197],[-17.19653,28.20001],[-17.24518,28.20094],[-17.26037,28.21737],[-17.31866,28.20359],[-17.34893,28.09837],[-17.27104,28.02569],[-17.19558,28.02893],[-17.1923,28.02954]]],[[[-16.73321,28.06783],[-16.73675,28.05453],[-16.71111,28.04674],[-16.7055,28.00782],[-16.68541,27.99821],[-16.59576,28.02913],[-16.54136,28.02896],[-16.42528,28.15009],[-16.42468,28.20457],[-16.36168,28.30439],[-16.36106,28.37863],[-16.25401,28.45049],[-16.23721,28.48545],[-16.12642,28.53195],[-16.13434,28.58123],[-16.15811,28.58866],[-16.22562,28.56547],[-16.32864,28.57674],[-16.33364,28.55777],[-16.41109,28.52695],[-16.45564,28.46022],[-16.51186,28.41955],[-16.55518,28.41873],[-16.60827,28.39369],[-16.66955,28.40096],[-16.75225,28.37073],[-16.83236,28.39295],[-16.92282,28.3557],[-16.84109,28.2644],[-16.83665,28.20691],[-16.73271,28.0695],[-16.73321,28.06783]]],[[[-15.39427,28.031],[-15.41609,28.04795],[-15.41188,28.1033],[-15.4289,28.13058],[-15.42017,28.14665],[-15.41213,28.12865],[-15.40691,28.15819],[-15.40456,28.12131],[-15.40848,28.17835],[-15.43943,28.1692],[-15.43153,28.14576],[-15.46788,28.12614],[-15.52937,28.15523],[-15.60005,28.14435],[-15.63713,28.17185],[-15.66567,28.1583],[-15.70896,28.1659],[-15.69623,28.15165],[-15.71369,28.07903],[-15.78631,28.02113],[-15.82302,28.01336],[-15.83312,27.91006],[-15.78718,27.83406],[-15.67462,27.74921],[-15.57604,27.73596],[-15.55991,27.76313],[-15.42942,27.80394],[-15.41619,27.84418],[-15.38542,27.85753],[-15.3848,27.92579],[-15.35851,27.93121],[-15.38108,27.95012],[-15.36797,27.99132],[-15.39262,28.03082],[-15.39427,28.031]]],[[[-14.35985,28.04849],[-14.32284,28.04917],[-14.21864,28.16499],[-14.01224,28.20814],[-13.91749,28.25182],[-13.85244,28.39451],[-13.86756,28.48047],[-13.8256,28.55496],[-13.83089,28.69386],[-13.86518,28.74518],[-13.92659,28.75141],[-14.01739,28.71433],[-14.00891,28.67715],[-14.03329,28.59318],[-14.09807,28.47897],[-14.14678,28.43798],[-14.16226,28.36873],[-14.20427,28.32724],[-14.22269,28.21557],[-14.37349,28.11667],[-14.45055,28.10017],[-14.49058,28.11094],[-14.50944,28.06892],[-14.4775,28.07782],[-14.35848,28.04951],[-14.35985,28.04849]]],[[[-13.82271,28.73791],[-13.81413,28.76524],[-13.83575,28.75169],[-13.82366,28.7384],[-13.82271,28.73791]]],[[[-13.60568,28.94091],[-13.52812,28.96416],[-13.46479,29.01913],[-13.44746,29.09156],[-13.46422,29.12791],[-13.4282,29.15579],[-13.41915,29.19751],[-13.47052,29.2388],[-13.49714,29.21797],[-13.54296,29.1213],[-13.60188,29.13625],[-13.63049,29.11685],[-13.65764,29.12379],[-13.70778,29.0795],[-13.75558,29.0778],[-13.81436,29.03378],[-13.83373,28.9899],[-13.82917,28.93035],[-13.88188,28.8855],[-13.87686,28.85956],[-13.80219,28.85867],[-13.7872,28.8384],[-13.73778,28.90573],[-13.64489,28.91904],[-13.60673,28.94015],[-13.60568,28.94091]]],[[[-13.4888,29.24842],[-13.47325,29.27032],[-13.51198,29.28948],[-13.548,29.22358],[-13.52204,29.21906],[-13.48911,29.24428],[-13.4888,29.24842]]],[[[-13.52954,29.30223],[-13.53836,29.28887],[-13.52961,29.29913],[-13.52954,29.30223]]],[[[-13.52273,29.41083],[-13.52935,29.38569],[-13.5068,29.38448],[-13.48914,29.40461],[-13.52106,29.41168],[-13.52273,29.41083]]]]}},{"type":"Feature","properties":{"acom_code":"11","acom_name":"Extremadura","acom_iso3166_code":"EX"},"geometry":{"type":"Polygon","coordinates":[[[-6.93156,38.20821],[-6.84843,38.17724],[-6.79509,38.17854],[-6.81581,38.12014],[-6.77005,38.11211],[-6.75843,38.09289],[-6.6221,38.09701],[-6.58053,38.05277],[-6.58233,38.02085],[-6.54569,38.02812],[-6.47656,38.00783],[-6.45244,38.05596],[-6.4139,38.05856],[-6.36725,38.04892],[-6.35491,38.00985],[-6.30337,37.97824],[-6.20124,37.96193],[-6.18024,37.94103],[-6.11401,37.982],[-5.95369,37.99535],[-5.90804,38.06825],[-5.92638,38.10501],[-5.85152,38.17191],[-5.75625,38.18107],[-5.72816,38.19742],[-5.69473,38.18652],[-5.68397,38.15999],[-5.70389,38.16729],[-5.69526,38.14971],[-5.74074,38.12654],[-5.7349,38.08626],[-5.71043,38.08105],[-5.63343,38.13812],[-5.58479,38.13171],[-5.53967,38.16069],[-5.5225,38.2384],[-5.57565,38.32911],[-5.55961,38.36761],[-5.58491,38.39217],[-5.56814,38.43339],[-5.51876,38.46341],[-5.48543,38.46294],[-5.48006,38.48361],[-5.41862,38.51273],[-5.40656,38.54388],[-5.38416,38.53945],[-5.37175,38.58357],[-5.30765,38.57799],[-5.29224,38.61081],[-5.22378,38.65671],[-5.21475,38.64857],[-5.20884,38.66744],[-5.18423,38.65973],[-5.16732,38.68047],[-5.18362,38.71835],[-5.09639,38.70803],[-4.98999,38.73976],[-4.91494,38.88744],[-4.84732,38.8824],[-4.83241,38.93891],[-4.91885,38.95785],[-4.9625,39.05873],[-4.87999,39.03242],[-4.83279,39.04616],[-4.82694,39.06412],[-4.8744,39.10043],[-4.81027,39.19942],[-4.64897,39.1649],[-4.70823,39.20987],[-4.7611,39.32072],[-4.70708,39.32798],[-4.66896,39.42393],[-4.69028,39.45179],[-4.77314,39.39788],[-4.87093,39.36831],[-4.90072,39.37417],[-4.99806,39.42665],[-5.20663,39.59723],[-5.16148,39.64309],[-5.13779,39.715],[-5.17379,39.75085],[-5.15846,39.75966],[-5.16714,39.79875],[-5.20647,39.79756],[-5.25345,39.75288],[-5.30883,39.76039],[-5.31159,39.82856],[-5.28405,39.86387],[-5.32645,39.89197],[-5.40611,39.87773],[-5.36514,39.98292],[-5.36901,40.10009],[-5.33569,40.11515],[-5.36841,40.16178],[-5.37014,40.21693],[-5.34349,40.26337],[-5.42983,40.25226],[-5.47091,40.20785],[-5.54114,40.19587],[-5.61004,40.21548],[-5.62172,40.24552],[-5.64885,40.24958],[-5.69266,40.29211],[-5.79314,40.2867],[-5.78199,40.31246],[-5.79965,40.3537],[-5.88424,40.3266],[-5.91703,40.27893],[-5.93778,40.28107],[-6.00532,40.30537],[-6.01614,40.33998],[-6.10586,40.35682],[-6.08173,40.36329],[-6.07118,40.38633],[-6.08462,40.38949],[-6.06445,40.39603],[-6.12925,40.42039],[-6.11561,40.44107],[-6.14355,40.43567],[-6.20137,40.48288],[-6.23994,40.48586],[-6.27533,40.45852],[-6.34464,40.44278],[-6.37022,40.40242],[-6.41806,40.3995],[-6.43771,40.37329],[-6.53628,40.34724],[-6.56041,40.32905],[-6.55618,40.29078],[-6.58702,40.27072],[-6.67175,40.26323],[-6.69014,40.24266],[-6.71822,40.26924],[-6.7556,40.23892],[-6.83452,40.24758],[-6.8649,40.27027],[-6.95142,40.25757],[-6.96246,40.23872],[-7.0123,40.22609],[-7.02991,40.18637],[-7.01167,40.1261],[-6.94058,40.11215],[-6.86362,40.01196],[-6.90639,39.92431],[-6.90354,39.87082],[-6.9872,39.81003],[-6.97692,39.77199],[-7.01536,39.67062],[-7.14602,39.65325],[-7.24986,39.66699],[-7.33118,39.64109],[-7.54133,39.66375],[-7.49934,39.58965],[-7.42665,39.53275],[-7.39068,39.5296],[-7.38186,39.4913],[-7.29548,39.45874],[-7.32286,39.38195],[-7.30814,39.33685],[-7.23148,39.27826],[-7.24803,39.25337],[-7.24147,39.20825],[-7.13457,39.17121],[-7.14404,39.10863],[-7.10534,39.0992],[-7.03365,39.11758],[-6.98092,39.08782],[-6.95943,39.05447],[-6.95114,39.0236],[-7.05192,38.90709],[-7.03916,38.86466],[-7.25884,38.72384],[-7.27175,38.63758],[-7.2432,38.62348],[-7.3029,38.54412],[-7.32134,38.47982],[-7.2961,38.47612],[-7.33567,38.43606],[-7.27975,38.41968],[-7.15155,38.27613],[-7.08569,38.16948],[-7.06662,38.18647],[-7.0286,38.18251],[-7.01142,38.20436],[-6.97189,38.20218],[-6.93589,38.22004],[-6.93404,38.20826],[-6.93156,38.20821]]]}},{"type":"Feature","properties":{"acom_code":"02","acom_name":"Aragón","acom_iso3166_code":"AR"},"geometry":{"type":"Polygon","coordinates":[[[-2.05169,41.14685],[-1.95902,41.17249],[-1.93245,41.13859],[-1.80321,41.08998],[-1.61745,40.94373],[-1.62139,40.8804],[-1.54233,40.81122],[-1.53991,40.76073],[-1.56202,40.73975],[-1.53564,40.68702],[-1.56486,40.61474],[-1.54552,40.5952],[-1.59875,40.56205],[-1.6781,40.59095],[-1.70162,40.5411],[-1.69251,40.48682],[-1.7486,40.4629],[-1.80205,40.41134],[-1.80566,40.398],[-1.6972,40.32013],[-1.72594,40.30791],[-1.72046,40.28045],[-1.69141,40.30986],[-1.54047,40.19136],[-1.5109,40.20372],[-1.47442,40.18504],[-1.43996,40.19683],[-1.44886,40.14534],[-1.43332,40.13948],[-1.3571,40.12889],[-1.31972,40.14639],[-1.32299,40.18486],[-1.29652,40.21075],[-1.28434,40.1715],[-1.24548,40.14707],[-1.24299,40.11494],[-1.14985,40.11478],[-1.07213,40.06048],[-1.08423,40.03621],[-1.16519,40.0101],[-1.14255,39.97195],[-1.12175,39.96085],[-1.10501,39.97497],[-0.98938,39.98183],[-0.93189,39.95608],[-0.92045,39.9644],[-0.90266,39.93185],[-0.91205,39.87146],[-0.88857,39.85211],[-0.86356,39.84741],[-0.79769,39.88107],[-0.84042,39.92495],[-0.8378,39.97681],[-0.77765,39.99841],[-0.7545,40.04564],[-0.68143,40.04513],[-0.61347,40.06959],[-0.6287,40.1021],[-0.57864,40.13733],[-0.54419,40.25166],[-0.49452,40.22873],[-0.42807,40.2438],[-0.38373,40.26423],[-0.39007,40.30565],[-0.3661,40.30615],[-0.31869,40.35451],[-0.28233,40.36446],[-0.34698,40.44327],[-0.27245,40.47443],[-0.30216,40.51493],[-0.2933,40.61076],[-0.37048,40.61359],[-0.37796,40.66754],[-0.32882,40.68028],[-0.307,40.6595],[-0.23599,40.69111],[-0.23839,40.72154],[-0.19718,40.78446],[-0.14531,40.78593],[-0.12684,40.75332],[-0.0647,40.72741],[0.01476,40.72853],[0.04217,40.69101],[0.11502,40.72774],[0.16455,40.72382],[0.16034,40.75045],[0.17472,40.74118],[0.17776,40.7549],[0.22968,40.76731],[0.27956,40.82081],[0.23863,40.88455],[0.29336,40.97107],[0.25867,41.01538],[0.27905,41.02113],[0.21851,41.04277],[0.23033,41.05694],[0.21952,41.08333],[0.20138,41.08419],[0.20088,41.1265],[0.24987,41.13009],[0.25299,41.15015],[0.30332,41.16438],[0.3224,41.22524],[0.37967,41.23631],[0.38556,41.27861],[0.34845,41.32809],[0.37397,41.35154],[0.32004,41.39418],[0.35541,41.45246],[0.33968,41.48333],[0.3975,41.49066],[0.44618,41.54292],[0.42849,41.60238],[0.34961,41.59946],[0.35798,41.63172],[0.32595,41.67465],[0.38474,41.74031],[0.39465,41.73242],[0.39907,41.75641],[0.46966,41.76562],[0.48323,41.80146],[0.54226,41.82006],[0.55381,41.85145],[0.60748,41.87182],[0.5921,41.88442],[0.60534,41.92018],[0.56188,41.93822],[0.65822,42.00258],[0.65182,42.0262],[0.71385,42.16282],[0.70182,42.18834],[0.76462,42.32248],[0.74067,42.33713],[0.77131,42.35064],[0.72327,42.36563],[0.7461,42.38478],[0.6899,42.48372],[0.74216,42.5056],[0.72215,42.52631],[0.74689,42.53501],[0.76755,42.61122],[0.70833,42.62084],[0.66007,42.69085],[0.59709,42.70552],[0.58736,42.69449],[0.42209,42.69046],[0.36023,42.72435],[0.29527,42.67319],[0.26001,42.71602],[0.1758,42.73704],[0.05843,42.69756],[0.01581,42.70183],[0.00027,42.68532],[-0.05638,42.69231],[-0.06846,42.71807],[-0.10641,42.72062],[-0.15999,42.79803],[-0.18888,42.78705],[-0.31326,42.84937],[-0.39475,42.79897],[-0.44347,42.79589],[-0.50481,42.8275],[-0.53024,42.79139],[-0.56753,42.78074],[-0.56614,42.80371],[-0.60089,42.80632],[-0.60321,42.83243],[-0.6787,42.88455],[-0.73165,42.89603],[-0.7272,42.91929],[-0.78804,42.91939],[-0.81943,42.90029],[-0.81861,42.86865],[-0.85645,42.84665],[-0.84753,42.78592],[-0.86484,42.76335],[-0.90054,42.76047],[-0.90015,42.74352],[-0.92298,42.744],[-0.94868,42.71145],[-1.02798,42.70006],[-1.05193,42.64259],[-1.1514,42.64818],[-1.15712,42.61089],[-1.18004,42.60786],[-1.15845,42.59987],[-1.20192,42.57824],[-1.20279,42.54966],[-1.26477,42.5568],[-1.28814,42.52279],[-1.27278,42.4819],[-1.34151,42.42394],[-1.35972,42.37761],[-1.32908,42.35539],[-1.39908,42.2913],[-1.41699,42.21926],[-1.39191,42.18142],[-1.39888,42.12622],[-1.35228,42.07307],[-1.31059,42.07231],[-1.30332,42.0518],[-1.38223,41.94334],[-1.41779,41.91385],[-1.50176,41.92428],[-1.53445,41.91047],[-1.65415,41.96535],[-1.71522,41.95696],[-1.7669,41.99579],[-1.8337,41.99506],[-1.84718,42.008],[-1.84446,41.98695],[-1.86519,41.9776],[-1.85728,41.90952],[-1.81751,41.85307],[-1.85212,41.78826],[-1.80258,41.75085],[-1.8091,41.73637],[-1.77537,41.72479],[-1.78726,41.69909],[-1.81259,41.68607],[-1.80622,41.66426],[-1.85899,41.66153],[-1.9231,41.59833],[-1.99303,41.6008],[-1.96733,41.54607],[-1.98111,41.48644],[-1.95328,41.46245],[-1.93788,41.40739],[-2.02927,41.38416],[-2.03562,41.42689],[-2.10152,41.44579],[-2.11603,41.38205],[-2.16314,41.35535],[-2.17367,41.28808],[-2.14624,41.18439],[-2.0799,41.17098],[-2.05282,41.14744],[-2.05169,41.14685]],[[-1.10324,42.48198],[-1.08514,42.48336],[-1.05645,42.43432],[-1.12936,42.44672],[-1.10695,42.47831],[-1.10324,42.48198]],[[-1.14859,42.44104],[-1.15434,42.41446],[-1.18441,42.40102],[-1.18283,42.42459],[-1.14941,42.44185],[-1.14859,42.44104]]]}},{"type":"Feature","properties":{"acom_code":"08","acom_name":"Castilla-La Mancha","acom_iso3166_code":"CM"},"geometry":{"type":"MultiPolygon","coordinates":[[[[-5.04695,38.72909],[-4.96939,38.68654],[-4.87697,38.68609],[-4.85962,38.61439],[-4.70524,38.5712],[-4.70312,38.55306],[-4.62196,38.52345],[-4.59432,38.48634],[-4.53943,38.48202],[-4.45278,38.40147],[-4.28648,38.34245],[-4.26847,38.34703],[-4.27616,38.39082],[-4.25549,38.40162],[-4.15567,38.3807],[-3.91279,38.36784],[-3.85499,38.37493],[-3.82864,38.41426],[-3.78561,38.42527],[-3.59824,38.39847],[-3.58308,38.45147],[-3.54189,38.44538],[-3.52844,38.40864],[-3.4517,38.40032],[-3.37668,38.4396],[-3.37501,38.47523],[-3.32649,38.48212],[-3.28001,38.4604],[-3.13829,38.43858],[-3.06497,38.47825],[-3.00258,38.40793],[-2.99294,38.44961],[-2.96267,38.47119],[-2.90451,38.46972],[-2.88185,38.45353],[-2.77955,38.50976],[-2.76806,38.53234],[-2.68125,38.49693],[-2.59728,38.51244],[-2.5666,38.4907],[-2.57391,38.41639],[-2.48374,38.39799],[-2.4854,38.30148],[-2.43545,38.27195],[-2.44658,38.185],[-2.55233,38.08409],[-2.3587,38.02184],[-2.34122,38.02583],[-2.32899,38.06748],[-2.26567,38.10884],[-2.21329,38.20205],[-2.11288,38.23768],[-2.04857,38.30569],[-1.98258,38.28118],[-1.90745,38.2977],[-1.78408,38.35585],[-1.79451,38.36894],[-1.74392,38.3808],[-1.71976,38.36344],[-1.70396,38.3747],[-1.68771,38.36543],[-1.69323,38.33782],[-1.66971,38.31177],[-1.5895,38.3099],[-1.47843,38.37644],[-1.49631,38.54095],[-1.45202,38.58146],[-1.44768,38.64948],[-1.3838,38.69923],[-1.36655,38.70397],[-1.34308,38.67741],[-1.24969,38.73865],[-1.18378,38.75508],[-1.11967,38.73769],[-1.11578,38.71141],[-1.034,38.65659],[-0.96247,38.65693],[-0.91579,38.69596],[-0.9617,38.77452],[-0.92914,38.78365],[-0.92449,38.82377],[-0.92432,38.89159],[-0.95939,38.94429],[-1.14716,38.92912],[-1.26675,39.05102],[-1.25572,39.10617],[-1.18083,39.21182],[-1.16459,39.31008],[-1.31186,39.34272],[-1.33628,39.3338],[-1.41272,39.38044],[-1.45291,39.361],[-1.44851,39.37868],[-1.46743,39.38302],[-1.45177,39.39788],[-1.48687,39.40032],[-1.48342,39.42257],[-1.5048,39.41704],[-1.4962,39.42772],[-1.52154,39.43239],[-1.52878,39.4544],[-1.49942,39.50266],[-1.50242,39.54611],[-1.52105,39.54996],[-1.46208,39.57662],[-1.41793,39.65494],[-1.36853,39.68961],[-1.30785,39.67082],[-1.262,39.69891],[-1.27541,39.73864],[-1.215,39.80877],[-1.19998,39.85943],[-1.20832,39.94391],[-1.15295,39.96414],[-1.14735,39.9886],[-1.16519,40.0101],[-1.25098,39.99523],[-1.37686,40.0165],[-1.42029,40.09351],[-1.4076,40.1014],[-1.45621,40.13095],[-1.43996,40.19683],[-1.47442,40.18504],[-1.5109,40.20372],[-1.54047,40.19136],[-1.69141,40.30986],[-1.71745,40.27798],[-1.7294,40.30097],[-1.6972,40.32013],[-1.77737,40.39149],[-1.80566,40.398],[-1.7486,40.4629],[-1.69251,40.48682],[-1.70162,40.5411],[-1.6781,40.59095],[-1.59875,40.56205],[-1.54552,40.5952],[-1.56486,40.61474],[-1.53564,40.68702],[-1.56202,40.73975],[-1.53991,40.76073],[-1.54233,40.81122],[-1.62139,40.8804],[-1.61745,40.94373],[-1.80321,41.08998],[-1.93245,41.13859],[-1.95902,41.17249],[-2.04762,41.15265],[-2.05643,41.06969],[-2.13186,41.1181],[-2.1753,41.08375],[-2.23215,41.09701],[-2.26354,41.06754],[-2.32341,41.05651],[-2.35533,41.08645],[-2.41891,41.05771],[-2.46947,41.07811],[-2.48226,41.11627],[-2.50885,41.11886],[-2.53651,41.16253],[-2.57558,41.13947],[-2.59495,41.1499],[-2.57812,41.17928],[-2.62207,41.18799],[-2.59457,41.19942],[-2.58949,41.22454],[-2.6292,41.21521],[-2.64601,41.24021],[-2.70955,41.25198],[-2.71677,41.27567],[-2.76095,41.27402],[-2.77551,41.25008],[-2.81959,41.25734],[-2.86649,41.27478],[-2.86899,41.31706],[-2.88843,41.32524],[-2.94119,41.31394],[-2.95013,41.29264],[-3.06197,41.27333],[-3.20735,41.30424],[-3.25426,41.25838],[-3.2772,41.27469],[-3.29035,41.25819],[-3.33719,41.25268],[-3.41181,41.26334],[-3.40139,41.21373],[-3.44402,41.215],[-3.46652,41.18338],[-3.53972,41.16504],[-3.48821,41.09403],[-3.42915,41.08418],[-3.43893,41.04267],[-3.39445,41.00028],[-3.4183,40.98756],[-3.44463,40.90632],[-3.46011,40.90741],[-3.44041,40.87558],[-3.47242,40.86434],[-3.47856,40.82184],[-3.51157,40.7885],[-3.45901,40.78132],[-3.44434,40.76158],[-3.45042,40.73489],[-3.43507,40.7277],[-3.46855,40.68994],[-3.40473,40.66964],[-3.39335,40.69246],[-3.34678,40.63807],[-3.31599,40.65347],[-3.33806,40.62611],[-3.32827,40.59484],[-3.28407,40.56898],[-3.29713,40.53752],[-3.22706,40.53624],[-3.19995,40.51445],[-3.1986,40.44225],[-3.15551,40.43942],[-3.13056,40.40518],[-3.15343,40.3677],[-3.14124,40.35051],[-3.18064,40.31332],[-3.19721,40.25755],[-3.17482,40.23518],[-3.12824,40.27879],[-3.09881,40.27461],[-3.06785,40.15791],[-3.08939,40.16291],[-3.09676,40.14239],[-3.05298,40.09939],[-3.0888,40.07059],[-3.16158,40.06493],[-3.17747,40.09212],[-3.20096,40.06049],[-3.27433,40.04746],[-3.33442,40.08105],[-3.37771,40.07477],[-3.39393,40.03559],[-3.51067,40.04582],[-3.51971,40.02109],[-3.59001,40.01322],[-3.63799,39.98838],[-3.6345,39.96589],[-3.74387,39.9408],[-3.81489,39.88574],[-3.87361,39.90867],[-3.87439,39.92956],[-3.84004,39.94196],[-3.83204,39.93156],[-3.81033,39.95376],[-3.78294,39.94494],[-3.76317,39.96711],[-3.77068,39.95061],[-3.75449,39.9504],[-3.75888,39.96887],[-3.72794,39.96454],[-3.74662,39.98075],[-3.72046,39.98417],[-3.69989,40.01954],[-3.63609,40.04163],[-3.60763,40.10897],[-3.66731,40.14329],[-3.68372,40.13227],[-3.72222,40.14771],[-3.74626,40.13216],[-3.77143,40.13978],[-3.80675,40.17722],[-3.83419,40.16135],[-3.87101,40.18986],[-3.93129,40.20397],[-3.95144,40.19004],[-3.95287,40.2128],[-3.991,40.20948],[-4.02398,40.24895],[-4.07289,40.26545],[-4.10427,40.24183],[-4.14577,40.24518],[-4.14399,40.26462],[-4.19087,40.29735],[-4.20469,40.26903],[-4.24616,40.27421],[-4.26965,40.23602],[-4.30611,40.22178],[-4.30799,40.23388],[-4.34818,40.23798],[-4.35639,40.30862],[-4.37896,40.3175],[-4.38451,40.28827],[-4.43525,40.25913],[-4.43701,40.23825],[-4.50979,40.21919],[-4.52692,40.20035],[-4.57908,40.2172],[-4.6543,40.19805],[-4.68689,40.21051],[-4.69814,40.28219],[-4.76119,40.26094],[-4.80347,40.27527],[-4.807,40.23507],[-4.92411,40.17057],[-4.92529,40.13627],[-4.9574,40.13292],[-4.95502,40.12144],[-5.01273,40.11163],[-5.01688,40.15911],[-5.06715,40.15093],[-5.08918,40.1237],[-5.17331,40.08541],[-5.20309,40.08274],[-5.2172,40.10795],[-5.35944,40.10841],[-5.36514,39.98292],[-5.40611,39.87773],[-5.32645,39.89197],[-5.28405,39.86387],[-5.31159,39.82856],[-5.30883,39.76039],[-5.25345,39.75288],[-5.20647,39.79756],[-5.16714,39.79875],[-5.15846,39.75966],[-5.17379,39.75085],[-5.13779,39.715],[-5.15142,39.66129],[-5.20207,39.59202],[-4.99806,39.42665],[-4.90072,39.37417],[-4.87093,39.36831],[-4.77314,39.39788],[-4.69028,39.45179],[-4.66896,39.42393],[-4.70708,39.32798],[-4.7611,39.32072],[-4.70823,39.20987],[-4.64789,39.16687],[-4.81027,39.19942],[-4.8744,39.10043],[-4.82694,39.06412],[-4.83279,39.04616],[-4.87999,39.03242],[-4.9625,39.05873],[-4.91885,38.95785],[-4.83113,38.93561],[-4.84732,38.8824],[-4.91494,38.88744],[-4.94348,38.85438],[-4.98999,38.73976],[-5.03814,38.7335],[-5.04695,38.72909]]],[[[-3.37822,40.6335],[-3.36361,40.63842],[-3.37592,40.63469],[-3.37822,40.6335]]]]}},{"type":"Feature","properties":{"acom_code":"06","acom_name":"Cantabria","acom_iso3166_code":"CB"},"geometry":{"type":"MultiPolygon","coordinates":[[[[-4.84102,43.18078],[-4.85143,43.12594],[-4.76684,43.07469],[-4.76605,43.05528],[-4.74005,43.05317],[-4.73785,43.02094],[-4.63951,43.01636],[-4.60644,43.03543],[-4.55937,43.01923],[-4.52125,43.04753],[-4.47535,43.03868],[-4.44756,43.05837],[-4.3981,43.03501],[-4.34798,42.97239],[-4.23832,42.95416],[-4.21398,42.84731],[-4.15012,42.87144],[-4.12602,42.85668],[-4.14068,42.8291],[-4.15706,42.83757],[-4.18433,42.82183],[-4.15054,42.78941],[-4.09854,42.79129],[-4.08146,42.76162],[-4.05448,42.7634],[-4.00356,42.83141],[-3.99965,42.76898],[-3.96569,42.7586],[-3.91095,42.76839],[-3.89445,42.80454],[-3.85921,42.78678],[-3.8165,42.81041],[-3.83631,42.8788],[-3.86382,42.88963],[-3.87996,42.85112],[-3.91396,42.86024],[-3.89651,42.87998],[-3.92411,42.88891],[-3.89221,42.88704],[-3.90811,42.9136],[-3.86798,42.89886],[-3.8339,42.91807],[-3.84076,42.94065],[-3.88738,42.94877],[-3.89128,42.92549],[-3.93354,42.8996],[-3.92999,42.91485],[-3.97157,42.91136],[-3.99058,42.93061],[-3.95609,42.99796],[-3.89105,43.04166],[-3.84915,43.04111],[-3.83382,43.05933],[-3.84701,43.08442],[-3.76428,43.08123],[-3.75488,43.10055],[-3.70468,43.11627],[-3.6495,43.17984],[-3.61256,43.1695],[-3.60319,43.14961],[-3.41761,43.13332],[-3.45015,43.23621],[-3.33887,43.27834],[-3.33108,43.30062],[-3.20945,43.28361],[-3.15733,43.30132],[-3.15076,43.34871],[-3.22819,43.39647],[-3.32076,43.40279],[-3.33009,43.41614],[-3.42524,43.41325],[-3.45005,43.43606],[-3.46472,43.40394],[-3.46357,43.43128],[-3.49168,43.4248],[-3.46497,43.4446],[-3.42978,43.44101],[-3.43088,43.462],[-3.4938,43.47054],[-3.51722,43.4943],[-3.58684,43.51328],[-3.73323,43.45989],[-3.77744,43.45807],[-3.74631,43.45187],[-3.75247,43.43552],[-3.72788,43.44262],[-3.75722,43.43063],[-3.75593,43.44815],[-3.77328,43.44847],[-3.79128,43.43221],[-3.7793,43.42091],[-3.81531,43.40756],[-3.8078,43.39634],[-3.77061,43.4068],[-3.80971,43.39478],[-3.82895,43.408],[-3.80378,43.42616],[-3.83069,43.43516],[-3.81525,43.43694],[-3.82534,43.45167],[-3.76354,43.46809],[-3.81157,43.49493],[-3.94554,43.47115],[-3.97845,43.44105],[-4.08264,43.43774],[-4.17523,43.40105],[-4.28058,43.38799],[-4.32802,43.39125],[-4.33998,43.40576],[-4.38913,43.39026],[-4.51243,43.39328],[-4.53985,43.35587],[-4.52243,43.27904],[-4.54737,43.26898],[-4.55026,43.28569],[-4.60756,43.29863],[-4.63782,43.26706],[-4.73012,43.25505],[-4.73687,43.18701],[-4.83768,43.18129],[-4.84102,43.18078]],[[-4.17981,42.82326],[-4.16173,42.81306],[-4.18298,42.8205],[-4.17981,42.82326]],[[-4.08933,42.80908],[-4.10157,42.79373],[-4.1073,42.8277],[-4.08884,42.81316],[-4.08933,42.80908]]],[[[-3.27722,43.26351],[-3.30572,43.2527],[-3.28482,43.19717],[-3.25078,43.25145],[-3.27014,43.2666],[-3.27722,43.26351]]]]}},{"type":"Feature","properties":{"acom_code":"17","acom_name":"La Rioja","acom_iso3166_code":"RI"},"geometry":{"type":"Polygon","coordinates":[[[-2.85807,42.63838],[-2.91601,42.61952],[-2.94713,42.63934],[-3.08415,42.64069],[-3.05983,42.58919],[-3.13427,42.54205],[-3.0719,42.5281],[-3.0947,42.48807],[-3.046,42.44515],[-3.0633,42.42491],[-3.05769,42.37012],[-3.07818,42.41575],[-3.10135,42.41678],[-3.10527,42.38637],[-3.06339,42.35735],[-3.10926,42.35188],[-3.08859,42.24573],[-3.12937,42.19849],[-3.03437,42.08596],[-2.93533,42.08941],[-2.91362,42.02285],[-2.88383,42.00949],[-2.79834,42.04733],[-2.80334,42.08048],[-2.77485,42.12354],[-2.73467,42.12495],[-2.70595,42.10356],[-2.75758,42.03262],[-2.74617,42.00868],[-2.57991,41.99626],[-2.54907,42.05151],[-2.51488,42.06886],[-2.51468,42.11454],[-2.48437,42.10635],[-2.43846,42.13727],[-2.3182,42.14518],[-2.28216,42.1317],[-2.26959,42.08855],[-2.20888,42.10466],[-2.12732,42.09717],[-2.12724,42.08046],[-2.16191,42.06673],[-2.10763,42.00277],[-2.12407,41.99531],[-2.10996,41.95787],[-2.03741,41.94147],[-2.02831,41.95339],[-1.9703,41.91914],[-1.85654,41.9664],[-1.84718,42.008],[-1.90158,42.02968],[-1.89943,42.07771],[-1.82162,42.15357],[-1.78198,42.13774],[-1.73974,42.14974],[-1.71989,42.13344],[-1.67966,42.15169],[-1.7009,42.17312],[-1.67953,42.19114],[-1.70424,42.19203],[-1.70924,42.20999],[-1.80233,42.22343],[-1.84894,42.25892],[-1.87228,42.25267],[-1.87126,42.28949],[-1.91382,42.30011],[-1.91851,42.32696],[-1.96452,42.33382],[-1.99502,42.36331],[-2.08996,42.34697],[-2.07951,42.36913],[-2.11512,42.39866],[-2.11228,42.42009],[-2.17504,42.40777],[-2.27639,42.44667],[-2.28801,42.46736],[-2.29872,42.45741],[-2.33198,42.46808],[-2.34675,42.45177],[-2.41567,42.49054],[-2.51285,42.48993],[-2.51059,42.51993],[-2.53232,42.48324],[-2.5684,42.49408],[-2.59705,42.47301],[-2.60536,42.5035],[-2.64818,42.48366],[-2.67799,42.5265],[-2.70572,42.51666],[-2.68177,42.59539],[-2.76393,42.62244],[-2.77768,42.58225],[-2.82483,42.55463],[-2.84073,42.58082],[-2.81877,42.61272],[-2.8418,42.6086],[-2.85393,42.63705],[-2.85807,42.63838]],[[-2.98522,42.61422],[-2.99716,42.6021],[-2.98645,42.61475],[-2.98522,42.61422]],[[-2.92955,42.61069],[-2.93918,42.59429],[-2.93217,42.61291],[-2.92955,42.61069]]]}},{"type":"Feature","properties":{"acom_code":"07","acom_name":"Castilla y León","acom_iso3166_code":"CL"},"geometry":{"type":"MultiPolygon","coordinates":[[[[-6.98576,41.97104],[-6.9578,41.96894],[-6.94151,41.94388],[-6.83054,41.94349],[-6.81134,41.99252],[-6.76868,41.98409],[-6.75057,41.94364],[-6.7,41.93332],[-6.62138,41.93974],[-6.58374,41.96563],[-6.5465,41.93946],[-6.57117,41.88349],[-6.51586,41.87004],[-6.56904,41.7434],[-6.54827,41.68559],[-6.49838,41.65702],[-6.44501,41.68477],[-6.30229,41.66181],[-6.18917,41.57483],[-6.25803,41.51368],[-6.25079,41.50088],[-6.30542,41.44967],[-6.30012,41.42874],[-6.33327,41.41033],[-6.3185,41.38564],[-6.38833,41.38555],[-6.37696,41.35936],[-6.41527,41.34796],[-6.43701,41.30587],[-6.48688,41.29135],[-6.47837,41.27639],[-6.49631,41.26623],[-6.52188,41.27582],[-6.57133,41.23904],[-6.59161,41.25524],[-6.59976,41.24347],[-6.64835,41.24774],[-6.70919,41.17268],[-6.76869,41.13372],[-6.75476,41.10164],[-6.80893,41.0365],[-6.9312,41.02943],[-6.85996,40.95078],[-6.84911,40.90279],[-6.80862,40.88169],[-6.80019,40.84847],[-6.82593,40.84363],[-6.83112,40.75281],[-6.79402,40.66129],[-6.84536,40.56595],[-6.80087,40.55035],[-6.79527,40.51136],[-6.8497,40.45151],[-6.83447,40.4077],[-6.78122,40.3638],[-6.7949,40.32824],[-6.86138,40.29961],[-6.8649,40.27027],[-6.83452,40.24758],[-6.7556,40.23892],[-6.71822,40.26924],[-6.69014,40.24266],[-6.67175,40.26323],[-6.58702,40.27072],[-6.55618,40.29078],[-6.56041,40.32905],[-6.53628,40.34724],[-6.43771,40.37329],[-6.41806,40.3995],[-6.37022,40.40242],[-6.34464,40.44278],[-6.23048,40.4866],[-6.15592,40.45708],[-6.14776,40.43728],[-6.11561,40.44107],[-6.12925,40.42039],[-6.06445,40.39603],[-6.08462,40.38949],[-6.08173,40.36329],[-6.10586,40.35682],[-6.01614,40.33998],[-6.00532,40.30537],[-5.93778,40.28107],[-5.91703,40.27893],[-5.88424,40.3266],[-5.79965,40.3537],[-5.78199,40.31246],[-5.79314,40.2867],[-5.69266,40.29211],[-5.64885,40.24958],[-5.62172,40.24552],[-5.61004,40.21548],[-5.54114,40.19587],[-5.47091,40.20785],[-5.42983,40.25226],[-5.34349,40.26337],[-5.37014,40.21693],[-5.36841,40.16178],[-5.33569,40.11515],[-5.2172,40.10795],[-5.19957,40.08193],[-5.14095,40.09222],[-5.06715,40.15093],[-5.02917,40.15796],[-5.01273,40.11163],[-4.95502,40.12144],[-4.9574,40.13292],[-4.92529,40.13627],[-4.92411,40.17057],[-4.807,40.23507],[-4.80347,40.27527],[-4.76119,40.26094],[-4.69814,40.28219],[-4.68689,40.21051],[-4.6543,40.19805],[-4.56568,40.21819],[-4.56954,40.25728],[-4.52938,40.29312],[-4.54623,40.34183],[-4.52679,40.34487],[-4.50265,40.31487],[-4.45576,40.31935],[-4.44342,40.38639],[-4.42116,40.40653],[-4.32274,40.41115],[-4.34095,40.42826],[-4.31568,40.46477],[-4.3282,40.5336],[-4.28926,40.56419],[-4.28748,40.62898],[-4.24544,40.60245],[-4.16118,40.62346],[-4.17157,40.68063],[-4.0767,40.78888],[-3.97968,40.78455],[-3.95228,40.89363],[-3.9072,40.9553],[-3.78137,41.00031],[-3.74045,41.05364],[-3.67606,41.0867],[-3.6137,41.14905],[-3.51555,41.16343],[-3.46652,41.18338],[-3.44402,41.215],[-3.40139,41.21373],[-3.41181,41.26334],[-3.33719,41.25268],[-3.29035,41.25819],[-3.2772,41.27469],[-3.25426,41.25838],[-3.20735,41.30424],[-3.06197,41.27333],[-2.95013,41.29264],[-2.94119,41.31394],[-2.88843,41.32524],[-2.86899,41.31706],[-2.86649,41.27478],[-2.81959,41.25734],[-2.77551,41.25008],[-2.76095,41.27402],[-2.71677,41.27567],[-2.70955,41.25198],[-2.64601,41.24021],[-2.6292,41.21521],[-2.58949,41.22454],[-2.59457,41.19942],[-2.62207,41.18799],[-2.57812,41.17928],[-2.59495,41.1499],[-2.57558,41.13947],[-2.53651,41.16253],[-2.50885,41.11886],[-2.48226,41.11627],[-2.46947,41.07811],[-2.41891,41.05771],[-2.35533,41.08645],[-2.32341,41.05651],[-2.26354,41.06754],[-2.23215,41.09701],[-2.1753,41.08375],[-2.13186,41.1181],[-2.05643,41.06969],[-2.05169,41.14685],[-2.0799,41.17098],[-2.14624,41.18439],[-2.17367,41.28808],[-2.16314,41.35535],[-2.11603,41.38205],[-2.10152,41.44579],[-2.03562,41.42689],[-2.02927,41.38416],[-1.93788,41.40739],[-1.95328,41.46245],[-1.98111,41.48644],[-1.96733,41.54607],[-1.99303,41.6008],[-1.9231,41.59833],[-1.85899,41.66153],[-1.80622,41.66426],[-1.81259,41.68607],[-1.77537,41.72479],[-1.8091,41.73637],[-1.80258,41.75085],[-1.85212,41.78826],[-1.81751,41.85307],[-1.85728,41.90952],[-1.85654,41.9664],[-1.9703,41.91914],[-2.02831,41.95339],[-2.03741,41.94147],[-2.10996,41.95787],[-2.12407,41.99531],[-2.10763,42.00277],[-2.16191,42.06673],[-2.12724,42.08046],[-2.13675,42.10309],[-2.23784,42.10222],[-2.25889,42.08728],[-2.28216,42.1317],[-2.3182,42.14518],[-2.43846,42.13727],[-2.48437,42.10635],[-2.51468,42.11454],[-2.51488,42.06886],[-2.54907,42.05151],[-2.57991,41.99626],[-2.67358,41.99806],[-2.70514,42.01514],[-2.74617,42.00868],[-2.75574,42.02393],[-2.70842,42.08629],[-2.72906,42.12315],[-2.77485,42.12354],[-2.80334,42.08048],[-2.79834,42.04733],[-2.88383,42.00949],[-2.91362,42.02285],[-2.93533,42.08941],[-3.03437,42.08596],[-3.05895,42.12697],[-3.08568,42.13422],[-3.12937,42.19849],[-3.08859,42.24573],[-3.10926,42.35188],[-3.06339,42.35735],[-3.10527,42.38637],[-3.10135,42.41678],[-3.07818,42.41575],[-3.05769,42.37012],[-3.0633,42.42491],[-3.046,42.44515],[-3.0947,42.48807],[-3.0719,42.5281],[-3.13427,42.54205],[-3.05983,42.58919],[-3.08415,42.64069],[-2.94713,42.63934],[-2.91601,42.61952],[-2.85807,42.63838],[-2.89674,42.65478],[-2.9025,42.6936],[-2.93202,42.70848],[-2.9806,42.70348],[-3.01588,42.73999],[-3.04209,42.73958],[-3.04762,42.76504],[-3.14791,42.7567],[-3.12361,42.7888],[-3.15923,42.80459],[-3.11315,42.86106],[-3.11494,42.88925],[-3.16282,42.85674],[-3.19069,42.86946],[-3.22218,42.83864],[-3.20553,42.8274],[-3.28261,42.87551],[-3.22473,42.94969],[-3.14473,42.93468],[-3.14956,42.91732],[-3.08952,42.899],[-3.01891,42.90851],[-2.98142,42.93988],[-3.04187,42.96922],[-3.06152,43.00357],[-3.1778,43.02198],[-3.14186,43.02981],[-3.14019,43.06671],[-3.15809,43.07372],[-3.13394,43.09723],[-3.18179,43.12088],[-3.14103,43.16502],[-3.15863,43.17813],[-3.22409,43.17013],[-3.25249,43.19782],[-3.4219,43.13235],[-3.60319,43.14961],[-3.61256,43.1695],[-3.6495,43.17984],[-3.70468,43.11627],[-3.75488,43.10055],[-3.76428,43.08123],[-3.84701,43.08442],[-3.83382,43.05933],[-3.84915,43.04111],[-3.89105,43.04166],[-3.95609,42.99796],[-3.99058,42.93061],[-3.97157,42.91136],[-3.92999,42.91485],[-3.93354,42.8996],[-3.89128,42.92549],[-3.88738,42.94877],[-3.84076,42.94065],[-3.8339,42.91807],[-3.86798,42.89886],[-3.90811,42.9136],[-3.89221,42.88704],[-3.92411,42.88891],[-3.89651,42.87998],[-3.91396,42.86024],[-3.87996,42.85112],[-3.86382,42.88963],[-3.83631,42.8788],[-3.8165,42.81041],[-3.85921,42.78678],[-3.89445,42.80454],[-3.91095,42.76839],[-3.96569,42.7586],[-3.99965,42.76898],[-4.00356,42.83141],[-4.05448,42.7634],[-4.08146,42.76162],[-4.09854,42.79129],[-4.15054,42.78941],[-4.18433,42.82183],[-4.15706,42.83757],[-4.14068,42.8291],[-4.12602,42.85668],[-4.15012,42.87144],[-4.21398,42.84731],[-4.23832,42.95416],[-4.34798,42.97239],[-4.3981,43.03501],[-4.44756,43.05837],[-4.47535,43.03868],[-4.52125,43.04753],[-4.55937,43.01923],[-4.60644,43.03543],[-4.63951,43.01636],[-4.73785,43.02094],[-4.74005,43.05317],[-4.76605,43.05528],[-4.76684,43.07469],[-4.83312,43.10186],[-4.85143,43.12594],[-4.83955,43.18966],[-4.89479,43.23817],[-4.96306,43.21267],[-4.99762,43.17026],[-5.02146,43.18351],[-5.07663,43.17895],[-5.10174,43.10185],[-5.1478,43.11512],[-5.2166,43.08449],[-5.28212,43.07743],[-5.36914,43.09458],[-5.39045,43.04934],[-5.47852,43.05491],[-5.4938,43.02124],[-5.56649,43.0217],[-5.6931,43.05634],[-5.72826,43.04249],[-5.76826,42.96854],[-5.84298,42.96426],[-5.86173,42.98169],[-5.88849,42.97919],[-5.88719,42.99409],[-5.95579,43.01721],[-5.97419,43.06515],[-6.02093,43.05379],[-6.08129,43.0759],[-6.0969,43.03064],[-6.13667,43.02099],[-6.1784,43.0478],[-6.21498,43.04721],[-6.22681,43.00891],[-6.28519,43.03637],[-6.32649,43.03133],[-6.36343,43.05731],[-6.39707,43.03808],[-6.42413,42.98762],[-6.47732,42.9919],[-6.47301,42.96775],[-6.43364,42.96416],[-6.4331,42.93976],[-6.48977,42.92025],[-6.691,42.92229],[-6.77285,42.88254],[-6.77067,42.89862],[-6.82419,42.91506],[-6.84198,42.90636],[-6.81572,42.86977],[-6.83374,42.88206],[-6.87128,42.87384],[-6.84134,42.83235],[-6.86743,42.78717],[-6.9356,42.74086],[-6.95948,42.75503],[-6.97288,42.72501],[-7.01089,42.72366],[-7.04519,42.69477],[-7.00436,42.64287],[-7.047,42.6327],[-7.03356,42.58409],[-7.06668,42.55356],[-7.07502,42.50817],[-6.97854,42.49325],[-6.96051,42.5175],[-6.9322,42.52054],[-6.86056,42.48909],[-6.82669,42.49296],[-6.8086,42.46945],[-6.81465,42.42694],[-6.84351,42.40585],[-6.73395,42.35911],[-6.73429,42.31869],[-6.767,42.25746],[-6.80308,42.23904],[-6.78699,42.21591],[-6.84364,42.22831],[-6.88656,42.21454],[-6.90085,42.18947],[-6.94385,42.17186],[-6.94865,42.13559],[-6.98616,42.12403],[-7.00247,42.08436],[-7.03358,42.07424],[-7.01267,42.05271],[-6.97479,42.05516],[-6.96114,42.0272],[-6.98665,41.9759],[-6.98576,41.97104]],[[-4.31575,40.6482],[-4.32412,40.65803],[-4.28997,40.68056],[-4.25388,40.66189],[-4.30538,40.6503],[-4.31575,40.6482]]],[[[-4.08933,42.80908],[-4.1073,42.8277],[-4.10157,42.79373],[-4.08788,42.80568],[-4.08933,42.80908]]],[[[-4.17981,42.82326],[-4.16173,42.81306],[-4.17696,42.82356],[-4.17981,42.82326]]],[[[-2.92955,42.61069],[-2.93918,42.59429],[-2.92956,42.60625],[-2.92955,42.61069]]],[[[-2.98522,42.61422],[-2.99716,42.6021],[-2.98286,42.6108],[-2.98522,42.61422]]],[[[-2.86424,42.74391],[-2.8253,42.70894],[-2.7845,42.69894],[-2.7679,42.66601],[-2.65846,42.67239],[-2.63485,42.6478],[-2.5174,42.64633],[-2.52202,42.68403],[-2.57777,42.66821],[-2.60898,42.69586],[-2.5583,42.76273],[-2.58937,42.75032],[-2.60334,42.77013],[-2.64401,42.76468],[-2.7317,42.79449],[-2.82681,42.78445],[-2.83547,42.79627],[-2.86309,42.74543],[-2.86424,42.74391]]]]}},{"type":"Feature","properties":{"acom_code":"13","acom_name":"Comunidad de Madrid","acom_iso3166_code":"MD"},"geometry":{"type":"MultiPolygon","coordinates":[[[[-3.53972,41.16504],[-3.63278,41.13634],[-3.67606,41.0867],[-3.74045,41.05364],[-3.78137,41.00031],[-3.9072,40.9553],[-3.95228,40.89363],[-3.97968,40.78455],[-4.0767,40.78888],[-4.17157,40.68063],[-4.16118,40.62346],[-4.24544,40.60245],[-4.28748,40.62898],[-4.28926,40.56419],[-4.3282,40.5336],[-4.31568,40.46477],[-4.34095,40.42826],[-4.32274,40.41115],[-4.42116,40.40653],[-4.44342,40.38639],[-4.45576,40.31935],[-4.50265,40.31487],[-4.52679,40.34487],[-4.54623,40.34183],[-4.52938,40.29312],[-4.56879,40.25871],[-4.56091,40.22279],[-4.57908,40.2172],[-4.52692,40.20035],[-4.50979,40.21919],[-4.43875,40.23721],[-4.43525,40.25913],[-4.38451,40.28827],[-4.37896,40.3175],[-4.35639,40.30862],[-4.34818,40.23798],[-4.29519,40.21888],[-4.24925,40.27275],[-4.20469,40.26903],[-4.19087,40.29735],[-4.14399,40.26462],[-4.14577,40.24518],[-4.10427,40.24183],[-4.07289,40.26545],[-4.02398,40.24895],[-3.991,40.20948],[-3.95287,40.2128],[-3.95144,40.19004],[-3.93129,40.20397],[-3.87101,40.18986],[-3.83419,40.16135],[-3.80004,40.1754],[-3.74626,40.13216],[-3.72222,40.14771],[-3.6915,40.13276],[-3.66731,40.14329],[-3.60763,40.10897],[-3.61036,40.08187],[-3.62895,40.07827],[-3.61953,40.05769],[-3.70799,40.01392],[-3.72046,39.98417],[-3.74662,39.98075],[-3.72794,39.96454],[-3.75888,39.96887],[-3.75449,39.9504],[-3.77068,39.95061],[-3.76317,39.96711],[-3.78294,39.94494],[-3.81033,39.95376],[-3.83204,39.93156],[-3.84004,39.94196],[-3.87439,39.92956],[-3.87361,39.90867],[-3.81489,39.88574],[-3.74387,39.9408],[-3.6345,39.96589],[-3.63799,39.98838],[-3.59001,40.01322],[-3.51971,40.02109],[-3.51067,40.04582],[-3.39393,40.03559],[-3.37771,40.07477],[-3.33442,40.08105],[-3.27433,40.04746],[-3.20096,40.06049],[-3.17747,40.09212],[-3.16158,40.06493],[-3.11819,40.06143],[-3.05298,40.09939],[-3.09676,40.14239],[-3.08939,40.16291],[-3.06785,40.15791],[-3.10153,40.27809],[-3.12824,40.27879],[-3.17482,40.23518],[-3.19445,40.24804],[-3.13056,40.40518],[-3.15551,40.43942],[-3.1986,40.44225],[-3.19995,40.51445],[-3.24992,40.54432],[-3.29713,40.53752],[-3.28407,40.56898],[-3.32827,40.59484],[-3.33806,40.62611],[-3.31599,40.65347],[-3.34678,40.63807],[-3.39335,40.69246],[-3.40473,40.66964],[-3.46855,40.68994],[-3.43507,40.7277],[-3.44434,40.76158],[-3.45901,40.78132],[-3.51157,40.7885],[-3.47856,40.82184],[-3.47242,40.86434],[-3.44041,40.87558],[-3.46011,40.90741],[-3.44463,40.90632],[-3.4183,40.98756],[-3.39445,41.00028],[-3.43893,41.04267],[-3.42915,41.08418],[-3.48821,41.09403],[-3.5367,41.16058],[-3.53972,41.16504]],[[-3.37822,40.6335],[-3.36361,40.63842],[-3.38026,40.63285],[-3.37822,40.6335]]],[[[-4.31575,40.6482],[-4.25388,40.66189],[-4.28997,40.68056],[-4.31951,40.64766],[-4.31575,40.6482]]]]}},{"type":"Feature","properties":{"acom_code":"15","acom_name":"Comunidad Foral de Navarra","acom_iso3166_code":"NC"},"geometry":{"type":"MultiPolygon","coordinates":[[[[-2.42058,42.48923],[-2.34675,42.45177],[-2.33198,42.46808],[-2.29872,42.45741],[-2.28801,42.46736],[-2.21651,42.416],[-2.11228,42.42009],[-2.11512,42.39866],[-2.07951,42.36913],[-2.08996,42.34697],[-1.99502,42.36331],[-1.96452,42.33382],[-1.91851,42.32696],[-1.91382,42.30011],[-1.87126,42.28949],[-1.87228,42.25267],[-1.84894,42.25892],[-1.80233,42.22343],[-1.70924,42.20999],[-1.70424,42.19203],[-1.67953,42.19114],[-1.7009,42.17312],[-1.67966,42.15169],[-1.70415,42.13939],[-1.76471,42.15041],[-1.78198,42.13774],[-1.82162,42.15357],[-1.89203,42.08599],[-1.90158,42.02968],[-1.85523,42.0026],[-1.7669,41.99579],[-1.70078,41.95394],[-1.65415,41.96535],[-1.55926,41.91394],[-1.4776,41.92491],[-1.41779,41.91385],[-1.30482,42.04295],[-1.31059,42.07231],[-1.35228,42.07307],[-1.39888,42.12622],[-1.39191,42.18142],[-1.41753,42.21237],[-1.39908,42.2913],[-1.32908,42.35539],[-1.35972,42.37761],[-1.34151,42.42394],[-1.27278,42.4819],[-1.28814,42.52279],[-1.26477,42.5568],[-1.20279,42.54966],[-1.20192,42.57824],[-1.15845,42.59987],[-1.18004,42.60786],[-1.15712,42.61089],[-1.1514,42.64818],[-1.05193,42.64259],[-1.02798,42.70006],[-0.94868,42.71145],[-0.92298,42.744],[-0.90015,42.74352],[-0.90054,42.76047],[-0.86484,42.76335],[-0.84753,42.78592],[-0.85645,42.84665],[-0.81861,42.86865],[-0.81943,42.90029],[-0.78295,42.92156],[-0.72543,42.91965],[-0.73129,42.94779],[-0.76738,42.9692],[-0.81051,42.9513],[-0.90743,42.96441],[-0.94427,42.95337],[-1.11462,43.02389],[-1.13395,43.00825],[-1.21259,43.05169],[-1.26275,43.04402],[-1.30857,43.06922],[-1.27298,43.11877],[-1.34465,43.09454],[-1.35417,43.02812],[-1.44121,43.04635],[-1.47341,43.08664],[-1.41408,43.1283],[-1.38141,43.18968],[-1.38432,43.25367],[-1.41365,43.27367],[-1.44011,43.26732],[-1.53532,43.29467],[-1.56408,43.28878],[-1.57566,43.24994],[-1.60871,43.25199],[-1.62576,43.30687],[-1.69439,43.31212],[-1.78324,43.28682],[-1.79525,43.24632],[-1.86044,43.21285],[-1.86876,43.23024],[-1.88115,43.20784],[-1.91415,43.22517],[-1.92069,43.15063],[-1.90222,43.13551],[-2.02282,43.06519],[-2.03834,42.98099],[-2.09532,42.97227],[-2.11697,42.94227],[-2.18096,42.93513],[-2.19914,42.95118],[-2.23216,42.93179],[-2.25307,42.89277],[-2.23269,42.84382],[-2.28101,42.78513],[-2.26208,42.74898],[-2.31685,42.73935],[-2.32416,42.72231],[-2.28848,42.65507],[-2.38195,42.6343],[-2.37626,42.65071],[-2.4158,42.66268],[-2.48307,42.61216],[-2.50008,42.61648],[-2.4907,42.58769],[-2.46221,42.58739],[-2.45324,42.56711],[-2.42112,42.60712],[-2.39675,42.5991],[-2.3922,42.51695],[-2.42353,42.49908],[-2.42058,42.48923]]],[[[-1.14859,42.44104],[-1.18283,42.42459],[-1.18441,42.40102],[-1.15877,42.40966],[-1.14497,42.44187],[-1.14859,42.44104]]],[[[-1.10324,42.48198],[-1.12936,42.44672],[-1.05645,42.43432],[-1.06937,42.46638],[-1.10196,42.48337],[-1.10324,42.48198]]]]}},{"type":"Feature","properties":{"acom_code":"01","acom_name":"Andalucía","acom_iso3166_code":"AN"},"geometry":{"type":"MultiPolygon","coordinates":[[[[-6.93156,38.20821],[-6.96914,38.16631],[-6.95218,38.15278],[-6.9878,38.10198],[-7.00202,38.0224],[-7.04473,38.014],[-7.09871,38.04388],[-7.12838,38.02955],[-7.12874,38.0017],[-7.20084,38.0032],[-7.26244,37.97986],[-7.2485,37.95577],[-7.28347,37.86897],[-7.32438,37.81595],[-7.42178,37.75809],[-7.44371,37.66506],[-7.50361,37.60495],[-7.50665,37.55759],[-7.52305,37.55356],[-7.46348,37.48592],[-7.4457,37.41986],[-7.46287,37.41007],[-7.44048,37.39102],[-7.44218,37.3113],[-7.42169,37.27378],[-7.4337,37.25139],[-7.40313,37.17442],[-7.27089,37.20178],[-7.04207,37.20712],[-6.85215,37.12892],[-6.91668,37.1763],[-6.52188,36.97716],[-6.44927,36.90779],[-6.39723,36.80734],[-6.34226,36.79426],[-6.44263,36.73826],[-6.39434,36.63438],[-6.35824,36.61529],[-6.30157,36.61833],[-6.26594,36.57986],[-6.22802,36.57747],[-6.22958,36.52547],[-6.25758,36.52507],[-6.24563,36.50896],[-6.20921,36.50905],[-6.1985,36.52818],[-6.17324,36.52141],[-6.22984,36.4626],[-6.2576,36.47311],[-6.27004,36.53238],[-6.28995,36.53076],[-6.28655,36.54312],[-6.30858,36.53255],[-6.14185,36.29541],[-6.10276,36.28411],[-6.03428,36.18101],[-5.91529,36.18491],[-5.79988,36.08008],[-5.77732,36.08792],[-5.72392,36.06011],[-5.68929,36.06736],[-5.65025,36.05202],[-5.61028,36.00028],[-5.43083,36.07086],[-5.44155,36.12129],[-5.42283,36.13282],[-5.44115,36.12706],[-5.43556,36.14833],[-5.44283,36.13111],[-5.44687,36.14161],[-5.4265,36.17598],[-5.38615,36.18019],[-5.33885,36.15345],[-5.31736,36.22863],[-5.17635,36.41469],[-5.07544,36.4519],[-5.00513,36.45992],[-4.91218,36.50557],[-4.73976,36.4835],[-4.63842,36.50702],[-4.60249,36.56352],[-4.51021,36.59731],[-4.41379,36.71843],[-4.41387,36.7044],[-4.39369,36.7222],[-4.17726,36.71518],[-4.10725,36.72599],[-4.07255,36.74856],[-3.95442,36.72662],[-3.8351,36.754],[-3.76732,36.72937],[-3.74881,36.7376],[-3.73312,36.71964],[-3.65727,36.7466],[-3.60201,36.74464],[-3.55721,36.71597],[-3.52587,36.72413],[-3.48267,36.69727],[-3.42104,36.69397],[-3.33886,36.73828],[-3.2589,36.75341],[-2.97787,36.73849],[-2.92672,36.75178],[-2.8479,36.6951],[-2.8156,36.70629],[-2.76378,36.68085],[-2.70093,36.68298],[-2.61965,36.72696],[-2.56192,36.81613],[-2.475,36.83682],[-2.42655,36.81074],[-2.36149,36.8416],[-2.29094,36.81985],[-2.19363,36.72176],[-2.12428,36.732],[-2.10667,36.76224],[-2.06355,36.77569],[-2.06052,36.80911],[-2.00126,36.8385],[-1.99208,36.89373],[-1.96744,36.8988],[-1.94053,36.93652],[-1.89552,36.9485],[-1.90076,36.98776],[-1.84985,37.06864],[-1.79709,37.2303],[-1.7083,37.30411],[-1.67708,37.35285],[-1.63012,37.37523],[-1.73708,37.44263],[-1.81176,37.45156],[-1.80856,37.43353],[-1.84509,37.45502],[-1.97681,37.61873],[-2.01265,37.7006],[-1.99583,37.72805],[-1.99951,37.82314],[-1.97422,37.86847],[-1.99494,37.88027],[-2.02244,37.86877],[-2.09727,37.8769],[-2.12261,37.9],[-2.17215,37.88865],[-2.24738,37.93422],[-2.29837,38.0028],[-2.34122,38.02583],[-2.42484,38.03292],[-2.54987,38.08054],[-2.44658,38.185],[-2.43545,38.27195],[-2.4854,38.30148],[-2.48374,38.39799],[-2.57146,38.41366],[-2.5666,38.4907],[-2.6027,38.51332],[-2.68125,38.49693],[-2.76806,38.53234],[-2.77955,38.50976],[-2.88185,38.45353],[-2.90451,38.46972],[-2.96267,38.47119],[-2.99294,38.44961],[-3.00258,38.40793],[-3.06497,38.47825],[-3.13829,38.43858],[-3.28001,38.4604],[-3.32649,38.48212],[-3.37501,38.47523],[-3.37668,38.4396],[-3.4517,38.40032],[-3.52844,38.40864],[-3.54189,38.44538],[-3.58308,38.45147],[-3.59824,38.39847],[-3.78561,38.42527],[-3.82864,38.41426],[-3.85499,38.37493],[-3.91279,38.36784],[-4.15567,38.3807],[-4.25549,38.40162],[-4.27616,38.39082],[-4.26847,38.34703],[-4.28648,38.34245],[-4.45278,38.40147],[-4.53943,38.48202],[-4.59432,38.48634],[-4.62196,38.52345],[-4.70312,38.55306],[-4.70524,38.5712],[-4.85962,38.61439],[-4.87697,38.68609],[-4.96939,38.68654],[-5.04695,38.72909],[-5.09639,38.70803],[-5.18362,38.71835],[-5.16732,38.68047],[-5.18423,38.65973],[-5.20884,38.66744],[-5.21475,38.64857],[-5.22378,38.65671],[-5.29224,38.61081],[-5.30765,38.57799],[-5.37175,38.58357],[-5.38416,38.53945],[-5.40656,38.54388],[-5.41862,38.51273],[-5.48006,38.48361],[-5.48543,38.46294],[-5.51876,38.46341],[-5.57034,38.43089],[-5.58507,38.38584],[-5.55948,38.36606],[-5.57565,38.32911],[-5.5225,38.2384],[-5.53967,38.16069],[-5.58479,38.13171],[-5.63343,38.13812],[-5.71043,38.08105],[-5.7349,38.08626],[-5.74074,38.12654],[-5.69526,38.14971],[-5.70389,38.16729],[-5.68397,38.15999],[-5.69473,38.18652],[-5.72816,38.19742],[-5.75625,38.18107],[-5.85152,38.17191],[-5.92638,38.10501],[-5.90804,38.06825],[-5.95369,37.99535],[-6.11401,37.982],[-6.18024,37.94103],[-6.20124,37.96193],[-6.30337,37.97824],[-6.35491,38.00985],[-6.36725,38.04892],[-6.4139,38.05856],[-6.45244,38.05596],[-6.47656,38.00783],[-6.54569,38.02812],[-6.58233,38.02085],[-6.58053,38.05277],[-6.6221,38.09701],[-6.75843,38.09289],[-6.77005,38.11211],[-6.81581,38.12014],[-6.79509,38.17854],[-6.84843,38.17724],[-6.93048,38.20699],[-6.93156,38.20821]]]]}},{"type":"Feature","properties":{"acom_code":"09","acom_name":"Cataluña","acom_iso3166_code":"CT"},"geometry":{"type":"MultiPolygon","coordinates":[[[[0.5147,40.52305],[0.60186,40.62196],[0.74442,40.63638],[0.70366,40.58968],[0.66033,40.59147],[0.64812,40.57294],[0.61829,40.58578],[0.59241,40.57763],[0.61958,40.55188],[0.66221,40.55723],[0.75739,40.64064],[0.8617,40.6898],[0.8754,40.71694],[0.86107,40.73703],[0.82648,40.73504],[0.76128,40.79348],[0.72934,40.78847],[0.78403,40.7707],[0.73482,40.76769],[0.70078,40.80451],[0.98766,41.04113],[1.12486,41.07477],[1.1717,41.05502],[1.19887,41.09402],[1.24892,41.10887],[1.22691,41.08811],[1.29792,41.12777],[1.39494,41.13164],[1.51171,41.17731],[2.15208,41.29561],[2.1653,41.3412],[2.1459,41.33098],[2.15092,41.34649],[2.18226,41.36452],[2.17289,41.31737],[2.17797,41.37413],[2.18924,41.36657],[2.26687,41.45902],[2.54772,41.5759],[2.77318,41.64818],[2.81997,41.68903],[2.93393,41.71486],[2.97677,41.7573],[3.05632,41.78757],[3.09995,41.84323],[3.13212,41.84206],[3.17591,41.86647],[3.23347,41.95037],[3.19571,42.01377],[3.21222,42.06884],[3.17683,42.11121],[3.1381,42.11571],[3.11816,42.14161],[3.11945,42.22675],[3.16542,42.2646],[3.21885,42.23233],[3.22983,42.25154],[3.26257,42.23716],[3.25451,42.25321],[3.28787,42.26612],[3.2762,42.28709],[3.29808,42.28614],[3.28937,42.30689],[3.32227,42.3195],[3.26538,42.3407],[3.24976,42.32977],[3.23113,42.35117],[3.19029,42.33914],[3.15515,42.37889],[3.17266,42.43474],[3.08518,42.42585],[3.04032,42.47352],[2.96724,42.46545],[2.94709,42.48212],[2.91842,42.4562],[2.83962,42.45926],[2.77829,42.41237],[2.75316,42.42624],[2.67366,42.40452],[2.67137,42.38771],[2.65138,42.3863],[2.67165,42.34075],[2.57691,42.3581],[2.53281,42.33293],[2.48091,42.34095],[2.43289,42.39365],[2.25693,42.43874],[2.20667,42.41738],[2.14825,42.42043],[2.08459,42.36174],[2.01607,42.34709],[1.9647,42.382],[1.93668,42.45441],[1.8908,42.44806],[1.8345,42.48292],[1.7307,42.49251],[1.72562,42.50437],[1.70361,42.4898],[1.66998,42.50419],[1.65702,42.46822],[1.59737,42.46632],[1.58083,42.44998],[1.56003,42.4579],[1.55242,42.43278],[1.45654,42.43588],[1.41919,42.4842],[1.46837,42.51002],[1.44756,42.54121],[1.41364,42.53535],[1.44495,42.56801],[1.42648,42.5828],[1.44307,42.60258],[1.38924,42.68702],[1.35093,42.70304],[1.35732,42.71972],[1.25272,42.71447],[1.2291,42.72776],[1.16614,42.70892],[1.07889,42.78834],[0.98306,42.78688],[0.95985,42.80575],[0.92641,42.78931],[0.81085,42.83872],[0.67796,42.85527],[0.65908,42.83784],[0.67083,42.80466],[0.64569,42.78339],[0.66681,42.77541],[0.64106,42.75442],[0.68016,42.72325],[0.66008,42.68785],[0.69559,42.65862],[0.69864,42.62883],[0.76755,42.61122],[0.74689,42.53501],[0.72215,42.52631],[0.74216,42.5056],[0.6899,42.48372],[0.7461,42.38478],[0.72222,42.36742],[0.77131,42.35064],[0.74067,42.33713],[0.76462,42.32248],[0.70182,42.18834],[0.71385,42.16282],[0.65182,42.0262],[0.65822,42.00258],[0.56188,41.93822],[0.60534,41.92018],[0.5921,41.88442],[0.60748,41.87182],[0.55381,41.85145],[0.54226,41.82006],[0.48323,41.80146],[0.46966,41.76562],[0.39907,41.75641],[0.39465,41.73242],[0.38474,41.74031],[0.32702,41.67817],[0.35798,41.63172],[0.34961,41.59946],[0.42849,41.60238],[0.44618,41.54292],[0.3975,41.49066],[0.33968,41.48333],[0.35541,41.45246],[0.32004,41.39418],[0.37397,41.35154],[0.34845,41.32809],[0.38556,41.27861],[0.37967,41.23631],[0.3224,41.22524],[0.30332,41.16438],[0.25299,41.15015],[0.24987,41.13009],[0.20088,41.1265],[0.20138,41.08419],[0.21952,41.08333],[0.23033,41.05694],[0.21851,41.04277],[0.27905,41.02113],[0.25867,41.01538],[0.29336,40.97107],[0.23863,40.88455],[0.27956,40.82081],[0.22968,40.76731],[0.17776,40.7549],[0.17472,40.74118],[0.15983,40.74848],[0.18219,40.72813],[0.22547,40.73184],[0.23964,40.70092],[0.29126,40.68863],[0.2656,40.64525],[0.28241,40.62755],[0.40196,40.60238],[0.44394,40.57822],[0.43858,40.54667],[0.50881,40.5244],[0.5147,40.52305]]],[[[1.97321,42.48525],[1.95983,42.45329],[2.01278,42.44836],[1.98665,42.47149],[1.99842,42.48532],[1.97812,42.48597],[1.97321,42.48525]]]]}}]}